id,lat,lon,name,street,zip_code,city
66917094,52.5239216,13.3888786,Friedrichstadt-Palast,Friedrichstraße 107,10117,Berlin
66917098,52.5236239,13.3886211,Quatsch Comedy Club,Friedrichstraße 107,10117,Berlin
66917115,52.5206669,13.3885051,Kabarett-Theater Distel,Friedrichstraße 101,10117,Berlin
66917188,52.5207714,13.3889021,Admiralspalast,Friedrichstraße 101,10117,Berlin
79808389,52.5088651,13.2707514,Die Wühlmäuse,Pommernallee 2-4,14052,Berlin
173985100,52.4990938,13.3862714,HAU 2 (Hebbel am Ufer),Hallesches Ufer 32,10963,Berlin
229948256,52.5258112,13.4011409,Sophiensæle,Sophienstraße 18,10178,Berlin
259797763,52.5182037,13.4399455,Berliner Kriminaltheater,Palisadenstraße 48,10243,Berlin
272406395,52.4986606,13.3022747,Schaubühne am Lehniner Platz,Kurfürstendamm 153,10709,Berlin
272807733,52.4976862,13.4429775,Ratibortheater,Cuvrystraße 20a,10997,Berlin
282754671,52.5142329,13.4721701,Verlängertes Wohnzimmer,Frankfurter Allee 91,10247,Berlin
289404068,52.5121441,13.3083771,Deutsche Oper Berlin,Bismarckstraße 35,10627,Berlin
290381165,52.5170913,13.4782731,Theater an der Parkaue,Parkaue 31,10367,Berlin
303027574,52.4881169,13.366735,Scheinbar Varieté e.V.,,10829,Berlin
315146496,52.4873738,13.3883479,Theater Thikwa (F40),Fidicinstraße 40,10965,Berlin
318525456,52.5156648,13.3869856,Komische Oper Berlin,Behrenstraße 55-57,10117,Berlin
345806623,52.5243546,13.3819066,Deutsches Theater,Schumannstraße 13a,10117,Berlin
428511003,52.5166137,13.464371,TIK: Theater im Kino,,,Berlin
454167248,52.5583825,13.413048,Vineta Theater,,,
474378383,52.4733641,13.3223214,Kleines Theater,Südwestkorso 64,12161,Berlin
474801032,52.4775631,13.439333,Neuköllner Oper,Karl-Marx-Straße 131-133,12043,Berlin
476027573,52.5399039,13.4136365,Theater Rambazamba,,,
510154873,52.5398598,13.4107279,Volksbühne im Prater,Kastanienallee 7-9,10435,Berlin
545733901,52.5185239,13.3954981,Theater im Palais,Am Festungsgraben 1,10117,Berlin
549931287,52.4608983,13.5130035,SpreeLacArt Kulturwerk Schöneweide,,,
572221430,52.5061225,13.3285705,Vaganten Bühne,Kantstraße 12a,10623,Berlin
613229739,52.535733,13.398065,Theater Mirakulum,Brunnenstraße 35,10115,Berlin
615148215,52.524042,13.402083,Chamäleon,Rosenthaler Straße 40-41,10178,Berlin
619119805,52.5103384,13.323503,Renaissance-Theater Berlin,Knesebeckstraße 100,10623,Berlin
695831689,52.4894386,13.3122082,Theater Coupé,Hohenzollerndamm 177,10713,Berlin
735151601,52.4936405,13.3876998,BKA-Theater,Mehringdamm 34,10961,Berlin
833111849,52.5250687,13.4025511,Puppentheater Firlefanz,Sophienstraße 10,10178,Berlin
873444364,52.5020031,13.4213249,Ballhaus Naunynstraße,Naunynstraße 27,10997,Berlin
873444370,52.5016868,13.420827,Hoftheater Kreuzberg,,10997,Berlin
894765631,52.4881467,13.3678205,AHA-Berlin e.V.,Monumentenstraße 13,10829,Berlin
895507273,52.5189862,13.3959797,Maxim Gorki Theater - Studio,,,
895509940,52.529684,13.3965478,Acker Stadt Palast - Freie Bühne Mitte .eV,,,
899133792,52.5654952,13.401433,Zimmer 16,,,
910361469,52.4770235,13.4399161,Heimathafen Neukölln,Karl-Marx-Straße 141,12043,Berlin
910725856,52.5043712,13.3374894,Die Stachelschweine,Tauentzienstraße 9-12,10789,Berlin
945390395,52.5354834,13.2025072,Theatersaal des Kulturhauses Spandau,,,
945402693,52.5525607,13.4307318,BrotfabrikBühne,,13086,Berlin
946790935,52.441939,13.2974764,Theater Lichterfelde,Drakestraße 49,12205,Berlin
977686791,52.4919181,13.3882686,Mehringhof Theater,Gneisenaustraße 2a,10961,Berlin
1096182603,52.516541,13.40783,Theater im Nikolaiviertel,,,
1154118481,52.4667595,13.3213047,Zimmertheater Steglitz,Bornstraße 17,12163,Berlin
1158225994,52.5430767,13.4149784,Ballhaus Ost,Pappelallee 15,10437,Berlin
1175152683,52.4911319,13.4249827,Wohnzimmerclub,,,
1187935417,52.5166443,13.4508437,Berliner Schnauze,,,
1226781760,52.5119023,13.295502,Zauberlounge,Horstweg 3,14059,Berlin
1246340370,52.4873295,13.3881082,F40 - English Theatre Berlin,Fidicinstraße 40,10965,Berlin
1246402201,52.5247268,13.4651975,Das Weite Theater,Storkower Str 207,10369,Berlin
1246402202,52.5118136,13.4487808,Theater der kleinen Form,Gubener Straße 45,10243,Berlin
1246402203,52.4919756,13.3645476,Theater O-TonArt,Kulmer Straße 20a,10783,Berlin
1246402205,52.5349848,13.4162235,Theater o.N.,Kollwitzstraße 53,10405,Berlin
1246402206,52.5318164,13.418434,bat-Studiotheater,Belforter Straße 15,10405,Berlin
1246402207,52.497339,13.3856884,HAU 3 (Hebbel am Ufer),Tempelhofer Ufer 10,10963,Berlin
1246402211,52.5098457,13.3289883,UNI.T,Fasanenstraße 1b,10623,Berlin
1256737686,52.4925187,13.4162666,Kleinkunstkeller,,,
1263355907,52.5434945,13.3633056,Prime Time Theater,Müllerstraße 163,13353,Berlin
1289390673,52.4860391,13.4319584,Die Musenstube,,,
1303363193,52.48842,13.4277627,Theater im Keller,Weserstraße 211,12047,Berlin
1336883756,52.5072208,13.3721193,Stage Theater am Potsdamer Platz,Marlene-Dietrich-Platz 1,10785,Berlin
1336890158,52.4967578,13.4214048,Dancetheater LaborGRAS.com,,,
1445221277,52.524275,13.3813992,Kammerspiele,Schumannstraße 14a,10117,Berlin
1457124704,52.5190141,13.3950767,Maxim-Gorki-Theater,Am Festungsgraben 2,10117,Berlin
1486087544,52.5514416,13.4183206,BühnenRausch,Erich-Weinert-Straße 27,10439,Berlin
1737242128,52.5713652,13.5682593,Berliner Tschechow Theater,Märkische Allee 410,12689,Berlin
1739006720,52.4941597,13.3267044,Theater unterm Turm,,,
1746712005,52.5033188,13.3479976,Kleine Nachtrevue,Kurfürstenstraße 116,10787,Berlin
1871854816,52.5016098,13.381181,Tempodrom,Möckernstraße 10,10963,Berlin
1945796840,52.5298014,13.410003,Cosmic Comedy Club,Schönhauser Allee 184,10119,Berlin
1948871674,52.5182934,13.2899708,Freie Theateranstalten Berlin,Klausenerplatz 19,14059,Berlin
2093602596,52.5342712,13.3595034,Fabriktheater,Lehrter Straße 35,10557,Berlin
2395299465,52.5205352,13.3586326,Theater Artenschutz,,10557,Berlin
2424327231,52.4744133,13.6000868,Kabarett Knieriem,,,
2488873131,52.487038,13.376389,Garn Theater,Katzbachstraße 19,10965,Berlin
2627106420,52.527024,13.4119171,Volksbühne am Rosa-Luxemburg-Platz,Linienstraße 227,10178,Berlin
2649739384,52.4824948,13.4306601,Keller,Karl-Marx-Straße 58,12043,Berlin
2715760752,52.5133026,13.307806,Tischlerei,,,
2733888748,52.5161677,13.4422678,Studiobühne,,,
2763752659,52.540836,13.4389797,Schaubude Berlin,Greifswalder Straße 81-84,10405,Berlin
2781293656,52.4249086,13.2050769,Theater Nikolassee,Kirchweg 6,14129,Berlin
2877333455,52.4523699,13.2894916,Theaterhof,,,
2878820301,52.5347918,13.4249436,Prenzlkasper,Marienburger Straße 39,10405,Berlin
2886633616,52.5390911,13.2050154,Spandauer Theater Varianta,,,
2891401081,52.5918975,13.2835311,Kulturversteck Tegel,Schloßstraße 9,13507,Berlin
2918303868,52.47268,13.2698924,Freilichtbühne,,,
3116790122,52.5078995,13.372025,Sternberg - Theater in der Spielbank,Marlene-Dietrich-Platz 1,10785,Berlin
3312400192,52.5167042,13.302854,Puppentheater Berlin,Gierkeplatz 2,10585,Berlin
3464946992,52.5505948,13.4120357,Puppentheater Felicio,Schivelbeiner Straße 45,10439,Berlin
3487575693,52.500295,13.3017312,Zaubertheater Igor Jedlin,Roscherstraße 7,10629,Berlin
3716477056,52.5039194,13.2939896,Spiegelsalon,Friedbergstraße 29,14057,Berlin
3763639067,52.4782137,13.4430391,Ida Nowhere,Donaustraße 79,12043,Berlin
3837620170,52.5021802,13.364582,Wintergarten Varieté,Potsdamer Straße 96,10785,Berlin
3925275757,52.531674,13.411322,Pfefferberg Theater,Schönhauser Allee 176,10119,Berlin
4065074489,52.4897927,13.4222385,Fliegendes Theater,Urbanstraße 100,10967,Berlin
4151694509,52.4737355,13.4490623,Kaspertheater Rixdorf,,,
4217051191,52.5131377,13.4094134,Kreativhaus e.V.,,10179,
4243480894,52.5057161,13.4667402,Zebrano-Theater,Sonntagstraße 8,10245,Berlin
4398530368,52.5017766,13.4112804,Die Etage,Ritterstraße 12-14,10969,Berlin
4456147960,52.5519035,13.4311632,Theater im Delphi,Gustav-Adolf-Straße 2,13086,Berlin
4465297306,52.4897483,13.3933755,Theater im Bergmannkiez,,,
4508022333,52.5258054,13.3943591,Galli Theater Berlin,Oranienburger Straße 32,10117,Berlin
4716921527,52.5154359,13.3963671,Pierre Boulez Saal,Französische Straße 33d,10117,Berlin
4745230362,52.5023061,13.3500004,Russische Bühne,,,
4831523454,52.5662041,13.3965864,Theater BOKA,Wollankstraße 112,13187,Berlin
4946716108,52.5076794,13.4540503,Zirkus Zack,Revaler Straße 99,,
4948140225,52.4716475,13.307745,Jaro Theater,Schlangenbader Straße 30,,
5140754521,52.5515969,13.3739474,Piano Salon Christophori,Uferstraße 8,13357,Berlin
5249079050,52.5490912,13.4040123,Haus der Sinne,,,
5249346659,52.5175993,13.4119798,TD Berlin,Klosterstraße 44,10179,Berlin
6306436221,52.5577738,13.3864077,Ballhaus Prinzenallee,Prinzenallee 33,13359,Berlin
6352638453,52.4452074,13.5744674,Schlossplatztheater,Alt-Köpenick 31,12555,Berlin
6512247318,52.5221046,13.3052748,Globe Theater Berlin,,,
6946245046,52.5312654,13.3295679,Theater X,Wiclefstraße 32,10551,Berlin
7077883098,52.506926,13.3733397,Stage Bluemax Theater,Marlene-Dietrich-Platz 4,10785,Berlin
7212405461,52.5231686,13.3337683,Kulturbremse,Jagowstraße 29,10555,Berlin
7546100377,52.4766714,13.3319721,Kammermusiksaal Friedenau,Isoldestraße 9,12159,Berlin
7710509077,52.6635244,13.680271,DINNER FOR FUN,,,
8589954014,52.5334318,13.4009767,ACUD Theater,Veteranenstraße 21,10119,Berlin
8699014134,52.5106061,13.2662477,,,,
8909423107,52.6259069,13.2808102,Papiertheater Invisius,Forstweg 36,13465,Berlin
9573608156,52.53339,13.4010458,Lettrétage,,,
9656229274,52.4531188,13.3299441,Alpha Nova Werkstatttheter,Albrechtstraße 28,12167,Berlin
9748411426,52.4950494,13.3254173,Der Theater Salon,,,
10098812511,52.4728137,13.3363405,Theater Morgenstern,Rheinstraße 1,12159,Berlin
10128714287,52.4983247,13.2906051,Puppenbühnchen,Georg-Wilhelm-Straße 4,10711,Berlin
10167589317,52.4880488,13.4222367,Tatwerk Theater,Hasenheide 9,10967,
10262733380,52.4420034,13.582361,Stadttheater Cöpenick,,,
10316977904,52.5040108,13.4344545,theaterforum kreuzberg,Eisenbahnstraße 21,,
10688463815,52.5526663,13.3762533,Uferstudios für zeitgenössischen Tanz,Badstraße 41a,13357,Berlin
10902497205,52.4737158,13.3886918,Luftschloss,,,
10942761216,52.5074693,13.3721099,Komödie am Kurfürstendamm,Marlene-Dietrich-Platz 1,10785,Berlin
11218721726,52.4457454,13.5778827,Zilles Stubentheater im Altstadttheater Köpenick,Jägerstraße 4,12555,Berlin
11218737137,52.4458991,13.577872,Altstadttheater Köpenick,Jägerstraße 4,12555,Berlin
11847642699,52.4943798,13.4294108,Expedition Metropolis,Ohlauer Straße 41,10999,Berlin
