id,name,street,zip_code,lat,lon,geojson_feature_id
58489979,Netto Marken-Discount,Alte Jakobstraße 83,10179,52.5098189,13.4073729,01100312
79418658,Ledo,Quäkerstraße 2,13403,52.5724174,13.3085471,12200310
79422426,kiezmarkt,,,52.5716761,13.3124756,12200310
79428988,nah & gut,Scharnweberstraße 100,13405,52.5664033,13.3169308,12200309
79438509,Nahkauf,Meller Bogen 2,13403,52.5704861,13.321144,12200308
101003688,nah und gut,Güntzelstraße 40,10717,52.4913971,13.3228827,04501147
151015050,NORMA,,,52.5265407,13.5403083,10100312
175685784,Netto Marken-Discount,,13435,52.5958262,13.3335139,12500927
245261389,Aldi,Müllerstraße 128,13349,52.5524232,13.3480665,01400938
249675570,Netto Marken-Discount,,,52.5439135,13.5486135,10100210
251340008,Edeka Leher,Fürstenwalder Allee 314,12589,52.4315738,13.7149761,09501838
251595302,PENNY,Pankower Allee 47-49,,52.565038,13.3706441,12100101
253256553,Netto,,,52.5515059,13.4550894,03500933
253616655,EDEKA Thaut,,,52.510061,13.4709585,02500832
253999816,Öz-Gida,Hauptstraße 16,10827,52.4873144,13.3570728,07200409
254862675,EDEKA,,,52.4701156,13.4621306,08100520
257704877,Lidl,Neuendorfer Straße 30,13585,52.5476038,13.2100323,05100313
259835062,Lidl,Falkenseer Damm 19,13585,52.5428752,13.1965568,05100316
259855794,Aldi,Theodor-Heuss-Platz 7,14052,52.5085368,13.2716801,04200310
261743904,REWE,Turmstraße 60,10551,52.5276119,13.3291604,01200519
262353263,Kaufland,Schnellerstraße 21,12439,52.457312,13.5078518,09200613
262355894,EDEKA,Frankfurter Allee 35 - 37,10247,52.515615,13.4623106,02500728
262878248,BesserBio,Bahnhofstraße 1,15732,52.3722174,13.6157371,0
264620848,REWE,Oberweißbacher Straße 2-4,12687,52.5565629,13.5714829,10100206
264645629,REWE City,Südwestkorso 36,14197,52.4686357,13.3117953,04400835
268021255,REWE City,Otto-Suhr-Allee 141,10585,52.5190008,13.3007843,04300621
268664135,Lidl,Berliner Straße 27-28,13189,52.563584,13.412146,03400826
268844516,E-Center,,,52.6082579,13.2353863,12400619
268845115,Nah und gut,,,52.6097415,13.248277,12400619
269478706,Kaufland,Rudower Chaussee 12,12489,52.432822,13.5351004,09200715
269479009,Edeka Ungefroren,Fischerinsel 12,10179,52.513684,13.4060088,01100312
270793632,Aldi,,,52.4313775,13.7147356,09501838
270814685,EDEKA,Fischerhüttenstraße 68,14163,52.4422611,13.2404658,06400839
270814692,EDEKA,Potsdamer Chaussee 80,14129,52.4268546,13.2159158,06400736
270880692,NORMA,,,52.4357395,13.7545719,0
271738194,EDEKA,Markt 11,13597,52.5374036,13.2047062,05100316
272247519,Penny,Britzer Damm 73,12347,52.4560576,13.4374685,08200623
272247672,Edeka,Britzer Damm 55-59,12347,52.4574201,13.4373312,08200623
273759099,Netto Marken-Discount,,,52.4630725,13.3388468,06100209
273765898,REWE,Sömmeringstraße 24-26,10589,52.523423,13.3065606,04300518
274864620,REWE City,Pichelsdorfer Straße 110,13595,52.5246216,13.1977106,05200631
276145759,EDEKA Yilmaz,Baumschulenstraße 31,12437,52.4638746,13.4858575,09100304
276191847,Norma,Heinrich-Grüber-Straße 86,12621,52.5194368,13.5973616,10400835
277837190,EDEKA,Sonnenallee 330,12057,52.4639513,13.4731548,08100521
279224131,Aldi,,,52.4702479,13.4617637,08100520
281426281,PENNY,Wilhelminenhofstraße 89A,12459,52.4622262,13.5129345,09200510
283190905,Lidl,Oranienplatz 4,10999,52.5021,13.4144676,02100104
283443676,EDEKA Y.Reichelt,Levetzowstraße 10-10a,10555,52.5208001,13.3343449,01200522
285071508,Denns BioMarkt,Boxhagener Straße 103,10245,52.5126115,13.4597619,02500830
286740930,Edeka Wittenbergplatz,Wittenbergplatz 4,10789,52.5026043,13.3436334,07100101
288014404,EDEKA Gabler,Rudolf-Breitscheid-Straße 29,14482,52.3918372,13.092035,0
289359993,Kaufland,Weißenhöher Straße 88 - 108,12683,52.5068475,13.5578938,10300733
292092618,EDEKA,Franz-Jacob-Straße 4,10369,52.5254295,13.4657308,11300618
293130845,REWE,,,52.4262609,13.3024814,06300632
293130996,Aldi,,,52.4269688,13.3036734,06300632
293137288,REWE,,,52.6183865,13.4863459,03300411
293244992,EDEKA Lindenberg,Markstraße 32-34,13409,52.560815,13.3654858,12100101
294036281,EDEKA Iden,Wilhelmsruher Damm 231,13435,52.5947516,13.3352782,12500926
297477471,Netto Marken-Discount,Kochhannstraße 34,10249,52.5239186,13.4467143,02400522
297803736,Aldi,Lankwitzer Straße 19,12209,52.4297351,13.330048,06200422
298811748,Nahkauf,Drakestraße 33a,12205,52.4433223,13.2968177,06300633
300818499,Penny,Grunewaldstraße 36-37,10823,52.4893173,13.3458969,07100204
301787391,Lidl,,,52.5652376,13.3788276,01300731
301845927,Lidl,Malteserstraße 162/164,12277,52.4173898,13.3620284,07601236
304367382,REWE,Heerstraße 560,13591,52.5250164,13.1414723,05200524
304371509,REWE,Havemannstraße 12a,12689,52.5687154,13.5684842,10100103
308019560,REWE,Alfred-Kowalke-Straße 2,10315,52.5048235,13.5150175,11401137
309150372,Netto Marken-Discount,Kaiser-Wilhelm-Straße 11,12247,52.4300567,13.3349701,06200314
313080918,Edeka Neue Kantstraße,Neue Kantstraße 29-30,14057,52.5065505,13.2930747,04300416
313144196,REWE City,Landsberger Allee 68D,10249,52.5258345,13.4469831,02400522
313188999,HIT Ullrich,Schloßstraße 110,12163,52.4610364,13.3251331,06100103
315775250,Lidl,,,52.5567323,13.4373178,03500932
315801862,EDEKA Martin-Luther-Straße,Martin-Luther-Straße 52-54,10779,52.4920032,13.3447835,07200307
316772479,Edeka,Berliner Straße 96,13507,52.5890882,13.284848,12200515
317732496,Bio Company,,,52.5047239,13.3074695,04501040
317991364,EDEKA Kelz,Straße der Pariser Kommune 38,10243,52.5160549,13.4406783,02400624
318349843,REWE,Schönhauser Allee 10-11,10119,52.5305826,13.4121544,03701556
318349845,Netto Marken-Discount,Torstraße 33,,52.5282208,13.4127819,01100310
319211583,Lidl,Friedenstraße 94a,10249,52.5223299,13.4351805,02400521
319546170,REWE,Siemensdamm 43-44,13629,52.5363802,13.2746944,05300841
319584630,EDEKA,,,52.52261,13.4284778,02400520
320074857,Lidl,Choriner Straße 64/64a,10435,52.5345191,13.4079979,01100416
320239368,Lidl,Rosa-Luxemburg-Platz 1,16761,52.6421152,13.1926625,0
333434552,EDEKA,Herrfurthplatz 12,12049,52.4770848,13.4230134,08100102
333460025,Bio Company,Friesenstraße 1,10965,52.4888756,13.3942017,02200211
336027358,Kaufland,Breite Straße 20,13187,52.5704705,13.4036206,03400722
336608019,Alnatura Super Natur Markt,Schönhauser Allee 108,10439,52.5517136,13.4136956,03601141
338985963,Edeka Center,Adolf-Grimme-Ring 8,14532,52.4033413,13.2197201,0
338985968,Aldi,Förster-Funke-Allee 104,14532,52.4042032,13.2199734,0
346124006,Norma,,,52.3437287,13.4356812,0
347303768,REWE,Lankwitzer Straße 19,12209,52.4294636,13.3302464,06200422
348000444,REWE,Invalidenstraße 158,10115,52.5319807,13.3970838,01100415
352905900,Edeka Siegler,Richard-von-Weizsäcker-Platz 1-2,10827,52.4856563,13.3568344,07200410
352905928,Aldi,Richard-von-Weizsäcker-Platz 2,10827,52.4857584,13.3574343,07200410
358183697,REWE,Schönwalder Straße 32,13585,52.5488799,13.2010419,05100314
359096354,REWE,Clayallee 336,14169,52.437065,13.2622014,06400841
359754358,Istanbul Supermarkt,Dominicusstraße 29,10827,52.4818248,13.3489273,07200410
364048640,Aldi,Prerower Platz 1,13051,52.56393,13.5053553,11100307
364266085,Edeka,Ferdinandstraße 34,12209,52.4278951,13.3284544,06200422
364783051,ALDI Nord,Ernst-Thälmann-Straße 124,15732,52.3641842,13.5919873,0
365808344,E-Center,Richard-Israel-Straße 4A,15732,52.3644355,13.593298,0
371151371,PENNY,Kottbusser Damm 66,10967,52.4888458,13.4249997,02200213
371817090,EDEKA,Wiclefstraße 60-62,10551,52.5301247,13.3373959,01200520
373861896,REWE City,Schönhauser Allee 130,10437,52.5453707,13.4123763,03601142
389081203,Lidl,Wilhelminenhofstraße 83-85,12459,52.4611526,13.5164664,09200511
390384562,PENNY,Heerstraße 378-382,13593,52.518976,13.1707459,05200527
390502682,REWE,,10997,52.4984121,13.4420092,02300419
392352484,Netto Marken-Discount,Sterndamm 33,12487,52.4512743,13.5087505,09100408
392683175,Aldi,Kiefholzstraße 49,12435,52.4859875,13.4571207,09100101
392683176,REWE,Kiefholzstraße 50,12435,52.4855808,13.4568606,09100101
395053992,Rewe,Sakrower Landstraße 1 A,14089,52.4528593,13.1430094,05400945
410339501,PENNY,,,52.4985137,13.3035063,04500938
410506348,PENNY,Oberweißbacher Straße 2-4,12687,52.5568679,13.5715607,10100206
410749696,Netto,,,52.6173677,13.4863442,03300411
412196333,REWE,Bruno-Taut-Straße 1,12524,52.4123748,13.5717456,09301024
413275520,REWE,Bahnhofstraße 33-38,12555,52.4586902,13.5772772,09501939
417018788,EDEKA,Pistoriusstraße 112-114,13086,52.5533011,13.4459428,03500935
417019740,Edeka Peth,Berliner Allee 100,13088,52.5498309,13.4588499,03500936
417021873,Edeka Ostseestraße,Ostseestraße 107-109,10409,52.546533,13.4429678,03601245
417360249,Netto Marken-Discount,Storkower Straße 128b,10407,52.533316,13.4522613,03601450
418632158,Edeka Nah und Gut,,,52.5420785,13.4198029,03601347
418632161,nah und gut,,,52.5426683,13.4183617,03601347
419545765,Lidl,Badstraße 60,13357,52.5511375,13.3833679,01300836
419545767,REWE,Badstraße 57-58,13357,52.5513946,13.3828975,01300836
423485548,LPG BioMarkt,Reichenberger Straße 37,10999,52.4971196,13.4240914,02300417
427043045,Punjab Supermarkt,Drontheimer Straße 32-32a,13359,52.5586866,13.3749078,01300730
428142582,PENNY,,,52.5330951,13.3454332,01200623
437190622,Netto Marken-Discount,Rathausstraße 5,10178,52.5189624,13.409903,01100310
438385035,Netto,Mecklenburgische Straße 27,14197,52.4787864,13.3084451,04400830
439506670,Kraut & Rüben,Oranienstraße 15,10999,52.5006163,13.4231403,02300314
439771184,Brandenburger Landwaren,Oranienstraße 47a,10969,52.5029466,13.4136849,02100104
440805106,PENNY,,10551,52.5267978,13.3317124,01200521
441514942,Lidl,Hermannstraße 55,12049,52.4769707,13.4261428,08100102
441531298,Aldi,Hermannstraße 72,12049,52.4741639,13.4274479,08100103
441734595,Lidl,Flughafenstraße 1,12053,52.4816182,13.4334593,08100206
441736480,Baraka,Karl-Marx-Straße 100,12043,52.4794566,13.4369238,08100206
442390306,Taste Hellas,Tempelhofer Damm 218,12099,52.4565369,13.3834395,07400825
442392122,Netto Marken-Discount,Mariendorfer Damm 19,12109,52.4510775,13.3852947,07501031
442394340,Edeka Prang,Mariendorfer Damm 81,12109,52.4453501,13.386125,07501031
445821398,NORMA,,,52.4425881,13.4319561,08200729
447962689,REWE,Rauchstraße 56,13587,52.5615636,13.2138439,05100103
448591011,Norma,Tiroler Straße 28,13187,52.5591073,13.4062472,03400826
448814806,EDEKA,Barnimstraße 18,10249,52.5260753,13.422959,02400520
449994504,EDEKA,Albrechtstraße 3,12165,52.4564251,13.3217052,06100102
452002193,nah und gut Brabanski,Alt-Tempelhof 31-33,12103,52.4653103,13.3831859,07400824
452655620,Kaufland,Am Moosfenn 1,14478,52.3642612,13.0939269,0
453394268,Netto Marken-Discount,,,52.6369381,13.4914504,03100101
453394863,Netto,,,52.6367349,13.4911121,03100101
460331941,REWE City,Leipziger Straße 100,10117,52.5105082,13.3907436,01100207
465318626,Kaufland,Karl-Marx-Straße 66,12043,52.4822154,13.4316168,08100206
465318633,Netto Marken-Discount,Sonnenallee 57,12045,52.4850931,13.4337327,08100312
469876091,PENNY,Wilmersdorfer Straße 32-33,10585,52.5125087,13.3048648,04300621
470471637,Aldi,Johannisthaler Chaussee 200,12351,52.4308875,13.4561386,08300934
471301175,EDEKA,Buntzelstraße 14,12526,52.4088869,13.5719986,09301024
472501535,Kaufland,Marktstraße 6,10317,52.504154,13.4729988,11400927
473611934,PENNY,Prinzenallee 55-56,13359,52.5585627,13.3858039,01300730
475897824,Lidl,Kottbusser Straße 16a,10999,52.4968269,13.419876,02100106
477359868,NP,Fredersdorfer Chaussee 69,15370,52.543775,13.7452612,0
481148748,Aldi,Königstraße 56/57,14109,52.4189357,13.1575422,06400735
482585492,Edeka,Barbarossastraße 69,10781,52.4917705,13.3547337,07100204
482647762,Lidl,,,52.5619496,13.3656789,12100101
487485823,Lidl,Rothenburgstraße 38a,12163,52.458523,13.318817,06100102
492443106,Aldi,Mecklenburgische Straße 23A,14197,52.4794954,13.3106567,04400834
498839307,Kaufland,Brunnenstraße 105-109,13355,52.547982,13.3916155,01300834
499637619,EDEKA Heppner,Schloßstraße 98,12163,52.459073,13.3232009,06100102
500057367,Asia-Mexiko Supermarkt,Karl-Marx-Straße 242,12057,52.4674859,13.4418357,08100209
504156978,REWE M. Görlitz-Krüger,Schlangenbader Straße 25,14197,52.4728082,13.3077983,04400833
505980713,REWE City,,,52.4931501,13.3830186,02200209
505996681,EDEKA,Yorckstraße 14,,52.4939285,13.3839687,02200208
506265972,Netto,Lindenstraße 61,,52.5302521,13.6682543,0
506280209,EDEKA,,,52.5189571,13.7079045,0
513956597,Netto Marken-Discount,Frankfurter Allee 57-59,10247,52.5148066,13.4658757,02500728
519175242,Lidl,Clayallee 278,14169,52.4416994,13.2667886,06400841
521227908,Denns BioMarkt,Greifswalder Straße 31,10405,52.5325693,13.429371,03701660
521549245,,Siemensdamm 43,13629,52.5363843,13.2754091,05300841
529709164,EDEKA Brabanski,Fregestraße 6,12159,52.4713349,13.3371272,07300618
532438697,Kaufland,,,52.4093176,13.3810307,07601341
534878184,Nah & Frisch,Hohenzollerndamm 50a,14199,52.4876067,13.2990759,04400727
537588089,Netto Marken-Discount,,,52.5374678,13.2864647,04100101
537753668,Netto Marken-Discount,Lauterstraße 17,12159,52.4716365,13.3350372,07300517
544381902,PENNY,,,52.480678,13.4265489,08100206
546677899,Aldi,Hauptstraße 9,13055,52.5483391,13.5039694,11200411
549739056,Aldi,Frankfurter Allee 113-117,10365,52.5144968,13.4762399,11300722
549739435,Kaufland,Frankfurter Allee 113-117,10365,52.5144363,13.4772128,11300722
550113673,REWE,Eschengraben 47,13189,52.5565324,13.4245088,03400828
550113674,Netto,,,52.5565272,13.4241319,03400828
552357231,Edeka,Bernauer Straße 69-73,13507,52.5752904,13.2837641,12200412
560903128,Edeka Center Tempelhof,Tempelhofer Damm 227,12099,52.4559449,13.3871535,07400927
565034858,REWE City,Wundtstraße 26,14059,52.5108607,13.2918001,04300414
565649878,Bio Company,Dircksenstraße 145-147,10178,52.523162,13.4041367,01100310
573260205,Nahkauf,,,52.6603741,13.5341001,0
577383675,Bolu,Badstraße 59,13357,52.5507087,13.38406,01300836
582748267,Denns BioMarkt,Templiner Straße 12,10119,52.5318707,13.4076249,03701554
582854288,Eminem Supermarkt,,,52.4191394,13.3683653,07601237
583760234,Netto Marken-Discount,Rothenbachstraße 2,13089,52.5693143,13.4372904,03300516
587835276,Netto,,,52.5397947,13.2963562,04100102
587835279,EDEKA,Heckerdamm 225,13627,52.5392837,13.3001834,04100102
588557544,Asia Choice,Berliner Allee 51,13088,52.548914,13.4529436,03500935
602528045,Netto,,,52.6076495,13.43059,03200310
602528055,Netto Marken-Discount,Triftstraße 20,13127,52.6106315,13.4313872,03200309
602610690,REWE,Ribnitzer Straße 26,13051,52.5696053,13.4948001,11100308
602804308,Kaufland,,,52.6714163,13.2804621,0
610199981,Norma,,12305,52.392013,13.4028107,07601544
615607311,Aldi,,,52.4858985,13.4213275,08100101
616298762,Lidl,Wilmersdorfer Straße 126,10627,52.5096958,13.3059948,04300623
618269382,PENNY,Seddiner Straße 8,10315,52.5134646,13.5222835,11401033
620704393,Lidl,,,52.4809259,13.4387009,08100415
621170687,Russia,,,52.4379589,13.4468721,08200727
621903300,Lidl,Charlottenstraße 1,10969,52.5054126,13.3930804,02100102
624360866,EDEKA,Jenaer Straße 27,10717,52.4908116,13.3356896,04501152
626859062,Eurogida,Badstraße 9,13357,52.5501398,13.3859287,01300733
632432196,Kaufland,Sewanstraße 4-6,10319,52.4991529,13.4969962,11400928
634912181,EDEKA,,,52.4759438,13.2901303,04400830
635791562,REWE,Volkradstraße 32,10319,52.4997073,13.5074501,11401136
646601544,Aldi,,13357,52.5495294,13.3883773,01300733
652049372,...nah und gut,,,52.4243206,13.4363341,08200730
652570198,EDEKA,Ritterstraße 38-40,10969,52.5035654,13.4036492,02100103
653287041,Netto,Greifswalder Straße 90,10409,52.5433967,13.4428789,03601449
653474129,REWE,Kaiserin-Augusta-Straße 57,12103,52.4599635,13.3754022,07400823
663226297,Lidl,Warschauer Platz 14,10245,52.5049044,13.4499188,02500835
663879954,Netto Marken-Discount,Hubertusdamm 64-65,13125,52.615282,13.470382,03300412
664265053,Kaufland,Hermann-Blankenstein-Straße 38,10249,52.5236849,13.4616186,03601453
667211334,Edeka Reichsstraße,Reichsstraße 94,14052,52.5129578,13.2656846,04200310
667211364,Bio Company,Reichsstraße 10,14052,52.5125406,13.2675793,04200310
667211372,Edeka,,,52.5185318,13.2571181,04200309
667211402,Edeka Laurman,Steubenplatz 4,14050,52.5169689,13.2615696,04200308
667867203,Kaufland,Friedrichshagener Straße 38,12555,52.4529155,13.5867384,09501941
668246085,Aldi,Wilskistraße 47b,14169,52.449774,13.2532595,06400840
668246091,Nahkauf,Ladenstraße 38-49,14169,52.449943,13.2528091,06400840
669207956,Kaufland,Am Lückefeld 97,15831,52.3570013,13.4323706,0
672147735,Nahkauf,Badensche Straße 56,10825,52.4854706,13.3408169,07200308
672157091,Kaufland,"Märkische Allee 166, 168, 172",12681,52.5335687,13.5384595,10100312
672732987,Netto,,,52.4910381,13.3170755,04501147
674086082,Bulgarische Lebensmittel,,,52.5473474,13.2013286,05100315
674100930,EDEKA,,,52.5339033,13.195608,05200629
677581923,Netto Marken-Discount,Kaulsdorfer Straße 140,12555,52.4698833,13.5723599,09502043
678968266,Netto Marken-Discount,Oudenarder Straße 14,13347,52.5536061,13.3607274,01401048
681558877,PENNY,,,52.517743,13.2926291,04300413
691484696,REWE,Rheinstraße 14,12159,52.469774,13.3330975,07300517
693892008,Netto City,Albrecht-Achilles-Straße 52-53,10709,52.4945436,13.3035449,04500939
695831680,Edeka,Salzbrunner Straße 18-20,14193,52.4891517,13.2941908,04400727
699532383,Nahkauf,,,52.4038231,13.5064629,08401245
699536319,REWE,Alt-Rudow 64,12355,52.4170906,13.4957148,08401243
703802172,Ariston,Meraner Straße 19,10825,52.4858428,13.3389328,07200308
704002983,Bio Company,Bundesallee 201,10717,52.4933745,13.3313064,04501152
705513419,Nahkauf,Fritschestraße 45-46,10627,52.5075213,13.3002506,04300416
707425776,Bolu,Reinickendorfer Straße 108,13347,52.545392,13.3690748,01401043
707425912,Alezz Market,Reinickendorfer Straße 24,13347,52.546125,13.3696247,01401044
707456082,Lidl,Reinickendorfer Straße 41,13347,52.5492959,13.3697076,01401044
709045955,EDEKA,,,52.493546,13.3324318,04501152
715040103,Edeka Gäth,Steglitzer Damm 24,12169,52.4506573,13.3399913,06100205
715911599,Penny Leibnizstraße,Leibnizstraße 23,10625,52.5095171,13.3146146,04300624
715911673,nah und gut,Leonhardtstraße 22,14057,52.5049147,13.2974596,04300416
718143847,Nah und gut,,,52.5062441,13.2840108,04300415
721617843,Netto Marken-Discount,,13089,52.5604742,13.4293916,03300516
726126776,Bio Company,Rüdesheimer Straße 3,14197,52.4735715,13.3148363,04400835
728689944,nah und gut,Geisbergstraße 22,10777,52.4979503,13.3350954,04501045
728707803,Grüner Laden,Bundesratufer 5,10555,52.523,13.3400151,01200522
729587081,Tariq Supermarkt,,,52.5518382,13.382004,01300836
730172943,Spice Junction,Bülowstraße 44,10783,52.4954998,13.3656826,07100205
733864526,Rewe,Oberfeldstraße 138,12683,52.5248576,13.5581174,10300731
746628479,Edeka,Zepernicker Chaussee 9,16321,52.6742837,13.5728379,0
747081734,Edeka Am Brunsi,Brunsbütteler Damm 196,13581,52.5338138,13.1676748,05200420
747081738,PENNY,Brunsbütteler Damm 196,13581,52.5340022,13.1677315,05200420
754482402,REWE,,,52.5629309,13.3291819,12200309
766602125,REWE,,,52.5064837,13.3737784,01100102
766742192,EDEKA Siebert,Hasenheide 57,10967,52.4891694,13.4091957,02200212
768543913,ALDI Nord,Lindenallee 6,15366,52.5160044,13.669787,0
768543914,REWE,Lindenallee 6,15366,52.5161676,13.6702912,0
768671097,EDEKA,Rheinsteinstraße 4-12,10318,52.4827099,13.5274287,11501340
769364237,Denns BioMarkt,Oranienstraße 140-142,10969,52.5039556,13.4091375,02100104
773454109,REWE,Stienitzstraße 15,15366,52.5415494,13.6487763,0
773454117,PENNY,Stienitzstraße 15,15366,52.5413667,13.6492698,0
777083090,International Supermarket,Oranienstraße 71,10969,52.5050124,13.4076816,02100104
800531142,Lidl,Schloßstraße 1,12163,52.4649386,13.3258786,06100103
802000083,Nahkauf,Celsiusstraße 66,12207,52.4115726,13.3121233,06200419
808390952,PENNY,Welsestraße 56-58,13057,52.5647175,13.5236193,11100204
808390999,REWE,Randowstraße 3,13057,52.5671017,13.5281012,11100203
808391004,Netto Marken-Discount,Randowstraße 3,13057,52.5666263,13.5274422,11100203
808391009,REWE,Welsestraße 56-58,13057,52.5649453,13.5233157,11100204
808406147,EDEKA P. Erler,Ludolfingerplatz 6,13465,52.6328875,13.287041,12400720
808406149,EDEKA Colombino,Zeltinger Platz 8,13465,52.6329513,13.2907953,12400721
811921225,Aldi,Schloßstraße 4-5,12163,52.4641156,13.3267808,06100103
819757401,PENNY,Volkradstraße 32,10319,52.4996502,13.5077655,11401136
825094074,Bioquell,,,52.5653928,13.4032278,03400721
828287036,Bolu,Hermannstraße 201-202,12049,52.4757954,13.4272973,08100103
832835260,PENNY,Reinickendorfer Straße 83,13347,52.5497058,13.368043,01401043
832835278,Kral Discount,,,52.5522643,13.3665842,01401049
833176050,REWE,Walther-Schreiber-Platz 1,12161,52.4659019,13.3277211,07300516
845740277,Kaufland,Frankfurter Chaussee 48,15370,52.4968849,13.743708,0
847029086,Kutzner & Kutzner,Schönhauser Allee 65,10437,52.5463248,13.4134748,03601142
848871594,Eurogida,Skalitzer Straße 129,10999,52.4992926,13.4206736,02300314
849520589,REWE,Pablo-Neruda-Straße 2-4,12559,52.4418161,13.5872323,09401431
860022923,Bio Company,Bölschestraße 2,12587,52.4470689,13.6245399,09501737
861870104,NORMA,Quedlinburger Straße 31,12627,52.540119,13.6100206,10200422
865186898,Alnatura Super Natur Markt,,,52.5428018,13.4413712,03601449
866236232,Asia Markt,Dircksenstraße 102,10178,52.5191809,13.4147953,01100310
868336312,PENNY,Grellstraße 75,10409,52.5456563,13.4297494,03601245
868336319,REWE,Grellstraße 75,10409,52.5452959,13.43009,03601245
873462918,NG Markt,Naunynstraße 11,10997,52.5012843,13.4240213,02300315
882491951,Netto Marken-Discount,,,52.4742025,13.7140786,0
892779992,Lidl,Kniprodestraße 26a,10407,52.5343355,13.4456503,03601452
901013001,Netto Marken-Discount,,,52.5909543,13.4453656,03300514
901799431,EDEKA,Hasenheide 107-108,10967,52.4864287,13.4214953,08100101
910429968,Bio Company,Chausseestraße 19,10115,52.5301762,13.3838213,01100308
919491996,EDEKA,,,52.3928926,13.4203811,07601545
924072123,Mein Markt,Karl-Marx-Allee 116,10243,52.516203,13.4469923,02400624
941363118,Netto,Sophie-Charlotten-Straße 25,14059,52.5166668,13.2859135,04300413
958150532,Netto Marken-Discount,Urbanstraße 122,10967,52.491318,13.4177006,02200213
960127307,Lidl,Leipziger Straße 42,10117,52.5104276,13.3950162,01100207
975312179,Asia-Mekong,Henriette-Herz-Platz 1,10178,52.5220546,13.4011035,01100310
975878746,Aldi,Streitstraße 5-19,13587,52.5575599,13.209115,05100104
976106227,Lidl,Mühlenstraße 2,14167,52.4294767,13.2603047,06300526
977283951,Aldi,,12055,52.4687326,13.4444074,08100209
988558155,Edeka,Stephanstraße 37-43,10559,52.5319137,13.3444505,01200623
989194577,Lidl,,,52.5525558,13.4214016,03601243
1003894168,Kiezmarkt,Weidenweg 56,10247,52.5188322,13.4543654,02500727
1004454203,Timi Asia Supermarkt,Kieler Straße 4,12163,52.4584693,13.3238971,06100102
1008550282,EDEKA,,,52.5469822,13.1862505,05100210
1029675404,Aldi,Hildburghauser Straße 3,12279,52.4123187,13.3606387,07601340
1030066956,Aldi,Landsberger Allee 277,13055,52.534814,13.4968487,11200514
1036581040,Netto Marken-Discount,,10967,52.4954436,13.4199628,02200213
1038557992,Penny,Potsdamer Chaussee 102,14476,52.4700197,13.1011587,0
1039403106,nah und gut,Kreuznacher Straße 68,14197,52.4673513,13.3109506,04400835
1039633309,Netto Marken-Discount,,,52.5344474,13.4879509,11200514
1065121023,Kaufland,Am Juliusturm 42-46,13599,52.5377219,13.2186317,05300736
1070129764,Nahkauf,Dessauerstraße 64,12249,52.4292607,13.346614,06200315
1080863820,Bio Company,Teltower Damm 13,14169,52.4336816,13.2600711,06300526
1094096941,REWE,Helene-Weigel-Platz 1,12681,52.5274856,13.5383825,10100312
1104711635,Edeka,Stern-Center 1-10,14480,52.3714075,13.1366143,0
1109137888,EDEKA,Dorfstraße 14,15738,52.3399692,13.6084146,0
1110336185,EDEKA,Frankfurter Allee 105,10247,52.5144935,13.4737376,02500729
1110843201,REWE,Chausseestraße 118-120,10115,52.5295638,13.3839754,01100308
1111017123,Denns BioMarkt,Schliemannstraße 48,10437,52.5407418,13.4163913,03601347
1112868721,REWE,Rollbergstraße 59,12053,52.4785578,13.4297779,08100206
1120057646,PENNY,,,52.5813965,13.4017946,03200206
1120057650,Netto Marken-Discount,Schönhauser Allee 78,10439,52.5498396,13.414376,03601243
1128908206,NORMA,Dorfstraße 16a,16562,52.6722852,13.318287,0
1143798305,REWE City,Greifswalder Straße 155A,,52.5436744,13.4412596,03601245
1149021382,Aldi,,,52.5643169,13.3668064,12100101
1149666418,Nah und Gut,Werner-Voß-Damm 37,12101,52.4743292,13.3716214,07400720
1187333066,Denns BioMarkt,Grolmanstraße 48,10623,52.5050178,13.3233806,04300624
1193352453,EDEKA Yaras,Mariendorfer Damm 186,12107,52.4349946,13.3891249,07501133
1203692599,Lidl,Luisenstraße 52,10117,52.5244433,13.3795237,01100308
1207355255,Phung,,,52.4913551,13.3494294,07100204
1224795204,Mini Spar,,,52.4937046,13.4371652,02300418
1224801762,REWE,Buckower Damm 50,12349,52.4399784,13.4341127,08200729
1225486132,Denns BioMarkt,,,52.4857356,13.4214749,08100101
1226244579,REWE,Otto-Suhr-Allee 80-82,10585,52.5166007,13.3101619,04300619
1234107297,SuperCoop,Oudenarder Straße 16,13347,52.5533553,13.358475,01401048
1234547262,PENNY,Müllerstraße 40,13353,52.5500887,13.3533095,01401048
1252306901,Eurogida,Albrechtstraße 19,12167,52.4544826,13.3273923,06100207
1254284372,REWE,,,52.5844268,13.2852155,12200515
1256746140,LPG BioMarkt,Kollwitzstraße 17,10405,52.5327995,13.4137041,03701556
1262549048,Asia Supermarkt,,,52.5065392,13.2926335,04300415
1282080435,Nazar Market,Wilmersdorfer Straße 132,10627,52.510727,13.3056473,04300623
1294273280,Bio Company,Bundesallee 104–105,12161,52.4655619,13.3286246,07300516
1306177277,Radhaa,,,52.4872439,13.427558,08100311
1307115268,Bereket Market,Hermannstraße 166,12051,52.4696138,13.4303727,08100104
1311839516,Bio Company,Voigtstraße 38,10247,52.5160394,13.4679239,02500728
1312144101,City Supermarkt,Krausenstraße 11,10117,52.5094113,13.391561,01100207
1336718187,Eurogida,,,52.5383903,13.2072817,05100316
1336738281,REWE,Skalitzer Straße 134,10999,52.4994272,13.4187092,02300314
1349696689,Go Asia,,,52.5214186,13.387769,01100206
1349696696,REWE City,Friedrichstraße 100,10117,52.5205382,13.3886757,01100206
1354602117,LPG BioMarkt,Hauptstraße 78,12159,52.4731384,13.3368295,07300517
1362016421,Netto,Wittenberger Straße 76-80,12689,52.5651696,13.5710175,10100103
1370691440,Edeka Fromm,Müllerstraße 127,13349,52.5526675,13.3476614,01400938
1379344535,Centro Italia,Großbeerenstraße 171,,52.4283842,13.3773195,07501133
1379836611,Netto,,,52.5664899,13.3461341,12100204
1383599532,nahcity Duong,Greifswalder Straße 119,10405,52.536064,13.4324034,03701660
1389419217,Kauf Markt,Torstraße 169-171,,52.5290342,13.3952307,01100309
1391580006,REWE,Schloßstraße 34-36 / Grunewaldstraße 1-3,12163,52.4576732,13.3208595,06100102
1394709850,nah und gut,,13629,52.5414602,13.2618045,05300839
1397070330,Afghan Zamin Supermarkt,Hauptstraße 114-115,10827,52.482083,13.3491516,07200410
1402023314,Nahkauf,,,52.4979408,13.4438854,02300419
1409546433,EDEKA Nemitz-Pollmann,Märkische Allee 76,16548,52.6313907,13.3228441,0
1409547824,Norma,,,52.630571,13.3228777,0
1415880278,EDEKA Kiemarkt,Torstraße 206,10115,52.5278268,13.3917759,01100309
1417005880,...nah und gut,Ehrenfelder Platz 3,12524,52.4018551,13.54297,09300923
1446214034,PENNY,,,52.4951473,13.4284148,02300417
1463883876,Denns BioMarkt,Hermann-Hesse-Straße 4,13156,52.5809357,13.4027152,03200206
1465074342,Wurzelwerk Bioladen,Oderstraße 10,10247,52.5113295,13.4680466,02500831
1465075423,Wurzelwerk Bioladen,Kaskelstraße 16,10317,52.5047115,13.477134,11400927
1468082518,REWE City,Rheinstraße 30,12161,52.467044,13.3299032,07300516
1487167492,Bio Company,Boxhagener Straße 73,10245,52.5069507,13.468918,02500832
1493309776,REWE,Hauptstraße 70,13127,52.6039283,13.4324718,03200309
1500162209,REWE,Karl-Marx-Straße 92-98,12043,52.4798626,13.4357683,08100206
1500162675,Aldi,Karl-Marx-Straße 92-98,12043,52.4797665,13.4362242,08100206
1534211674,Lidl,Märkische Allee 140A,12681,52.5309093,13.5372987,10100312
1535054255,EDEKA Friedrich,Hellersdorfer Straße 83,12619,52.5232644,13.5867296,10200629
1544191098,miniladen,,,52.5488448,13.4092108,03601142
1557191076,Natur Pur,Frankfurter Allee 231,10365,52.5122262,13.495272,11300725
1575387981,Kaufland,Landsberger Chaussee 17,,52.54985,13.6006897,0
1585630534,REWE,,10439,52.5493785,13.4161791,03601243
1588155369,HIT,Anton-Wilhelm-Amo-Straße 69,10117,52.5117711,13.3839109,01100205
1588325816,Grüne Geiß,Allee der Kosmonauten 151,12685,52.5345492,13.5513842,10100314
1617419907,Biomarkt Viverte,Glarner Straße 62,12205,52.4271339,13.3027848,06300632
1618669788,Penny,Steglitzer Damm 20,12169,52.4507291,13.3393904,06100205
1628715657,EDEKA,,12629,52.5383977,13.5901733,10200420
1641888176,Bio Company,,,52.4935036,13.4220871,02200213
1644065979,Aldi,,,52.4732677,13.290462,04400832
1659884040,Eurogida,,,52.5482851,13.3563325,01400942
1663969749,Aldi,Alexander-Meißner-Straße 1,12526,52.3972377,13.5415199,09301025
1669841847,Denns BioMarkt,,,52.6110395,13.3179908,12500928
1681303281,REWE City,Bismarckstraße 68-69,12157,52.4617585,13.3396427,06100210
1698191227,Bio Company,,,52.484614,13.433672,08100314
1699353556,Baskent,Föhrer Straße 13,,52.5417248,13.3496751,01401046
1713393011,Netto Marken-Discount,Alemannenstraße 40,14129,52.4296195,13.1930625,06400737
1718182244,EDEKA Stadie,Flankenschanze 32,13585,52.5425148,13.197201,05100316
1720474146,Nahkauf,,,52.5768477,13.2781392,12200413
1734279076,Nahkauf,,,52.4466275,13.371653,07501029
1754558319,Netto Marken-Discount,Hermannstraße 158a,12051,52.4674769,13.4331094,08100209
1766338470,Ledo,,14052,52.5095102,13.2704127,04200310
1767243397,Intermarkt,Kienhorststraße 156,13403,52.5747487,13.3146512,12200308
1768055811,Bio Company,Prenzlauer Allee 180,10405,52.5440207,13.4265698,03601348
1773431934,Netto City,Kurfürstenstraße 75,10787,52.503656,13.348668,01100101
1776155102,Edeka M. Fiebig,Kottbusser Damm 80,10967,52.4916049,13.4232761,02200213
1778043747,Rewe City,John-Schehr-Straße 20-24,10407,52.5363423,13.4366983,03601451
1779257032,REWE,Hermannstraße 158a,12051,52.4674138,13.4330094,08100209
1794592994,PENNY,Prenzlauer Allee 181,10405,52.5437308,13.4264854,03601348
1809578947,EDEKA,Gartenfelder Straße 86,13599,52.5434199,13.2406593,05300737
1809759833,Rewe,Hönower Weg 1d,15366,52.516553,13.6483903,0
1812280451,Aldi,Heinrich-Heine-Platz 8-12,10179,52.5065406,13.4162889,01100313
1812280461,Denns BioMarkt,Annenstraße 48,10179,52.5076492,13.4144581,01100313
1816817789,Go Asia,Alexanderplatz 8,10178,52.5227661,13.4123665,01100310
1819928545,Nahkauf,Görresstraße 3,12161,52.4734406,13.3275613,07300515
1824743955,Aldi,Prager Platz 2a,10779,52.4936482,13.3322422,04501152
1835293283,Penny,,,52.4476974,13.3054039,06300629
1846516833,EDEKA,Hauptstraße 23,13158,52.5865177,13.368014,03400619
1846783043,REWE,Kastanienallee 38,13158,52.5918344,13.3825893,03400618
1848217298,Asiamarkt,Friedrichstraße 10,10969,52.501211,13.3916005,02100102
1863559158,Lekr,,,52.5311942,13.4331435,03701660
1869640501,Netto Marken-Discount,Egon-Erwin-Kisch-Straße 90,13059,52.5682048,13.5110287,11100206
1869640502,PENNY,Rostocker Straße 1,13059,52.5748726,13.5086192,11100206
1869640508,REWE,Ernst-Barlach-Straße 19,13059,52.5749522,13.5096346,11100206
1871927027,EDEKA,Kolonnenstraße 10,10829,52.485689,13.3617579,07200413
1873679231,nah und gut,Urbanstraße 183,10961,52.4945279,13.4005487,02200210
1882245298,Lidl,Knesebeckstraße 38,10719,52.5007022,13.3213671,04501041
1906549344,Netto City,Pariser Straße 41,10707,52.4981147,13.318263,04501043
1907577490,Azzam Supermarket,Sonnenallee 55,,52.4852287,13.4332232,08100312
1915389756,EDEKA,Otto-Suhr-Allee 105,10585,52.5169837,13.30707,04300621
1918454955,Kaufland,Karl-Marx-Straße 231-235,12055,52.4686658,13.4432574,08100209
1946125618,Nahkauf,Hirtsieferzeile 42-43,12351,52.4311649,13.4696242,08300934
1946787755,EDEKA,,,52.5362791,13.4183615,03701556
1948128103,LPG BioMarkt,Kaiserdamm 12,14057,52.5107494,13.2896421,04300414
1969213798,Denns BioMarkt,Hauptstraße 11,10827,52.4885102,13.3581546,07200409
1995012778,Lidl,Zeughofstraße 23A,10997,52.5007114,13.4347352,02300315
1995346085,Aldi,Joachim-Gottschalk-Weg 5,12353,52.4230711,13.4763895,08301037
1995346097,EDEKA,Joachim-Gottschalk-Weg 23,12353,52.4229979,13.4762316,08301037
2013009700,Edeka Brehm City,,,52.4945118,13.4208245,02200213
2026168141,PENNY,Brunnenstraße 75,13355,52.5423742,13.3932909,01300834
2038240136,Penny,Hellersdorfer Straße 77-83,12619,52.5213904,13.5872079,10200629
2047765230,EDEKA,Clayallee 330,14169,52.4378334,13.2626638,06400841
2050365795,EDEKA,Rigaer Straße 44,10247,52.515536,13.468728,02500729
2082343419,EDEKA Wilmersdorfer Straße,,10627,52.5097406,13.305296,04300623
2086361728,Gneisenau Markt,Gneisenaustraße 84,10961,52.4914049,13.3967142,02200210
2090041491,aima Supermarkt,,,52.4296472,13.4655246,08300934
2137158125,REWE,Schönhauser Allee 36-39,10435,52.5387764,13.4127688,03701555
2139861397,Vom Einfachen das Gute,,10707,52.4993882,13.3124301,04501043
2140006472,Edeka Schmitt,,13187,52.5671908,13.4105009,03400723
2141778348,LPG BioMarkt,Bouchéstraße 12,12435,52.4921598,13.4510857,09100101
2179167888,Alnatura Super Natur Markt,Alte Jakobstraße 79-80,10179,52.5101946,13.408035,01100312
2183538439,nah und gut,Düsseldorfer Straße 74,10719,52.4950862,13.3235476,04501044
2183996084,Dr. Pogo,Karl-Marx-Platz 24,12043,52.4739742,13.443147,08100416
2209740269,Denns BioMarkt,Kaiserdamm 112,14057,52.5104649,13.2932481,04300416
2238828808,REWE voll pflanzlich,Warschauer Straße 33,10243,52.5077097,13.4499426,02400624
2251292710,REWE,Mehrower Allee 20,12687,52.5557728,13.5584686,10100208
2251295174,REWE City,Angerburger Allee 45,14055,52.5093116,13.2223259,04200204
2261408339,Lidl,Blankenburger Chaussee 10,13125,52.6079352,13.4780321,03300412
2262896307,Denns BioMarkt,Clayallee 177,14195,52.4512862,13.2700949,06400842
2264130308,Denns BioMarkt,,,52.5340278,13.1960288,05200629
2270842497,Mały Książę,Lilienthalstraße 6,,52.4880408,13.4075593,02200211
2280615913,Eurogida,Tempelhofer Damm 2,12101,52.4841209,13.3853942,07400720
2281044266,Düzgün,,,52.4781117,13.4478681,08100418
2286174929,EDEKA Meissner an der Nolle,Nollendorfplatz 8-9,10777,52.4989336,13.3545583,07100103
2287696877,Bolu,Kottbusser Damm 75,10967,52.4904265,13.4239981,02200213
2290106962,Alnatura Super Natur Markt,Giesebrechtstraße 4,10629,52.5022111,13.3091666,04501040
2294539214,Netto,,,52.5153023,13.7124717,0
2314280248,Eurogida,Wrangelstraße 85,10997,52.4989417,13.4413763,02300419
2323707525,Rewe,Hubertusdamm 56,13125,52.6164939,13.4716787,03300412
2324406336,Go Asia,Kantstraße 10,10627,52.5065737,13.3027807,04300416
2324410164,Elmas Market,Stuttgarter Platz 11,10627,52.5057107,13.303342,04300623
2339246305,EDEKA,Blissestraße 36,10713,52.4820455,13.3198796,04501148
2347507117,EDEKA Jost,Kantstraße 24,10623,52.5061041,13.3203142,04300624
2376977543,EDEKA,Danckelmannstraße 57-60,14059,52.5176758,13.290531,04300413
2386082873,FrischeParadies,Morsestraße 2,10587,52.5216418,13.3213662,04300620
2398339919,Netto,Belforter Straße 20,10405,52.5321413,13.4195614,03701556
2406781814,Denns BioMarkt,Bernauer Straße 50,10435,52.5402635,13.4041362,01100416
2420128428,Denns BioMarkt,Mühsamstraße 54,10249,52.5202002,13.451403,02400522
2424332330,Aldi,Elcknerplatz 8,12555,52.4580641,13.5804025,09501939
2426050677,Alnatura Super Natur Markt,,,52.489356,13.3977479,02200211
2426072063,Denns BioMarkt,Chausseestraße 21,14109,52.4178538,13.1472245,06400735
2439759173,REWE City,Theodor-Heuss-Platz 6,14052,52.5101504,13.2727188,04200310
2451544042,Bio Company,Brunnenstraße 6,10119,52.530752,13.4005851,01100415
2463153046,REWE City,Litfaß-Platz 4,10178,52.5224239,13.403453,01100310
2464138931,Bio Company,Friedrichstraße 136,10117,52.5229073,13.3875704,01100308
2466173878,Kostbar,Leonhardtstraße 2,14057,52.5049627,13.2986626,04300416
2472120999,Bio Company,"Hauptstraße 31,32",10827,52.4849708,13.3533641,07200410
2482984708,Sengül Market,Triftstraße 5,13353,52.5444869,13.3600595,01401047
2487590990,Denns BioMarkt,Rosenthaler Weg 78,13127,52.607372,13.4291329,03200310
2495554577,Edeka Bergmannstraße,Bergmannstraße 5,10961,52.4896784,13.3884205,02200211
2495554583,Netto Marken-Discount,Bergmannstraße 5,10961,52.4896657,13.3889289,02200211
2499997002,Aldi,,,52.5501198,13.4482607,03500935
2511149696,Landladen Kastaven,,,52.5383876,13.4809667,11200513
2548523874,Aldi,Alfred-Kowalke-Straße 3,10315,52.504406,13.516489,11401137
2559224466,bioso Naturkost und Café,Tempelhofer Damm 209,12099,52.4573377,13.3842847,07400825
2611034642,Norma,Anton-Saefkow-Platz 8,10369,52.5284516,13.4715787,11300617
2623904878,EDEKA,Tauernallee 30-58,12107,52.4257885,13.4014959,07501134
2634887168,Lidl,Kleiststraße 3-6,10787,52.500453,13.3507381,07100102
2676934170,Netto Marken-Discount,Rabensteiner Straße 36,12689,52.5650977,13.5771241,10100104
2705016631,LPG BioMarkt,Albrechtstraße 33,12167,52.452429,13.3322395,06100206
2748206479,Vinh-Loi Asien-Supermarkt,Gutsmuthsstraße 23-24,12163,52.4644899,13.325733,06100103
2748240260,Vinh-Loi,Müllerstraße 141,13353,52.5488826,13.3536252,01400942
2782835422,EDEKA,Oraniendamm 6-10,13469,52.6072867,13.3264979,12601032
2782835448,Lidl,Oraniendamm 6-10,13469,52.6077274,13.3260991,12601032
2796341489,Bahia,Wrangelstraße 49,10997,52.4989369,13.4407853,02300419
2796342271,Biotopia,Wrangelstraße 49,10997,52.4989027,13.4408724,02300419
2807783135,Lidl,Stresemannstraße 72-78,,52.503844,13.3837544,02100101
2821719682,Norma,Paradiesstraße 212,12526,52.4040318,13.5597507,09301024
2827585882,Doğan Supermarkt,Beusselstraße 76,10553,52.5277045,13.3283116,01200518
2835612698,PENNY,Dominicusstraße 37,10827,52.4811176,13.350501,07200410
2850019701,Kaufland,Senftenberger Ring 15,13439,52.599201,13.3541666,12601134
2850406401,EDEKA,Laubacher Straße 13,14197,52.4711485,13.3203023,07300516
2853634779,Edeka,Wendenschloßstraße 324,12557,52.4283689,13.5844098,09401329
2864448355,EDEKA Fromm,Gerlinger Straße 4,12353,52.4176314,13.436224,08200832
2866172985,Netto,Ribnitzer Straße 24,13051,52.5702733,13.4959871,11100308
2882702745,Bio Company,Babelsberger Straße 52,10715,52.4878673,13.3354416,04501153
2935359001,bio goods,Kastanienallee 101,10435,52.5397397,13.4111921,03701554
2935486802,Kosherlife Koshere Lebensmittel,Brunnenstraße 31,10115,52.5348578,13.3983347,01100416
2936781767,EDEKA Rübel,Hohefeldstraße 21;23;25;27,13467,52.6225702,13.3032601,12400723
2952546837,Bolu,Residenzstraße 31,13409,52.5678172,13.3619052,12100204
2966075122,Kaufland,Müllerstraße 123-125,13349,52.5531171,13.3462318,01400938
2975527957,Netto Marken-Discount,Treskowallee 115,10318,52.4803165,13.5255093,11501341
2979443782,Bio Company,Breite Straße 34,13187,52.5697666,13.4065329,03400723
2985061530,Lidl,Seesener Straße 10-13,10709,52.4915993,13.2982267,04500939
2985073366,Bio Company,Fehrbelliner Platz 5,10707,52.4907007,13.3129177,04500939
3016943176,Nahkauf,Liebenowzeile 29,12167,52.4493498,13.349913,06100205
3021118316,NP,Kastanienallee 8,12627,52.5367725,13.6017513,10200421
3039142020,Netto Marken-Discount,Am Treptower Park 40,12435,52.4855611,13.4659156,09100202
3051910417,Denns BioMarkt,Joachim-Friedrich-Straße 17,10711,52.4986354,13.2965708,04500937
3060693588,Lidl,Potsdamer Straße 203,,52.4917687,13.3611473,07100206
3079828154,Eurogida,Bundesallee 180,10717,52.4876912,13.3315231,04501153
3081225430,Indomarkt,Reinickendorfer Straße 118,,52.5425485,13.3695233,01300836
3097316493,nah & gut Mund,Konrad-Wolf-Allee 1-3,14480,52.3701641,13.1419154,0
3098845419,Aldi,Unter den Eichen 97,12203,52.4453954,13.2945295,06300629
3112849844,Kaufland,Walter-Friedrich-Straße 4,13125,52.6345809,13.495938,03100103
3113178261,Ledo,Forckenbeckstraße 1,14199,52.4794195,13.3098357,04400830
3117324769,REWE City,Friedrichstraße 67-70,10117,52.5125166,13.3904663,01100206
3166307701,Norma,Bremer Straße 9,10551,52.5276005,13.3388208,01200520
3175690877,REWE,Marzahner Promenade 1,12679,52.5444325,13.545136,10100210
3212168336,Rewe,Rustweg 1,13587,52.575897,13.2133845,05100101
3216719429,Örs Market,Kochstraße 14,10969,52.5065583,13.3896566,02100102
3218143489,Bio Company,Müllerstraße 141,13353,52.5487318,13.3538849,01400942
3256799991,Sattva,Reichenberger Straße 122,10999,52.4952578,13.4319395,02300418
3266123514,Sila-Markt,Turmstraße 37,10551,52.5267843,13.336889,01200520
3294052227,Alnatura Super Natur Markt,Bölschestraße 63,12587,52.4551665,13.6255086,09501737
3307282338,EDEKA,Riesaer Straße 102,12627,52.5299667,13.6208656,10200525
3327131753,Nahkauf,Galileistraße 16,14480,52.3759423,13.1399691,0
3343659747,REWE,Potsdamer Straße 128,10783,52.4992507,13.3621337,07100103
3354414093,Denns BioMarkt,Bizetstraße 17-19,13088,52.5474522,13.4509431,03500936
3354444673,Bio Company,,,52.4991298,13.3244063,04501044
3382994864,REWE,Neumannstraße 13,13189,52.5613117,13.4227915,03400829
3385301270,Bio Company,Berliner Allee 26,,52.5478176,13.4507131,03500936
3401898908,LPG BioMarkt,Viktoriastraße 10-18,12105,52.4546467,13.3820803,07400825
3427380188,Denns BioMarkt,Alt-Rudow 24,12357,52.4202432,13.4918666,08401243
3446653825,BioInsel,Leberstraße 2,10829,52.4857109,13.3610287,07200413
3472128868,Alnatura Super Natur Markt,Else-Lasker-Schüler-Straße 18-22,10783,52.5001242,13.3545269,07100103
3486395920,Netto Marken-Discount,Bruno-Taut-Straße 8,12524,52.4127316,13.5692808,09301024
3488849733,Penny,Winterfeldtstraße 74,10781,52.4963863,13.3478324,07100102
3499253021,Denns BioMarkt,,,52.4949861,13.4205474,02200213
3506086153,Punjab Foods Afro Shop,Tromsöer Straße 6,13359,52.5582594,13.3742829,01300730
3563938494,Schnittstelle,Urbanstraße 100,10967,52.4898742,13.422358,02200213
3577574383,Bolu,Müllerstraße 35,13353,52.5489311,13.355191,01400942
3588747520,Denns BioMarkt,Rheinstraße 60,12159,52.4700835,13.3341154,07300618
3618538618,EDEKA Residenzstraße,Residenzstraße 34,13409,52.5669709,13.3613922,12100204
3629578699,TS Foods Supermarkt,Alt-Moabit 74,10555,52.5241928,13.3331988,01200522
3632641114,Biolino,Crellestraße 38,10827,52.4879674,13.3603428,07200411
3632644957,Go Asia,Hauptstraße 132,10827,52.4845565,13.3537504,07200410
3644274093,Asia Kauf,Rheinstraße 24,12161,52.4681433,13.3313969,07300516
3644425794,Netto,,,52.5124355,13.4330222,02400623
3644478493,REWE City,Bahnhofstraße 23-25,12555,52.4577394,13.5789184,09501939
3666631698,Netto Marken-Discount,Martin-Luther-Straße 24,10777,52.496021,13.3458185,07100101
3666951531,Aldi,Neumannstraße 13,13189,52.5613631,13.4225947,03400829
3672738935,Edeka,Kladower Damm 366 B,14089,52.4550765,13.1439156,05400944
3682950108,Aldi Nord,Senftenberger Ring 17,13439,52.5995142,13.3548869,12601134
3685604688,E-Center,Hansastraße 236,13051,52.5605173,13.4988103,11200410
3686065800,HIT,Wilmersdorfer Straße 26-28,10585,52.5135233,13.3047764,04300621
3702421471,Netto,Berliner Straße 96a,14979,52.3661662,13.3134932,0
3712221852,Nazar Supermarkt,Potsdamer Straße 111,10783,52.4994583,13.3630907,07100205
3730510665,Kaufland,,,52.4223138,13.7509484,0
3767159946,EDEKA Meinke,Alt Nowawes 65,14482,52.3959871,13.0904043,0
3770639357,Aldi,Bucher Weg 2,16356,52.6049942,13.5243525,0
3772659942,Rewe,Prerower Platz 1,13051,52.5648536,13.5067596,11100307
3779407694,Mitte Meer,Kolonnenstraße 30 b,10829,52.484833,13.3693011,07200413
3799648388,NORMA,,,52.5519565,13.1220547,0
3826451055,Bolu,Kleiststraße 32-33,10787,52.5003829,13.3484057,07100102
3826451957,Denns BioMarkt,Motzstraße 24,10777,52.4980181,13.3483763,07100102
3833209860,Düzgün,,,52.5042204,13.3071955,04501040
3837671815,Go Asia,Tempelhofer Damm 120,12099,52.4690441,13.3852152,07400824
3851784124,Bio Company,Hasenheide 32-38,10967,52.4884752,13.4150932,02200212
3855567148,Eurogida,Potsdamer Straße 152,10783,52.4967793,13.3611893,07100103
3858762686,Baraka Supermarkt,Hauptstraße 137,10827,52.485251,13.3550385,07200410
3859397150,Go Asia,Nollendorfplatz 8-9,10777,52.4986926,13.3544224,07100103
3862782311,EDEKA,Knesebeckstraße 56,10719,52.5005138,13.3222176,04501041
3873919795,Norma,Wassermannstraße 97,12489,52.4377511,13.5547611,09200717
3889187276,EDEKA,Straßburger Straße 9A-C,10405,52.5291922,13.4135783,03701556
3898818522,Bio Company,Greifswalder Straße 212,10405,52.5320465,13.4277612,03701659
3900293181,Nahkauf,,,52.549407,13.1559808,05100208
3906099257,Denns BioMarkt,,13357,52.5486803,13.3891398,01300834
3909557432,Asia Lebensmittel,Brückenstraße 5,12439,52.4574614,13.5111972,09200613
3916619327,Bio Company,Hermannstraße 199,12049,52.4751837,13.4275096,08100207
3922305547,Denns BioMarkt,,,52.4684302,13.4414052,08100209
3959492190,EDEKA,Mahlsdorfer Straße 59-61,15366,52.5359689,13.6324091,0
3964762127,Aldi,,,52.4589559,13.3830946,07400825
3964762128,Edeka Tempelhofer Damm,Tempelhofer Damm 198,12099,52.4585848,13.3828398,07400825
3978727085,Denns BioMarkt,Bahnhofstraße 33-38,12555,52.458381,13.5786692,09501939
3987047649,Aldi,,,52.5101681,13.3808444,01100205
3987051062,EDEKA,,,52.5186498,13.4164837,01100311
3989777458,Edeka,Eckertstraße 7-11,10249,52.5197889,13.4503543,02400522
4017367047,REWE,Hauptstraße 141-144,10827,52.4856469,13.3561779,07200410
4024075047,Anant Indischer Supermarkt,Anzengruberstraße 20,12043,52.480609,13.4394675,08100415
4034592725,Norma,Skalitzer Straße 141,10999,52.499004,13.4163673,02100105
4068008870,Alnatura Super Natur Markt,,,52.5086589,13.3047894,04300623
4068008871,Alnatura Super Natur Markt,Friedrichstraße 191,10117,52.5110708,13.3893114,01100207
4068008872,Alnatura Super Natur Markt,Chausseestraße 10,10115,52.5284331,13.3859899,01100308
4080663931,Denns BioMarkt,Adlergestell 259,12489,52.4353773,13.5419279,09200715
4090281105,Denns BioMarkt,Danziger Straße 73-77,10405,52.5390981,13.4254546,03701657
4112273957,REWE,,,52.6665225,13.2979981,0
4119293448,Atix,Neue Promenade 8,,52.5226071,13.4010483,01100309
4153062561,Samariter Unverpackt,,,52.5170593,13.466245,02500728
4179406780,Netto Marken-Discount,Alex-Wedding-Straße 3,10178,52.5250782,13.4153068,01100310
4224268256,Lidl,Müllerstraße 25,13353,52.5464131,13.3599245,01401043
4232340092,Bolu,,,52.5282875,13.194756,05200630
4234162693,Penny Underground,Müllerstraße 153,,52.5460014,13.3593645,01401047
4244204867,nahcity,Rosenthaler Straße 11,10119,52.5278089,13.4026632,01100309
4271022999,Bio Company,Kladower Damm 362-364,14089,52.4555175,13.1449754,05400944
4314333203,Bio Company,Gleimstraße 30-35,10437,52.5477143,13.4120467,03601142
4317329218,Smak Russische Lebensmittel,,,52.5422769,13.2057306,05100315
4415604082,Safrani,Wilmersdorfer Straße 44,10627,52.5103419,13.3053472,04300623
4419487707,Calvin Discount,Calvinstraße 1,10557,52.5240137,13.3520522,01200626
4434478716,Bio Company,Weißenhöher Straße 108,12683,52.5069556,13.5598549,10300733
4454150182,AZZAM,Turmstraße 57-58,10551,52.5274557,13.3299654,01200519
4454932107,Mix Markt,,,52.5326682,13.1554903,05200423
4524893340,Nadaf,,,52.4747344,13.4398121,08100207
4536095475,Nahkauf,,,52.5619592,13.4676799,03501037
4537589639,,,,52.5441031,13.547627,10100210
4546753612,Kaufland,Karl-Liebknecht-Straße 13,10178,52.5224189,13.4075889,01100310
4547088787,Netto Marken-Discount,Wilmersdorfer Straße 46,10627,52.5084018,13.3055222,04300623
4547089200,Eurogida,,,52.5088125,13.3045006,04300623
4553089244,EDEKA,Obstallee 28-30,13593,52.5221765,13.1638589,05200527
4558075794,Balkan Šop-Ilić,Dahlmannstraße 22,10629,52.5008416,13.3041489,04500936
4626472750,Eurogida,Wilhelmsruher Damm 129,13439,52.5962596,13.3552924,12601235
4630466564,Edeka,,,52.5669682,13.3485717,12100204
4666096208,Kernkraft - Rund um die Nuss,Markgrafendamm 3,10245,52.4980205,13.4652952,02500835
4675037065,REWE City,Bismarckstraße 91,10625,52.5115365,13.3095903,04300623
4688178795,Alscham,,,52.4823769,13.4382823,08100314
4693291602,Al Madina,,,52.4871266,13.4267676,08100314
4693587789,nah & gut Walter,,,52.473422,13.684662,0
4741895910,Denns BioMarkt,Prenzlauer Promenade 192,13189,52.551672,13.4299375,03400828
4741998242,Eurogida,Hermannstraße 218,12049,52.4790826,13.4259339,08100206
4761147061,REWE,Landsberger Allee 277,13055,52.5356385,13.4968091,11200514
4761858224,Alnatura Super Natur Markt,,,52.5267664,13.3326493,01200521
4766133866,Supermarkt,,,52.3868759,13.3991349,07601544
4770967056,Netto Marken-Discount,,,52.5335737,13.1978219,05200629
4778473121,Rewe,Pasteurstraße 19,10407,52.5332863,13.43436,03701660
4787095825,Lidl,Prenzlauer Allee 44,10405,52.5362946,13.4229304,03701658
4804539521,Bio Company,Uhlandstraße 103,10715,52.4856632,13.3228152,04501150
4809139807,Reformhaus Bagheri,Wilmersdorfer Straße 157,10585,52.5158399,13.3048493,04300621
4848074537,EDEKA,Schloßstraße 10,12163,52.4627571,13.3240444,06100103
4868088443,Netto,Mehrower Allee 20,12687,52.5556604,13.5588338,10100208
4873598277,Netto Marken-Discount,Siemensdamm 43-44,13629,52.536561,13.2754036,05300841
4892038733,Edeka Sapphire,Chausseestraße 43,10115,52.5342508,13.3787546,01100308
4916904790,Penny,,,52.6431456,13.2060385,0
4934281654,Netto Marken-Discount,,,52.5127262,13.1962538,05200634
4944997005,Tugra Gida,Hauptstraße 13,10827,52.4880045,13.3577161,07200409
4984197435,Kaufland,Postplatz 4A-C,16761,52.6366359,13.2048959,0
4995415654,Alnatura Super Natur Markt,Konstanzer Straße 2,10707,52.498704,13.3121172,04501043
5010062816,Reformhaus Demski,Ludolfingerplatz 1a,13465,52.6329452,13.2893671,12400721
5014501124,Family Markt,,,52.5357141,13.1950929,05100316
5034396389,El-Fj Supermarkt,,,52.4954043,13.4201374,02200213
5077058193,Mitte Meer,Prenzlauer Promenade 192,13189,52.5517659,13.429981,03400828
5211079183,Aldi,,,52.4940203,13.3606389,07100204
5224864431,Aldi,Berolinastraße 7D,10178,52.5218804,13.4232368,01100311
5254444369,Denns BioMarkt,Bahnhofstraße 79-81,14612,52.5607914,13.0918017,0
5255259068,REWE City,,,52.5289253,13.4561482,03601450
5262080209,REWE,Johannes-Kepler-Platz 5,14480,52.3760868,13.1291704,0
5308698871,Maya d‘Afrique,Frankfurter Allee 267,10317,52.5111799,13.5026267,11401032
5310387719,Rewe City,Anni-von-Gottberg-Straße 8,14480,52.3618081,13.136187,0
5322104714,EDEKA,Jungfernheideweg 2,13629,52.5370546,13.2721745,05300841
5331770244,Alnatura Super Natur Markt,Ludolfingerplatz 8A,13465,52.6322622,13.2870054,12400720
5346983665,Penny,Neuendorfer Straße 15,14480,52.3771719,13.1292532,0
5353308653,Tianfu Asien-Supermarkt,Berliner Straße 15,10715,52.4872214,13.3294174,04501150
5377794500,Bereket Market,,,52.4496881,13.3847902,07501030
5426133815,EDEKA,Viktoria-Luise-Platz 10,10777,52.4952288,13.3416349,07100101
5429553111,EDEKA Franeck,Rudolf-Breitscheid-Straße 193,14482,52.395012,13.1259443,0
5431718439,Netto Marken-Discount,Corinthstraße 36,10245,52.5000253,13.4609567,02500835
5505144606,EDEKA Burau,Mainzer Straße 13,10715,52.4797483,13.3267804,04501151
5507711302,Denns BioMarkt,Karl-Marx-Straße 66,12043,52.4819759,13.4325712,08100206
5545056560,Bio Company,Rudi-Dutschke-Straße 17,10969,52.5067343,13.3941121,02100102
5562843821,Europa Markt,,10789,52.4996854,13.3346985,04501045
5578988343,Vinh-Loi Asien-Supermarkt,Ansbacher Straße 16,10787,52.503302,13.3424529,07100101
5618092635,Netto,Erich-Weinert-Straße 95,,52.5478568,13.4302622,03601245
5717151780,Alnatura Super Natur Markt,Heerstraße 221,13595,52.5126595,13.1969132,05200634
5785097564,Go Asia,Turmstraße 29,10551,52.5265508,13.3416957,01200520
5797945753,Kefan,Zingster Straße 6,13051,52.5649609,13.5037243,11100308
5817249360,Can Market,,,52.437286,13.3446695,06200313
5820186154,Chau A Hoang Dic,,,52.527555,13.4908178,11300721
5835803818,REWE,Allee der Kosmonauten 196,12685,52.5412661,13.5649008,10100315
5887756717,El-Fi Supermarket,,,52.5527831,13.382373,01300733
5891717533,LPG BioMarkt,Yorckstraße 24,10965,52.4925371,13.3787764,02200207
5907281654,Nahkauf,,,52.6096448,13.3353663,12601032
5943512628,Netto Marken-Discount,Gotlandstraße 6,10439,52.5547595,13.4113529,03601139
5969997511,Lidl,,,52.5153174,13.2874342,04300413
5986842514,REWE,Bautzener Straße 36,10829,52.4915322,13.3712919,07100206
5991258686,Netto Marken-Discount,Weißenseer Weg 37,13055,52.5355802,13.4746475,11200514
6024482762,REWE,Eldenaer Straße 42,10247,52.5204377,13.46308,03601453
6030378239,Go Asia,,10785,52.5096419,13.3771793,01100205
6032523127,Aldi,Tamara-Danz-Straße 11,10243,52.5064101,13.4458868,02400625
6045901671,REWE City,Konstanzer Straße 53,10707,52.4955915,13.3111985,04501043
6055317346,Golden Ilakkya Asia,Rheinstraße 15,12159,52.4696437,13.3329743,07300517
6069060641,Bio Company,,,52.5002409,13.4409705,02300419
6078916023,Aldi,Fritz-Reuter-Allee 184,12359,52.437192,13.446031,08200727
6079651843,PENNY,Boxhagener Straße 80,10245,52.5078008,13.4676619,02500832
6088939377,AES Shop,Marienburger Straße 36,10405,52.5345065,13.4256884,03701658
6113203122,Nahkauf,,,52.6053919,13.3571415,12601134
6117179950,EDEKA Müller,Marlene-Dietrich-Allee 15,14482,52.3905278,13.1174531,0
6131114962,Denns BioMarkt,Müllerstraße 34,13353,52.5484993,13.3558851,01400942
6146723586,REWE,,13353,52.5488014,13.3537392,01400942
6148457828,Netto Marken-Discount,Hermannstraße 214,12049,52.4790268,13.4274455,08100206
6167488714,Bio Company,Treskowallee 114,10318,52.4812026,13.5245053,11501341
6192424377,Die Erbsenzählerei - Gutes unverpackt,Kolonnenstraße 48,10829,52.4856105,13.3629759,07200414
6258659482,Denns BioMarkt,Schönhauser Allee 80,10439,52.5492906,13.4157975,03601243
6273394390,Denns BioMarkt,,10178,52.5208173,13.4139182,01100310
6273463430,Aldi,,,52.5846524,13.286496,12200515
6277944473,EDEKA,Massower Straße 5,10315,52.5077376,13.5131475,11400931
6362759639,Sheriffs Beef nah & frisch,Kurfürstendamm 152,10709,52.4987,13.3014126,04500938
6382773513,R-Markt,Warnitzer Straße 20,13057,52.5672818,13.5176126,11100204
6402635126,PENNY,Eisenhutweg 93,12487,52.4298223,13.5125861,09100409
6405908039,EDEKA,Maybachufer 36-38,12047,52.4918563,13.4326134,08100310
6418619229,Mitte Meer,Kantstraße 42,10625,52.5065384,13.3127012,04300623
6440305705,Netto Supermarkt,,,52.3576,13.6267215,0
6494495186,Nahkauf,,,52.4485502,13.3254362,06100207
6508696685,Habibi,,10559,52.532841,13.3505936,01200623
6535295939,Özgür Market,Nonnendammallee 89,13629,52.5368955,13.2711846,05300841
6539684111,REWE,,,52.6323439,13.289344,12400720
6595730361,EDEKA,Templiner Straße 12,10119,52.5320129,13.4078491,03701554
6635160123,Dadly,Beusselstraße 44R,10553,52.5334497,13.3280361,01200517
6653396111,Bio Company,Karl-Marx-Straße 142A,12043,52.4768037,13.4387996,08100207
6754031358,Netto,Genthiner Straße 42,10785,52.5021129,13.3584107,01100103
6766866985,Elmas,Müllerstraße 128A,13349,52.5522992,13.3482885,01400938
6783674441,Lidl,Rigaer Straße 36-38,10247,52.5161284,13.4659426,02500728
6808350137,EDEKA,Invalidenstraße 74,10557,52.5273276,13.3729712,01200628
6848902763,Go Asia,Teltower Damm 37-39,14167,52.4309068,13.2597744,06300526
6895753974,Denns BioMarkt,Boxhagener Straße 82,,52.5085371,13.4666727,02500832
6898619036,Denns BioMarkt,Albrechtstraße 16-18,12167,52.4546555,13.3267514,06100207
6943989025,Aldi,Breite Straße 20,13187,52.5700558,13.4036946,03400722
6988372297,Adalat,,,52.4761828,13.4396069,08100207
7013229041,Lidl,Hindenburgdamm 94,12203,52.4420025,13.3154003,06300633
7013670902,EDEKA Zum Teufelssee,Zum Teufelssee 8,14478,52.3601615,13.0906798,0
7027141484,Bio Company,Heilbronner Straße 12,10711,52.5021374,13.2955465,04500937
7088081085,Al-Rayan Market,,,52.4783237,13.4464595,08100415
7090511500,REWE,Alfred-Jung-Straße 12,10369,52.5231836,13.477905,11300722
7127961262,Al Schark,,,52.5302494,13.3282762,01200518
7198377811,NORMA,Hans-Grade-Allee 18,12529,52.3933103,13.5015631,0
7200854537,Kartar Food,Wilmersdorfer Straße 8,10585,52.51747,13.304337,04300621
7243603338,Bio Company,Tempelhofer Damm 227,12099,52.4556927,13.3863952,07400927
7249782644,Spreewald Müller,Greifswalder Straße 87,10409,52.5419786,13.4409498,03601449
7249782646,Centro Italia,Greifswalder Straße 80c,10405,52.5391376,13.4386786,03601451
7287775932,Bento & Bibim,Lychener Straße 3,10437,52.5411196,13.4144171,03601347
7308353335,HIT,Mariendorfer Damm 292-298,12107,52.4258086,13.3913094,07501133
7401377653,Denns BioMarkt,Wollankstraße 101,13187,52.564597,13.3939165,03400721
7658861472,EDEKA,Stresemannstraße 52,10963,52.5023465,13.3855468,02100101
7734882729,Lidl,Hauptstraße 65,12159,52.4770965,13.3416249,07300517
7821177801,LPG Naturkost,Wilhelmsaue 135,10715,52.4849695,13.3294041,04501150
7910629136,REWE,Dolgenseestraße 9C-F,10319,52.4935314,13.5074171,11401135
7910629137,REWE Marcel Tuffin,Dolgenseestraße 9C,10319,52.4934634,13.5077649,11401135
7922093272,Go Asia,Kurfürstendamm 231,10719,52.5036224,13.3328311,04501042
7946062409,Aldi,Wilmersdorfer Straße 36-37,10585,52.5121281,13.304891,04300621
8064523777,REWE,Köpenicker Straße 192-198,12683,52.48668,13.5596318,10300734
8112305468,Denns BioMarkt,Sonntagstraße 37,10245,52.5040299,13.4680454,02500835
8120989342,Bio Company,,,52.4574657,13.3206336,06100102
8260370867,REWE l. Schilling,Tempelhofer Weg 11,12347,52.4585713,13.4252698,08200624
8278396118,REWE,Pappelallee 47,10437,52.5475761,13.4190984,03601346
8319654403,BOLU,Oranienburger Straße 90,13437,52.5962424,13.3331428,12500927
8327300784,Supercoop Friedenau,Odenwaldstraße 13,12161,52.4672068,13.3220012,07300516
8367158861,REWE,Heidestraße 41,10557,52.532281,13.3660391,01200624
8376407522,REWE,,,52.5008204,13.3247567,04501041
8459440164,Nova,Landsberger Allee 171,10369,52.5319562,13.46888,11300616
8499326127,Aldi,Saatwinkler Damm 8,13627,52.5389014,13.3270893,04100101
8504888827,Athi Devi Asia & Afro Supermarkt,Leykestraße 1,12053,52.4747337,13.4280117,08100208
8573099104,Denns BioMarkt,Gartenstraße 85-87,,52.5329077,13.3877558,01100415
8626109342,Özen Kardeşler,,,52.5156512,13.2938433,04300413
8637878902,Denns BioMarkt,Hauptstraße 29,10827,52.4853856,13.3542151,07200410
8640531662,Al Arabi,,12167,52.4523646,13.3324082,06100206
8693899527,EDEKA Fromm,Müllerstraße 12 a-c,13353,52.5428586,13.3658942,01401047
8825296305,EDEKA Schnelle,Alt-Stralau 66,10245,52.496736,13.4667344,02500836
8859808623,AlKaiser,Greifswalder Straße 162,10409,52.5425447,13.4399717,03601245
8913626619,Einkaufsmarkt,,,52.4521833,13.6022591,09501736
8919248466,Kosher Daily Markt,,,52.4971604,13.311877,04501043
8922495217,Shiva Shop - Ayurveda Produkte,,10589,52.5239973,13.2991114,04300517
8960303401,Zora Supermarket,Kottbusser Damm 93,,52.4936197,13.4219745,02200213
9018077984,REWE,Gorkistraße 11-21,13507,52.5903309,13.2865672,12200515
9045204695,E-Center,Rosenthaler Straße 43-45,10178,52.5243627,13.403102,01100309
9123971589,Alnatura Super Natur Markt,Koppenstraße 8,10243,52.5126288,13.4341734,02400623
9154787137,Edeka Schaaf,Schillingstraße 2,10179,52.5174568,13.4206829,01100311
9167471817,REWE,Kurfürstenstraße 46,10785,52.5009959,13.3588252,01100103
9187206635,REWE,,,52.3641886,13.5101103,0
9212717141,Netto Marken-Discount,Stieleichenstraße 14,16567,52.6433404,13.3200284,0
9268122917,EDEKA Schmitt,Seesener Straße 31,10711,52.4967809,13.2903425,04500938
9275773996,PENNY,Scheibenbergstraße 20,12685,52.5390529,13.5566647,10100314
9294315110,REWE,Wildhüterweg 42-46,12353,52.4220395,13.448772,08200833
9320920749,nah und gut,Eichhorster Weg 25,13435,52.5987496,13.3429357,12601134
9350697582,Cocos Asia,,,52.4933216,13.3840227,02200209
9380210013,Robinhood.store,Altenbraker Straße 16,12053,52.4706754,13.4324184,08100208
9405719996,Denns BioMarkt,,,52.6342759,13.4967371,03100103
9451056868,Zora,,,52.5080329,13.467354,02500832
9492707050,Denns BioMarkt,,,52.490466,13.3862074,02200209
9530161751,Exo Markt Afroshop,,,52.5672099,13.3294281,12100205
9550624125,EDEKA Görse & Meichsner,Handjerystraße 99,12159,52.4770954,13.3329979,07300517
9561434407,EDEKA Meissner,Leibnizstraße 96,10625,52.5118228,13.3143192,04300623
9586675331,EDEKA,Bahnhofstraße 81,15732,52.3735187,13.6179411,0
9623050846,Denns BioMarkt,Hardenbergplatz 11,10623,52.5076158,13.3328469,04501042
9645174963,Penny am Lichtenrader Tor,,,52.4040946,13.4057354,07601442
9776537534,Nahkauf,Gensinger Straße 83,10315,52.5109897,13.535686,11401033
9794360171,Asia-Markt,,,52.5125603,13.3052829,04300621
9798282713,Aldi,Friedrichstraße 149,10117,52.5188736,13.3879581,01100206
9881679117,Edeka,Hedwig-Dohm-Straße 4,10829,52.4761489,13.3625151,07200412
9896641262,Asia Markt Kim-Chi,Rudower Chaussee 7,12489,52.433239,13.537302,09200715
9899362016,World Exotic Foods,Herzbergstraße 128-139,10365,52.530073,13.4886467,11300721
9899393717,World Exotic Fruits,Herzbergstraße 128-139,10365,52.528314,13.4903741,11300721
9929733280,Lidl,Boxhagener Straße 76,10245,52.5073888,13.4681862,02500832
9984905976,Bio Company,Schönhauser Allee 10,10119,52.5304435,13.4113699,03701556
10035991556,Edeka Marienburger Straße,Winsstraße 14a,10405,52.5339932,13.4261824,03701659
10046858846,REWE,Großbeerenstraße 62-64,12107,52.4342421,13.3769034,07501133
10057200163,E-Center,Schloßstraße 1,12163,52.4646955,13.3265184,06100103
10113359153,Edeka Treugut,,,52.4979385,13.3630995,07100205
10159681696,NHI Global Food Market,,,52.5330253,13.3674405,01200624
10215601814,Supermarkt Ali Baba,Dörpfeldstraße 31,,52.4374569,13.5471333,09200716
10279617097,EDEKA,Fürstenberger Straße 8,10435,52.5375317,13.405478,01100416
10282821109,Bio Company,Lichtenrader Damm 83,12305,52.4063662,13.4062262,07601443
10308094647,Asia Lebensmittel - Obst & Gemüse,,,52.4235258,13.4356573,08200832
10562009263,Netto Marken-Discount,Alt-Moabit 86 A,10555,52.5253649,13.3418717,01200522
10565788625,REWE,Daumstraße 90,13599,52.5546676,13.2260964,05300735
10599991748,Aldi,Heidestraße 17,10557,52.5334703,13.3657883,01200624
10607485493,REWE,Marchwitzastraße 29,12681,52.5231528,13.5445629,10100312
10873128906,REWE,Pankstraße 32-39,13357,52.5494467,13.3777062,01300836
10928623111,Makka,,,52.5301528,13.3455428,01200625
10979158423,Rewe,Kurfürstendamm 146-147,10709,52.4983384,13.2997798,04500938
10979699637,Nahkauf,Kiehlufer 75-79,12059,52.4838082,13.4478902,08100419
11027556740,REWE,Friedrichstraße 111,10117,52.525331,13.3893156,01100309
11050421035,Kosher4all,,,52.50061,13.3054449,04500936
11063060337,Aldi,,,52.5883804,13.4022564,03200207
11063735898,Netto Marken-Discount,Rudower Straße 84-88,12351,52.4366539,13.4631486,08401139
11078794332,Bio Company,,,52.5106128,13.4164123,01100313
11114496851,Sparfood Gutes Gern Günstig,,,52.4473516,13.6172111,09501737
11134671308,EDEKA Zahl,Helmholtzstraße 3 c,10587,52.5201626,13.3198466,04300620
11191196418,Edeka Lenkeit,An der alten Gärtnerei 1,12109,52.4395336,13.4093372,07501032
11194056380,Lidl,Ontarioseestraße 17,10319,52.4950988,13.522651,11401137
11240723158,REWE,Germaniastraße 12-13,12099,52.4646687,13.3950555,07400927
11255814627,PENNY Dardanellenweg,Dardanellenweg 50,12109,52.4446581,13.4078396,07501032
11255892293,EDEKA Lenkeit,Rixdorfer Straße 69,12109,52.4478095,13.4046472,07501032
11256118796,EDEKA Gayermann,Marienfelder Chaussee 143,12349,52.4154025,13.4062078,08200831
11256176197,REWE,Oberspreestraße 145,12555,52.446092,13.5641295,09200818
11276107035,Lidl,Steglitzer Damm 95,12169,52.449956,13.3545317,06100204
11283643647,Aldi,Potsdamer Chaussee 33,14129,52.4280537,13.2148926,06400737
11283643648,Bio Company,Wiesenschlag 4,14129,52.4273376,13.2176908,06400736
11286579086,REWE,Breisgauer Straße 3A,14129,52.4395154,13.2157993,06400838
11286579087,Aldi,Breisgauer Straße 1B,14129,52.4396507,13.2167289,06400838
11294003462,Lidl,Kiefholzstraße 189,12437,52.46412,13.4875648,09100304
11294056435,Netto Marken-Discount,Dammweg 56,12435,52.4792393,13.481201,09100203
11329887047,Netto Marken-Discount,Neue Grottkauer Straße 3,12619,52.5297046,13.5921419,10200628
11341972269,Asia24,Herzbergstraße 128 - 139,10365,52.5276643,13.488704,11300721
11387751705,Frollein Bohne Kaffeerösterei,Lindenallee 47,15366,52.5105011,13.661947,0
11388056502,Aldi,Bismarckstraße 17,12169,52.4560479,13.3379865,06100208
11403668127,Addalat,,,52.4759696,13.4397182,08100207
11403675916,Almahaba,,,52.4764873,13.4394939,08100207
11495436276,Mr. Phung Asiamarkt,Gerlachstraße 31-33,14480,52.3690014,13.134399,0
11504226612,EDEKA Skalitzer Straße,Skalitzer Straße 122,10999,52.4993451,13.4222008,02300314
11521734194,Hamdan,,,52.5250926,13.4668055,11300618
11556623387,Lidl,Marzahner Chaussee 201,12681,52.5249554,13.5332762,10100311
11608895927,REWE,,,52.671767,13.3168384,0
11609888307,nah und gut Janoschek,Waldsassener Straße 42A,12279,52.408488,13.3500697,07601339
11630963099,Asia Might,,,52.4337374,13.4686513,08401139
11668609235,Go Asia,,,52.5142829,13.4712425,02500729
11676605480,Lidl,Oberlandstraße 17,12099,52.4651646,13.4162852,07400928
11750878683,Alsaadeh Market,,,52.4691883,13.3415881,07300619
11816936442,Supermarkt Al Qubitry,,,52.4504068,13.3420791,06100205
11970625112,EDEKA Gayermann,Barnetstraße 41,12305,52.3982545,13.3911351,07601544
11970625117,Lidl,Nuthestraße 5,12307,52.3973864,13.3912786,07601544
12025710685,Penny,Askanierring 40-41,13585,52.5479194,13.1943753,05100315
12031624181,Bio Company,,,52.523023,13.464467,03601453
12041286535,Netto,Elfriede-Tygör-Straße 5,10319,52.5040888,13.519633,11401137
12092213683,REWE Rocco Bräsemann,Malteserstraße 136,12249,52.4208158,13.3595219,06200317
12110529973,Exo Markt,,,52.5664697,13.3298797,12100205
12110545886,Hayal Supermarkt,,,52.5650484,13.3281349,12200309
12133528214,Zora,Bouchéstraße 39,,52.4876817,13.444187,08100313
12170890855,Vinh-Loi,,,52.4556476,13.3862597,07400927
12172596308,Aldi,,,52.4729938,13.7137353,0
12201930620,Denns BioMarkt,Turmstraße 29,10551,52.5264982,13.3421363,01200520
12229350733,Aldi,,,52.6371656,13.1998119,0
12299947274,Rewe,Hallesches Ufer 40,10963,52.4998312,13.3845722,02100101
12323881612,deli am Markt,,,52.5437602,13.441346,03601245
12346794774,Schweden-Markt,Clayallee 347a,14169,52.4362985,13.260435,06400841
12365128598,kleene Bio Company,,,52.570312,13.4052755,03400722
12422902211,Aldi,Hauptstraße 37,13127,52.612039,13.4344649,03200309
12437309605,Lidl,Kurfürstendamm 231,10719,52.5037195,13.3331254,04501042
12475543329,Galeria Markthalle,,10967,52.4872366,13.4238024,02200212
12518073577,EDEKA Halbig,Carl-Schmäcke-Straße 28,15366,52.5352649,13.6985088,0
12534305938,Aldi,Hoeppnerstraße 3-13,12101,52.471402,13.3840621,07400720
12549891646,Nah und Gut,Breisgauer Straße 20,14129,52.436621,13.215871,06400737
12568075035,EDEKA Kelz,Franz-Mehring-Platz 6,10243,52.5142024,13.4379257,02400623
12613599882,Netto Marken-Discount,Otto-Schmirgal-Straße 3,10319,52.4973075,13.5205945,11401137
12635357576,Rewe Markt,Freienwalder Chaussee 17a,16356,52.6069608,13.6168551,0
12636047385,Edeka,,,52.4795197,13.4375275,08100415
12703360202,EDEKA Korkmaz,Osnabrücker Straße 27,10589,52.5255904,13.301564,04300517
12810202365,Kaufland,,,52.4292235,13.4548179,08300934
12811369493,Berlin Market,,,52.4641576,13.4329347,08100105
12830935662,Baraka Supermarkt,,,52.5532459,13.3475192,01400938
12843181844,Lidl,,10967,52.4869358,13.4239098,02200212
12886474804,Bio Frischemarkt Grünschnabel,Steinstraße 37,12307,52.3881153,13.3979986,07601544
12917162101,Edeka,Falkenberger Chaussee 99,13059,52.5687098,13.5169909,11100205
12924870501,Rewe,Friedrichstraße 111,10117,52.5254978,13.3887617,01100309
12956133299,EDEKA,Lehrter Straße 24,10557,52.5312011,13.3619039,01200624
12956961185,LEDO,Magistratsweg 13,,52.5221014,13.162059,05200526
12971328958,BD,,,52.5132322,13.4730347,02500832
13070345701,Penny,,,52.4698339,13.4411789,08100208
13072412301,Denns Biomarkt,Kissinger Straße 1 - 2,14199,52.4791632,13.2862004,04400830
13083658665,Rewe,,,52.3643611,13.510239,0
13109351571,Rewe,,,52.3792948,13.6433837,09301228
13141866731,REWE,Kantstraße 111,10627,52.5064104,13.3070913,04300623
13154198701,Lidl,Tempelhofer Damm 187,,52.4595722,13.38488,07400927
