id,name,street,zip_code,lat,lon,geojson_feature_id
738094602,Wochenmarkt Wutzkyallee,,,52.4232357,13.4753018,08301037
949775523,Wochenmarkt am Maybachufer,,12047.0,52.4952407,13.422854,08100310
1094105651,Wochenmarkt Helene-Weigel-Platz,,,52.5279049,13.5388525,10100312
1118686880,,,,52.349387,13.1037712,0
1187953847,Genter Wochenmarkt,,,52.5470551,13.3546547,01400942
1247656158,Wochenmarkt,,10369.0,52.5283829,13.4689275,11300617
1264552070,Wochenmarkt Koppenstraße,,,52.5182062,13.4366777,02400521
1264566596,Wochenmarkt am Kosmos,,,52.5165736,13.4498297,02400522
1302119815,Wochenmarkt Arkonaplatz,,,52.5373699,13.4018749,01100416
1338224907,Markt am Bärenschaufenster,,,52.4979615,13.5221871,11401137
1352703904,Teltower Frischemarkt,,14513.0,52.4030364,13.2682052,0
1502926593,Treptower Hallentrödelmarkt,Eichenstraße 4,12435.0,52.4970017,13.4537898,09100101
1575213617,"Wochenmarkt Rathaus Lankwitz, Leonorenstraße",,,52.4387174,13.343433,06200313
1578274690,Wochenmarkt Pankow,,,52.5701146,13.4065769,03400723
1597897935,Ökomarkt am Hohenstaufenplatz,,,52.4915549,13.420647,02200213
1807535654,Freitags Regionalmarkt,,,52.5007632,13.4312447,02300315
2736078705,Flohmarkt am Arkonaplatz,,,52.5370746,13.4020996,01100416
3008830372,Wochenmarkt Klausenerplatz,,,52.5181537,13.2904267,04300413
3017245236,Food Court,,,52.4900109,13.3138411,04501147
3017245237,Street Food Thursday,,,52.5020746,13.4317885,02300315
3017245239,Wochenmarkt,,10997.0,52.5022022,13.4315955,02300315
3188323586,Wochenmarkt Kollwitzplatz,Kollwitzstraße 68,10435.0,52.5365702,13.4183629,03701555
3188323587,Ökomarkt am Kollwitzplatz,,10435.0,52.5366375,13.4180812,03701555
3634281847,Marktschwärmer Neukölln-Elsenstraße,Elsenstraße 52,12059.0,52.486113,13.4482324,08100419
3678929703,Neuköllner Stoff,,,52.4955204,13.4221115,08100310
3980482215,Wochenmarkt,,,52.4569619,13.3216362,06100102
4263380282,,,,52.5135429,13.5196582,11401033
4360136926,Flohmarkt Friedrichshagen,Schöneicher Straße 1,12587.0,52.4578134,13.6260219,09501737
4388912427,Trödelmarkt am Boxhagener Platz,,10245.0,52.5112571,13.4589749,02500833
4388990289,Flohmarkt Nowkoelln Flowmarkt,,,52.492487,13.4313042,08100310
4486907949,Wilhelmplatz,,,52.4123017,13.1415907,06400735
4781579796,Bauernmarkt Leopoldplatz,,13353.0,52.5469113,13.3590397,01401048
4781579797,Trödelmarkt,,13353.0,52.5469796,13.3591899,01401048
4806425628,Ökomarkt im Hansaviertel,,,52.5178391,13.34137,01200629
4938805613,Wochenmarkt Arnswalder Platz,,,52.5323856,13.4359922,03701660
4938810971,Ökomarkt Chamissoplatz,,,52.488042,13.3915146,02200211
4938814827,Wochenmarkt Rathaus Spandau,,,52.5357067,13.2010619,05100316
4938816169,Wochenmarkt Preußenallee,,,52.5147162,13.2595465,04200309
4938849682,Wochenmarkt,,,52.5086108,13.3097282,04300623
4938868566,Wochenmarkt Karl-Marx-Platz,,,52.4736891,13.4412709,08100416
4938876534,Wochenmarkt,,,52.450836,13.6243933,09501737
4938881690,Regionalmarkt am Kranoldplatz,,,52.4662082,13.4372321,08100209
5152648806,Ökomarkt an der Apostel-Paulus-Kirche,,,52.4889443,13.3531035,07200409
5188267334,Kranoldmarkt,,,52.4281755,13.3277154,06200422
5188287257,Markt,,,52.442827,13.3123461,06300633
5195141905,Wochenmarkt Nestorstraße,,,52.4957781,13.2997086,04500938
5209732607,,,,52.5486137,13.5048228,11200411
5261525572,Wochenmarkt am Mexikoplatz,,,52.4374709,13.2326305,06400839
5405901057,Street Food Markt Berlin,,,52.538871,13.4132482,03701555
5469628638,Bauernmarkt,,10439.0,52.5503942,13.4102372,03601141
5590777543,Eichwalder Wochenmarkt,,,52.3726982,13.616725,0
5982573198,Wochenmarkt John-F.-Kennedy-Platz,,,52.4846521,13.3446836,07200308
5982573199,Trödelmarkt John-F.-Kennedy-Platz,,,52.4849195,13.3446676,07200308
6031718125,Floh- und Bauernmarkt auf dem Weberplatz,,,52.3938218,13.0953571,0
6052775889,Antikmarkt am Ostbahnhof,,,52.5108583,13.4357968,02400623
6283834686,Thaipark,,,52.4920594,13.3146687,04501043
6351024671,Schloßplatz,,,52.4446594,13.5746778,09401534
6351024674,Marktplatz Adlershof,,,52.4378995,13.5473582,09200716
6357592088,Wochenmarkt,,,52.4312602,13.2580008,06300526
6923866544,Wochenmarkt am Barnimplatz,,,52.5675691,13.5732825,10100103
8289047338,Ökomarkt an der Heilandskirche,,,52.526076,13.3393479,01200522
8308140887,RAW-Flohmarkt,,,52.5077303,13.4533672,02500834
8308239828,Trödelmarkt Spandau,,,52.5378477,13.2152229,05300736
8308239829,Antik- und Trödelmarkt Goerzallee,,,52.4176783,13.2877921,06300631
8308239830,Trödelmarkt Hermann-Ehlers-Platz,,,52.4568736,13.3217445,06100102
8308239831,Flohmarkt Mecklenburgische Straße,,,52.4736825,13.3013181,04400833
8308239832,Flohmarkt am Fehrbelliner Platz,,,52.4909435,13.3141436,04501043
8308239833,Flohmarkt in der Mierendorfstraße,,,52.5248092,13.3036302,04300517
8308239835,Flohmarkt Wittenau,,,52.5952608,13.3342994,12500926
8308239837,Flohmarkt Marienfelde,,,52.4304169,13.377544,07501133
8308239838,Trödelmarkt am Marheinekeplatz in der Bergmannstraße,,,52.4891534,13.3957331,02200211
8308239839,Kunstmarkt am Zeughaus,,,52.5186418,13.397574,01100206
8308239840,Acud Flohmarkt,,,52.5329956,13.4013758,01100416
8972210816,Lübarser Dorfmarkt,,,52.6209233,13.3583949,12500929
9006709217,Hackescher Markt,,10178.0,52.5231603,13.4027781,01100309
9397764839,,,,52.5605199,13.0893128,0
9631694647,Wochenmarkt Helmholtzplatz,,10437.0,52.5435956,13.4173724,03601347
9746973688,Subaermarkt,Schnellerstraße 137,12439.0,52.4606246,13.508975,09200613
9752780986,Wochenmarkt am Hohenzollernplatz,,10717.0,52.4943512,13.3262265,04501149
9814251828,Winterfeldtmarkt,,,52.4965172,13.354378,07100102
9965584398,Adam-Kuckhoff-Platz,,,52.4205295,13.2258323,0
10681640789,Ökomarkt am Südstern,,,52.4896901,13.406541,02200212
10846148115,Bauernmarkt,,,52.4037336,13.22017,0
11583785338,Streetfood-Markt Berlin Ostbahnhof,,,52.5117241,13.4348277,02400623
12052715292,Wilhelmsmarkt,Goethestraße 2,13158.0,52.5874176,13.3673925,03400619
12345757012,Wochenmarkt,,,52.3546963,13.3076848,0
12356318726,Wochenmarkt Antonplatz,,,52.5486283,13.4509978,03500935
12883051635,Wochenmarkt Schnellerstraße,,,52.4563196,13.5104469,09200613
13070569568,Open Air Market,,,52.4956143,13.4213548,08100310
13122936382,Wochenmarkt Karlshorst,,,52.4825781,13.5260097,11501340
13167675338,Marktschwärmer Köpenick,Lindenstraße 2-4,12555.0,52.4520235,13.5708626,09501939
13179898661,Marktschwärmer Adlershof,Volmerstraße 1,12489.0,52.4311793,13.5351548,09200715
13179902626,Marktschwärmer Johannisthal,Sterndamm 102,12487.0,52.443713,13.5019088,09100407
13179918778,Marktschwärmer Karlshorst,Treskowallee 159,10318.0,52.4753233,13.522431,11501341
13180097733,Marktschwärmer Kreuzberg - Paul-Lincke-Ufer,Paul-Lincke-Ufer 21,10999.0,52.4938179,13.4292668,02300418
