id,name,street,zip_code,lat,lon,geojson_feature_id
27586255,Ruhleben,,,52.5256744,13.2414191,04200203
29045595,Amrumer Straße,,,52.5423332,13.3501546,01401046
29046450,Zoologischer Garten,,,52.5058669,13.3330236,04501042
29046970,Kurfürstendamm,,,52.5038223,13.3314365,04501042
29046976,Güntzelstraße,,,52.4920843,13.3310064,04501152
29046979,Berliner Straße,,,52.4873298,13.3310103,04501153
29046999,Friedrich-Wilhelm-Platz,,,52.4721217,13.3287301,07300517
29047043,Walther-Schreiber-Platz,,,52.4653254,13.3282601,07300516
29047045,Schloßstraße,,,52.461481,13.3250946,06100103
29047047,Rathaus Steglitz,,,52.4567983,13.3209344,06100102
29123754,Theodor-Heuss-Platz,,,52.5099869,13.2722217,04200310
29123761,Neu-Westend,,,52.5162154,13.2592357,04200309
29123763,Deutsche Oper,,,52.511837,13.3105328,04300621
29123764,Ernst-Reuter-Platz,,,52.5118853,13.3221613,04300622
29190897,Lindauer Allee,,,52.5754161,13.3384251,12100206
29494301,Jannowitzbrücke,,,52.5153554,13.4181732,01100311
29497638,Innsbrucker Platz,,,52.478987,13.3436736,07200308
29833469,Bayerischer Platz,,,52.4885755,13.3405436,07200307
29881358,Wuhletal,,,52.5126122,13.5752134,10400836
31048718,Hermannstraße,,,52.4672622,13.4314659,08100105
31207787,Bismarckstraße,,,52.5115148,13.3052393,04300621
31207789,Richard-Wagner-Platz,,,52.517387,13.306588,04300619
76474606,Eisenacher Straße,,,52.4895529,13.3501694,07200409
107606908,Rathaus Reinickendorf,,,52.5883733,13.3259254,12500926
129730678,Südstern,,,52.4892983,13.4076671,02200212
174817813,Yorckstraße,,,52.4929715,13.3706891,07100206
193661797,Friedrichsfelde,,,52.5061644,13.5128387,11400930
259845849,Gneisenaustraße,,,52.4912895,13.3958247,02200210
316021790,Kaiserdamm,,,52.5100921,13.2831263,04200311
557830030,Elsterwerdaer Platz,,,52.5052929,13.560878,10300733
557840857,Biesdorf-Süd,,,52.4996047,13.5465321,10300734
1498939809,Rosenthaler Platz,,,52.5298999,13.4011206,01100309
2102139395,Gleisdreieck,,,52.4995261,13.3740318,02200207
2461322542,Gesundbrunnen,,,52.5488223,13.3883057,01300834
2924245392,Wedding,,,52.5430625,13.3650375,01401047
3352091173,Stadtmitte,,,52.5120808,13.3896554,01100207
3772787174,Seestraße,,,52.5498029,13.3531176,01400942
3772836700,Leopoldplatz,,,52.5463833,13.3591672,01401047
3799307108,Frankfurter Allee,,,52.5136227,13.4754364,02500729
3820796396,Naturkundemuseum,,,52.5312724,13.3821605,01100308
3844356478,Voltastraße,,,52.5422898,13.392876,01300834
3844467019,Moritzplatz,,,52.5036623,13.4107479,02100104
3844501316,Schönleinstraße,,,52.4930552,13.4220572,02200213
3846415853,Boddinstraße,,,52.4801685,13.425281,08100206
3846471665,Leinestraße,,,52.4729787,13.4283545,08100104
3846589198,Strausberger Platz,,,52.5180981,13.4315264,02400521
3846748389,Dahlem-Dorf,,,52.4574096,13.2897049,06400844
3846755695,Weberwiese,,,52.5167465,13.4447135,02400522
3851450060,Grenzallee,,,52.4628825,13.4447716,08200622
3854167532,Rehberge,,,52.5566893,13.3409843,01400937
3854590997,Hallesches Tor,,,52.4977596,13.3906496,02100102
3854591000,U Potsdamer Platz,,,52.5091586,13.3782147,01100205
3856100108,Hauptbahnhof,,,52.5252819,13.3701242,01200628
3856551765,Britz-Süd,,,52.4377918,13.4481868,08200727
3856551767,Johannisthaler Chaussee,,,52.4293213,13.4533376,08300934
3856551769,Lipschitzallee,,,52.4246425,13.4626984,08300935
3856551771,Rudow,,,52.41617,13.4953978,08401244
3856551777,Zwickauer Damm,,,52.4233803,13.4839403,08301037
3858579923,Afrikanische Straße,,,52.5602382,13.3346178,01400937
3858818979,Kurt-Schumacher-Platz,,,52.5632274,13.327129,12200309
3858932763,Scharnweberstraße,,,52.5668172,13.3126219,12200411
3859009452,Otisstraße,,,52.5710338,13.3029254,12200310
3859032226,Holzhauser Straße,,,52.575692,13.2961132,12200412
3862380796,Borsigwerke,,,52.5818407,13.2905918,12200515
3862767512,Brandenburger Tor,,,52.5166047,13.3809897,01100206
3865616067,Neukölln,,,52.4685956,13.4418203,08100209
3867910440,Weinmeisterstraße,,,52.5254666,13.4050194,01100309
3869306768,U Friedrichstraße,,,52.5202635,13.3882862,01100206
3870475231,Anton-Wilhelm-Amo-Straße,,,52.5117915,13.3850915,01100205
3870914569,Warschauer Straße,,,52.505014,13.4490065,02500835
3872477458,Krumme Lanke,,,52.4434481,13.2413921,06400839
3875882001,Görlitzer Bahnhof,,,52.4992628,13.4280355,02300315
3876077784,Klosterstraße,,,52.5172347,13.4124323,01100310
3876218098,Schillingstraße,,,52.52079,13.4211125,01100311
3876349058,Frankfurter Tor,,,52.515818,13.4539745,02500727
3876481637,Schlesisches Tor,,,52.5008341,13.4414625,02300316
3876909306,Westhafen,,,52.536735,13.3425741,01200517
3881590700,Prinzenstraße,,,52.4983972,13.40591,02100106
3884823930,Alt-Mariendorf,,,52.4396754,13.3875138,07501133
3887567777,Platz der Luftbrücke,,,52.4860843,13.3859508,02200209
3894910680,Paracelsus-Bad,,,52.5742433,13.348511,12100205
3895051317,Residenzstraße,,,52.5711895,13.3604739,12100103
3895235324,Franz-Neumann-Platz,,,52.5645392,13.3639236,12100204
3896661775,Vinetastraße,,,52.5593248,13.413278,03400826
3898068655,Kaiserin-Augusta-Straße,,,52.4599764,13.3846346,07400824
3898404805,Westphalweg,,,52.4462674,13.3856905,07501030
3900136339,Kottbusser Tor,,,52.4989853,13.4183107,02100106
3900580952,Sophie-Charlotte-Platz,,,52.5109137,13.2963306,04300414
3901824902,Nollendorfplatz,,,52.4995972,13.3537297,07100102
3904674211,Spittelmarkt,,,52.5112959,13.4041155,01100207
3906622702,Kurfürstenstraße,,,52.4999599,13.3619411,01100103
3906729688,Schwartzkopffstraße,,,52.5351574,13.377318,01100308
3916325095,Senefelderplatz,,,52.5323899,13.4126861,03701554
3918542874,Konstanzer Straße,,,52.4945315,13.3090745,04501043
3918711741,Karl-Marx-Straße,,,52.4762696,13.4393375,08100207
3928759793,Oranienburger Tor,,,52.5255998,13.3873583,01100308
3931919580,Adenauerplatz,,,52.5000028,13.3073226,04500936
3933477396,Cottbusser Platz,,,52.5338331,13.5964015,10200628
3933477399,Kaulsdorf-Nord,,,52.5211535,13.5889176,10200630
3933477401,Magdalenenstraße,,,52.5124541,13.4870792,11300724
3933477404,Kienberg (Gärten der Welt),,,52.5286152,13.5906369,10200628
3933566460,Nauener Platz,,,52.5514056,13.3671696,01401043
3933855820,Mendelssohn-Bartholdy-Park,,,52.503724,13.3748605,01100102
3933855823,Möckernbrücke,,,52.4986927,13.383123,02200208
3933855829,Pankstraße,,,52.5522617,13.3814583,01300733
3935369912,Samariterstraße,,,52.5147399,13.4644405,02500728
3935470812,Hönow,,,52.5384335,13.633123,10200524
3946122064,Bülowstraße,,,52.4975858,13.3632209,07100205
3947836158,Hausvogteiplatz,,,52.5133502,13.395591,01100206
3948690912,Alt-Tempelhof,,,52.4655217,13.3856299,07400824
3948690916,Ullsteinstraße,,,52.4537449,13.3844659,07400825
3949521962,Mehringdamm,,,52.4941308,13.3886168,02200208
3949521963,Paradestraße,,,52.4780189,13.3862561,07400721
3950105985,Lichtenberg,,,52.5111151,13.4986022,11300826
3955368088,Onkel Toms Hütte,,,52.4498912,13.2530752,06400840
3955368093,Oskar-Helene-Heim,,,52.4503608,13.2690711,06400842
3955368095,Freie Universität (Thielplatz),,,52.4510388,13.281744,06400844
3957757603,Uhlandstraße,,,52.5028118,13.3266968,04501042
3957757604,Wittenbergplatz,,,52.5017976,13.3430005,07100101
3957897529,Hansaplatz,,,52.518008,13.3420365,01200629
3959201657,Birkenstraße,,,52.5323818,13.3413533,01200520
3959389239,Blaschkoallee,,,52.4520801,13.4492022,08200726
3959653399,Blissestraße,,,52.4864895,13.3205449,04501146
3959895235,Breitenbachplatz,,,52.4670266,13.3088711,06400844
3983548303,Osloer Straße,,,52.5571597,13.3732715,01300730
4213705914,Bundestag,,,52.5201123,13.3729545,01100102
4440948591,Turmstraße,,,52.5261489,13.3412971,01200522
4512633105,Siemensdamm,,,52.5367748,13.2727638,05300841
4598319045,Tierpark,,,52.4977241,13.5229595,11401137
4598414751,Alexanderplatz,,,52.5215849,13.4139082,01100310
4644994619,Jungfernheide,,,52.5307879,13.3006301,04300517
4788379933,Louis-Lewin-Straße,,12627.0,52.538977,13.6183463,10200524
4788379937,Hellersdorf,,,52.5366883,13.606672,10200524
4940731304,Märkisches Museum,,,52.5123348,13.4101754,01100312
4989868817,Rathaus Spandau,,,52.5351709,13.1997742,05100316
5099979652,Kleistpark,,,52.4903665,13.3602198,07200411
5116771809,Kochstraße/Checkpoint Charlie,,,52.5060447,13.3906125,02100102
5134482957,Rathaus Schöneberg,,,52.4831773,13.341972,07200308
5134716875,Viktoria-Luise-Platz,,,52.4961755,13.3431855,07100101
5149137347,Rüdesheimer Platz,,,52.4732464,13.314415,04400835
5160531362,Podbielskiallee,,,52.4641033,13.2957519,06400844
5162689183,Augsburger Straße,,,52.5004423,13.3364644,04501042
5162689184,Heidelberger Platz,,,52.4797961,13.3128835,04501148
5162689220,Hohenzollernplatz,,,52.4940847,13.3247547,04501045
5162689571,Spichernstraße,,,52.4964453,13.3310091,04501045
5162689572,Fehrbelliner Platz,,,52.4905442,13.3151361,04501147
5171026793,Hermannplatz,,,52.4862857,13.4245531,08100314
5171026794,Rathaus Neukölln,,,52.4816522,13.4341793,08100314
5171026799,Parchimer Allee,,,52.4447743,13.4495999,08200727
5176114547,Jakob-Kaiser-Platz,,,52.5362794,13.2933009,04100101
5176114617,Wilmersdorfer Straße,,,52.5066749,13.3066372,04300623
5183374155,Zitadelle,,,52.537652,13.2175358,05300736
5183375788,Paulsternstraße,,,52.5379819,13.2478176,05300840
5183375797,Halemweg,,,52.5366262,13.2861036,04100101
5198810677,Reinickendorfer Straße,,,52.5400429,13.3702888,01300836
5219721336,Schönhauser Allee,,,52.5494885,13.4137114,03601141
5219721338,Karl-Bonhoeffer-Nervenklinik,,,52.5786231,13.3335031,12500930
5219721339,Wittenau,,,52.5956412,13.3347115,12500926
5219756617,Rosa-Luxemburg-Platz,,,52.5276951,13.4104868,01100310
5219756618,Mierendorffplatz,,,52.5263437,13.3047721,04300517
5220107618,Pankow,,,52.56678,13.4117203,03400826
5220114129,Haselhorst,,,52.5387183,13.2330942,05300737
5250030091,Stadtmitte,,,52.5106178,13.3898514,01100207
5250030092,Hallesches Tor,,,52.4990257,13.3917126,02100102
5250030093,Möckernbrücke,,,52.4991179,13.3828981,02100101
5324318370,Bundesplatz,,,52.4776476,13.3285001,04501153
5330823481,Rohrdamm,,,52.5369951,13.262306,05300840
5679382211,Tempelhof,,,52.469568,13.385629,07400824
5713678268,Olympia-Stadion,,,52.5168643,13.2504479,04200203
5713678269,Heinrich-Heine-Straße,,,52.5104484,13.4160272,01100312
5713678270,Eberswalder Straße,,,52.5415154,13.4121769,03601142
5713944071,Bernauer Straße,,,52.5374381,13.3966175,01100416
5718454109,Alt-Tegel,,,52.5894565,13.2837514,12200515
5726082246,Altstadt Spandau,,,52.5388381,13.2062573,05100316
6555763842,Wutzkyallee,,,52.4233264,13.4745668,08301037
8170768521,Unter den Linden,,,52.5169884,13.38882,01100206
8170768522,Rotes Rathaus,,,52.5188425,13.4080828,01100310
9082329700,Museumsinsel,,,52.5172626,13.3988844,01100206
