id,name,street,zip_code,lat,lon,geojson_feature_id
282430458,Chez P!ppo,Frankfurter Allee 17,10247.0,52.5159301,13.4579508,02500727
282748367,Sweet Hands,Waldeyerstraße 7,10247.0,52.515594,13.4721266,02500729
293225672,Rosa Canina,Pasteurstraße 32,10407.0,52.5323311,13.4357348,03701660
416076804,Gelatteria Vanilla,Knesebeckstraße 10,12205.0,52.4437443,13.2938733,06300629
434563600,Jannys Eis,,,52.3927929,13.0921474,0
482737289,Fior di Latte,,10965.0,52.4900563,13.3831738,02200209
482737290,vanille & marille Eismanufaktur,Hagelberger Straße 1,10965.0,52.4914869,13.3862658,02200209
586536404,Eiscafé Moin Moin to go,Bahnhofstraße 39,12305.0,52.3865171,13.3995765,07601544
615020649,Aldemir Eis,Falckensteinstraße 7,10997.0,52.4992696,13.442881,02300419
664244067,Eis Da Dalt,Breite Straße 14A,14199.0,52.4745195,13.2939042,04400832
670658034,Don Gelato,,,52.4865601,13.3605488,07200411
670658039,Eis-Café Vannini,Potsdamer Straße 170-170b,10783.0,52.4945809,13.3607729,07100103
674432264,Artigiani,Unter den Eichen 95b,12205.0,52.4450623,13.2929326,06300629
687589952,Da Valentino,,,52.4172718,13.4965188,08401243
735944492,Eisbar Friederici,Alt-Köpenick 33,12555.0,52.4450013,13.5743639,09401534
739991143,Barlotta,,,52.4334747,13.3596473,06200316
746853085,Jacksons Ice Cream,,,52.5807501,13.3996999,03200206
747528359,Eiscafé Gelato degli Angeli,Dietzgenstraße 68,13156.0,52.5871436,13.4020129,03200207
753361477,conAmore,Berliner Straße 4,13187.0,52.5698712,13.4107064,03400723
773563718,Tribeca,Rykestraße 40,10405.0,52.5374295,13.4210527,03701555
775342946,Eis Da Dalt,,,52.4581642,13.3216253,06100102
832835242,Eis & Back,,,52.551954,13.3667613,01401049
833025100,Eislabor,Raumerstraße 32,10437.0,52.5417617,13.4221348,03601348
853810631,Bio Eissalon tanne B.,Marheinekeplatz 15,10961.0,52.4892469,13.3939761,02200211
860691104,Moono Frozen Yogurt Berlin,Schloßstraße 28,14059.0,52.5114743,13.2975913,04300414
864085678,Eissalon Kiez & Kugel,Eisenbahnstraße 48,,52.5010414,13.4310567,02300315
916563260,Five Elephant (Ice Scream),Reichenberger Straße 104,10999.0,52.4936851,13.4373087,02300418
926359040,San Marco,,,52.5221389,13.4112166,01100310
977707412,Eiscafé Isabel,Böckhstraße 1,10967.0,52.4944225,13.4155388,02200213
1180916040,Eisdiele Angelina Alt-Lübars,Alt-Lübars 36,13469.0,52.6178898,13.3544783,12500929
1227247985,Faldon Eismanufaktur,Otto-Suhr-Allee 104,10585.0,52.5173455,13.3077236,04300619
1236954083,Eisinsel,,,52.6068479,13.2102847,12400617
1239737913,Häagen-Dazs,,,52.5103967,13.3764124,01100102
1252865192,Florida Eiscafé,,,52.5885432,13.2781145,12200515
1342682103,La Gelateria picola,,,52.4998032,13.4328743,02300315
1356526442,Eis Schober,,,52.5717427,13.3117338,12200310
1374234250,EisPiraten,Grünberger Straße 85,10245.0,52.511115,13.4616423,02500833
1418640423,Salentino Eis,Nonnendammallee 89,13629.0,52.536846,13.270978,05300841
1420714926,Eisfee,Forststraße 17,12163.0,52.4643463,13.314186,06100102
1435425821,Fantasia del Gelato,Nuthestraße 1-10,14480.0,52.3713188,13.1352948,0
1579564854,Gelateria Da Gianni,Turmstraße 35A,10551.0,52.5267288,13.3372932,01200520
1595959825,BioEisdiele,Südostallee 169,12487.0,52.4554574,13.5033722,09100407
1643139873,Eisdiele,Berliner Allee 14,15345.0,52.5618625,13.7234147,0
1655132781,Eiscafe Frech,,,52.4379767,13.2712876,06300527
1704338330,Eiscafe Athene,Am Bahnhof 1,15831.0,52.3601651,13.4095569,0
1710136143,La Donna,Alt-Tegel 27,13507.0,52.5883744,13.2786473,12200515
1773561652,eiscafé MOINMOIN,Baumschulenstraße 74,12437.0,52.4636145,13.4843935,09100304
1832540155,Eisdiele Gloria,Steubenplatz 5,14050.0,52.5168139,13.2616517,04200309
1839787343,Der Eisladen,Luisenstraße 14,10117.0,52.5232348,13.3793711,01100308
1846030173,SchokoLadenEis,Kaskelstraße 15,10317.0,52.5048146,13.4776526,11400927
1850625817,Vanille & Marille,Belziger Straße 24,10823.0,52.4872163,13.3535138,07200409
1870419380,KiezEis,Winterfeldtstraße 46,10781.0,52.4971063,13.3533676,07100102
1950643808,Dolce Vita,Welfenallee 7,13465.0,52.6318563,13.2892921,12400720
1965271022,Prizreni,,,52.4845749,13.4278083,08100206
2018810746,Waffle 36,Kottbusser Damm 9,10967.0,52.4938875,13.4212355,02200213
2033283081,Canal I,Rosenthaler Straße 40-41,10178.0,52.5242166,13.4021071,01100309
2063612252,Kuréme,Adalbertstraße 23,10997.0,52.5030897,13.4207535,02300314
2136186734,Jannys Eis,Blumberger Damm 146,12685.0,52.5435849,13.5713443,10100316
2140736759,Pingolino,Eberswalder Straße 4,10437.0,52.5407603,13.4059926,03701554
2206272353,Da Dalt,,,52.4195163,13.4936564,08401243
2293986337,Jannys Eis,Am Moosfenn 1,14478.0,52.3653415,13.0932912,0
2300052110,Spoonful Berlin,Maxstraße 11,13347.0,52.5500685,13.3639425,01401048
2309384558,Eismieze,Schlegelstraße 21,10115.0,52.5304151,13.3870778,01100415
2328402490,Mokka-Milch-Eiscafé,Bruno-Taut-Straße 1,12524.0,52.4127058,13.572316,09301024
2335250353,Eismanufaktur Spoonful,Weserstraße 6,12047.0,52.4882098,13.4274772,08100311
2402138986,Eis Café,,,52.4221445,13.3707385,07601237
2423916731,Cuore Di Vetro,Max-Beer-Straße 33,10119.0,52.5265876,13.4085992,01100310
2438932665,Spoonful,Gärtnerstraße 33a,10245.0,52.5082288,13.4594493,02500834
2445454962,Eiscafé Monheim,Blissestraße 12,10713.0,52.4851165,13.3201033,04501146
2531902839,Coco Beach,Lichtenrader Damm 44,12305.0,52.409948,13.403437,07601442
2716096788,Süße Sünde,Niederbarnimstraße 21,10247.0,52.5139235,13.4592285,02500830
2726147775,vanille & marille Eismanufaktur,Friedrich-Wilhelm-Straße 22,12103.0,52.4585977,13.3813245,07400825
2756763433,Brivido Dolce,Wollankstraße 24,13359.0,52.5644458,13.392676,01300731
2824823225,Da Dalt,,,52.539786,13.2058596,05100316
2852739952,Lido Eis,Böckhstraße 27,10967.0,52.4929606,13.4211946,02200213
2930771507,Dolce Freddo,Stargarder Straße 7,10437.0,52.5471962,13.4158666,03601346
2936798208,Flamingo,Fellbacher Straße 28,13467.0,52.6159525,13.3070449,12400722
2947930990,Mos Eisley,Herrfurthplatz 6,12049.0,52.4772145,13.4212019,08100102
2953557790,Il Gelato Italiano,,,52.5642818,13.3643755,12100204
2969819044,Mr. Ice Cream,,,52.5611805,13.2080797,05100105
3018856733,Eislounge Sonnenseite,Fürstenwalder Allee 26,12589.0,52.4410498,13.6880039,09501838
3054792654,Dolci Eis-Lounge,Kanada-Allee 10,14513.0,52.3931166,13.2706288,0
3055877735,Hokey Pokey,Stargarder Straße 72,10437.0,52.5468535,13.4177126,03601346
3150248629,Il Buon Gelato Marcon,Achillesstraße 46,13125.0,52.6185146,13.4869412,03300411
3161789870,Italy Eis,Innsbrucker Platz 4,10827.0,52.4789989,13.3439518,07200308
3163972953,Disco,Schleiermacherstraße 9,10961.0,52.4927548,13.3982908,02200210
3265611317,Eiscafé Scutari,Schivelbeiner Straße 4,10439.0,52.5509189,13.4125006,03601141
3313677764,Emba Emilia,Fichtengrund 4,15366.0,52.5307936,13.6309573,0
3343103839,Jones Ice Cream,Goltzstraße 3,10781.0,52.4905007,13.3534034,07100204
3383029141,Jannys Eis,Elsa-Brändström-Straße 1,13189.0,52.5600506,13.4135936,03400826
3392131020,Conny´s Eiscafe,Schönerlinder Chaussee 38,16348.0,52.6560267,13.4461606,0
3474035725,Il piccolo Castello del Gelato,,,52.5125845,13.3048601,04300621
3475661392,Eisspatz,Schönstraße 1,13086.0,52.5529655,13.4495406,03500933
3485840223,vanille & marille Eismanufaktur,Leydenallee 92,12165.0,52.4539873,13.3232663,06100207
3525559346,Eiskultur-Berlin,Schnellerstraße 118,12439.0,52.4551069,13.5147481,09200613
3530856517,Lottas Torten,,,52.5043673,13.3219025,04501041
3570854143,JOHO Eisparadies,Schloßstraße 25,12163.0,52.4597269,13.3231554,06100102
3646164022,Die Eisfrau,Rudolf-Breitscheid-Straße 42,14482.0,52.3917698,13.0934882,0
3670161819,Eis da Gianni,,12209.0,52.429866,13.3322474,06200422
3676000349,Häagen-Dazs,Kurfürstendamm 224,10719.0,52.5031852,13.3297086,04501042
3736896887,LeckoMio,Graefestraße 80,10967.0,52.4933445,13.4182107,02200213
3751973159,Eiskonditorei Anett,Büxensteinallee 2,12527.0,52.4149389,13.5822737,09301126
3755411239,Kunterbunt,Steglitzer Damm 5,12169.0,52.451371,13.3363886,06100206
3755816789,Eisfee,,,52.4829803,13.3815199,07400720
3755992395,,,,52.4316788,13.3382322,06200314
3758497646,Fior di Latte,,,52.4313428,13.3460572,06200315
3758502759,Meyman,,,52.4584272,13.3845342,07400927
3758596090,Henrys,Schöneberger Straße 11,12163.0,52.4641299,13.3309411,06100209
3772667669,Eiskiosk,Prerower Platz 1,13051.0,52.5643769,13.5061723,11100307
3780851157,Margareten Scoop,,10317.0,52.507925,13.4975918,11400929
3782211408,Eiskimo,Bergmannstraße 5,10961.0,52.4896774,13.3888993,02200211
3826013973,Caffè e Gelato,Maaßenstraße 4,10777.0,52.4984224,13.3538454,07100102
3855567145,GioTU,Potsdamer Straße 144,10783.0,52.4975688,13.3616237,07100103
3862835072,Aleya,,,52.5011928,13.3077494,04501040
3895256385,yoli,Münzstraße 11b,10178.0,52.5243114,13.4081822,01100310
3900932271,Annamaria,,,52.537866,13.4177261,03701555
3902472793,Rosa Canina,Ackerstraße 174,10115.0,52.5289,13.3974529,01100309
3937513962,Süße Sünde,Weinbergsweg 21,10119.0,52.5310465,13.4020928,01100416
3992174257,Lecker Eis,,,52.5163559,13.4985499,11300725
4072596989,Mr. Ice Cream,,,52.445195,13.574089,09401534
4108072816,Eisdiele am Gleisdreieck,Flottwellstraße 14,10785.0,52.5008179,13.3707035,01100104
4125128510,Spoonful,Karl-Marx-Platz 17,12043.0,52.4740804,13.4426607,08100416
4181014748,Prinzeneis,Wandlitzstraße 9,10318.0,52.4808335,13.523395,11501341
4219261193,Flamingo Eis,,,52.5202778,13.3559201,01200628
4250016570,Lio Gelato,Kranoldplatz 4,12209.0,52.4285166,13.3274713,06200422
4261575771,Canal II,Linienstraße 54,10119.0,52.5286878,13.4063111,01100309
4266662203,Hokey Pokey,Oderberger Straße 38,10435.0,52.5397083,13.4061717,03701554
4283150546,Kavlak Eismanufaktur,Oranienstraße 99,,52.5069067,13.3984353,02100103
4307136694,Giannis Eis,Rykestraße 26,10405.0,52.5386025,13.4225507,03701555
4315470229,le méro,,,52.5500485,13.3491562,01400938
4316683783,,,,52.5714309,13.1230535,0
4317555793,Gelati Eiscafé,,,52.5498235,13.3886582,01300733
4346903425,Berlin Homemade Icecream,Elßholzstraße 10,10781.0,52.4926651,13.3563712,07100204
4381298285,Eis Delfino,,,52.479556,13.4439199,08100415
4396230902,Plansche,Eichendorffstraße 13,,52.5310776,13.3867781,01100415
4439295159,La Dolce Vita,Belziger Straße 60,10823.0,52.4853812,13.347578,07200409
4452492201,El Reda sweets,Huttenstraße 69,10553.0,52.5274032,13.3270284,01200518
4515134130,Tribeca Ice Cream,Graefestraße 9,10967.0,52.4942211,13.4184427,02200213
4665154495,Eisdiele,,,52.3868079,13.4046923,07601544
4801247071,Green Scoop,Boxhagener Straße 71,10245.0,52.506682,13.4694782,02500832
4834609477,Jannys Eis,,,52.5708897,13.4079382,03400723
4844156523,Jannys Eis,Ribnitzer Straße 24,13051.0,52.5702021,13.4964525,11100308
4906036043,Barletta-Eis GmbH,Am Tempelhofer Berg 6,10965.0,52.4886883,13.387785,02200211
4929307956,ItalEis Faldon,Heinsestraße 54,13467.0,52.6195049,13.3049424,12400722
4948137827,Die Eismacher,Körtestraße 10,10967.0,52.4912235,13.4110844,02200212
4970066224,Zàgara,Köpenicker Straße 4,10997.0,52.501877,13.440799,02300316
4970352421,Kokomo,Görlitzer Straße 69,10997.0,52.4985973,13.4346598,02300419
4972445020,Milas Eis,Kopernikusstraße 35,10243.0,52.5111778,13.4499505,02400624
4985572545,Eis Azzura,,,52.4954747,13.4201837,02200213
5016747821,Eisteufelchen,Flensburger Straße 5,10557.0,52.5202183,13.3444899,01200629
5031751086,Eis-Cafe,,,52.5526047,13.3823354,01300733
5054068399,Scooby Doo,Georg-Wilhelm-Straße 4,10711.0,52.4983652,13.2906087,04500937
5064111016,Fräulein Frost,Friedelstraße 39,,52.4923876,13.427763,08100310
5107966821,Eisderix,Böhmische Straße 48,12055.0,52.4732951,13.4486312,08100417
5126384317,Süßfein,Erich-Weinert-Straße 64,10439.0,52.5491379,13.4243541,03601244
5126384318,Kult-Eis,Stahlheimer Straße 25,,52.5499352,13.4216782,03601243
5141152693,Royal Eisladen,Lenbachstraße 9,10245.0,52.5051558,13.4660296,02500834
5223291543,Jones Ice Cream,,,52.5413721,13.4098794,03601142
5400565642,Yalda Eiscafé,Cicerostraße 49b,10709.0,52.4946709,13.3019955,04500939
5512010606,Katchi,Oranienburger Straße 89,10178.0,52.5235406,13.4003843,01100309
5554966313,Hokey Pokey,,,52.559474,13.4126863,03400826
5565800012,Eis&Eis,,,52.4509791,13.3406981,06100205
5569263935,Gelateria Luna Chiara,Wollankstraße 135,13187.0,52.5690145,13.4012152,03400721
5635556723,Eismanufaktur Spoonful,,10967.0,52.4946459,13.4187844,02200213
5641329331,Eisfabrik Alan,Schustehrusstraße 18,10585.0,52.5173694,13.3034996,04300621
5718697051,Helvam,Hauptstraße 11,10827.0,52.488439,13.3581157,07200409
5726198088,Waffel oder Becher,Spandauer Straße 2,10178.0,52.5210821,13.4038867,01100310
5730607699,La Rotonda,Zehlendorfer Straße 21,14513.0,52.4028426,13.2692423,0
5759194725,Ilse Eins,Ilsestraße 1,12051.0,52.4687792,13.435954,08100208
5771640014,vanille & marille Eismanufaktur,Reichenberger Straße 118,10999.0,52.4948515,13.4333054,02300418
5774792932,Natur Eis,,,52.5382897,13.2071514,05100316
5787555522,Delabuu Ice Cream,Krossener Straße 15,,52.5106477,13.4571691,02500833
5792477122,NaturEis,Gärtnerstraße 2,10245.0,52.5083373,13.4598364,02500834
5804485917,Daddys Eiscafé,Hönower Straße 53,12623.0,52.5093338,13.6134379,10400939
5804765638,Die kleine Eisstation,,,52.570463,13.3212511,12200308
5841685885,Fräulein Frost,Beckerstraße 4,12157.0,52.4672179,13.3427052,07300619
5844370762,Al Teatro,,,52.5266759,13.3439226,01200625
5849339561,,,,52.4892682,13.3944108,02200211
5886792723,Early Bird,Winsstraße 68,,52.5320168,13.4233618,03701659
5938829122,Eis Boutique,Lauterstraße 14-15,12159.0,52.4722616,13.3350398,07300517
5986470675,Jannys Eis,Bahnstraße 8-12,14612.0,52.5599573,13.0905761,0
6032523106,La Luna,,,52.5062306,13.4457536,02400625
6103423927,Häagen-Dazs,Mühlenstraße 13-19,10243.0,52.5052111,13.443258,02400625
6124870726,Berlin Homemade Icecream,Lauterstraße 17-18,12159.0,52.4717852,13.3350453,07300517
6222861256,Frozen Toppi,Neue Promenade 8,,52.5225944,13.4009551,01100310
6353110784,Duo,Skalitzer Straße 82,10997.0,52.5006389,13.4387155,02300316
6414817068,Softeis,Frankfurter Allee 45,10247.0,52.5150522,13.4634815,02500728
6415204947,Katchi Ice Cream Art,Grolmanstraße 14A,10623.0,52.5086537,13.319936,04300624
6483857785,Kult Eis,Gleimstraße 18,10437.0,52.5471768,13.409045,03601142
6489460044,Gelato Barik,Wilmersdorfer Straße 128,10627.0,52.5101016,13.305841,04300623
6502216509,Cholila,,,52.5469626,13.4037592,03601142
6529305707,Eisklecks,Mühsamstraße 64,10249.0,52.5207009,13.4532057,02500726
6542773866,Eiscafe Heidi,Konrad-Wolf-Straße 111,13055.0,52.5435365,13.4917781,11200513
6564695283,Gelateria Italiana da Roberto,,,52.4932058,13.4652854,09100101
6584677090,Vanille & Marille,Motzstraße 17,10777.0,52.4982311,13.3500328,07100102
6712455233,Ital Eis,Müllerstraße 156D,,52.5450803,13.3610336,01401047
6715513382,Rausch Eis,,,52.511944,13.3914094,01100207
6763564336,Marina macht Eis,Edisonstraße 10,12459.0,52.462872,13.5141626,09200510
6775394311,Eisfee,Akazienstraße 3a,10823.0,52.4866951,13.3555933,07200409
6816563937,Eismanufaktur,,,52.4263217,13.3318555,06200422
6818256667,,Silbersteinstraße 54,12051.0,52.4667049,13.4332742,08100209
6989302451,Italienisches Eis Da Dalt,Bölschestraße 94,12587.0,52.4531884,13.6247254,09501737
7036442808,Gelateria Del Corso,Herrfurthstraße 8,12049.0,52.4773629,13.4233851,08100102
7105577591,BLUSH,,,52.6341877,13.2894321,12400721
7200716749,Klassens Eis,Leibnizstraße 48,,52.502408,13.3135251,04501040
7232729804,Eisdiele 🍨,,,52.4151003,13.3469202,07601236
7233554335,Il Centro,Greifswalder Straße 90,10409.0,52.5434738,13.4424886,03601449
7294910505,Gimme Gelato,Wundtstraße 15,14059.0,52.5119532,13.2939928,04300414
7308454310,Rosa Canina,Raumerstraße 8,10437.0,52.5429249,13.417861,03601347
7345834490,Ludo,Dunckerstraße 18,10437.0,52.5435859,13.4219814,03601348
7398388375,Fabbrica del Gelato Marco Polo,,,52.4928796,13.5068402,11401135
7638273416,Eiscafé Bosello,Bundesplatz 14,10715.0,52.4788927,13.3293652,04501153
7680001266,Eis Gourmet,Rheinstraße 19,12161.0,52.4688424,13.3321379,07300516
7744836617,Artigiani,Matterhornstraße 52,14129.0,52.4387245,13.2166393,06400838
7822822027,Eiscafé Kunterbunt,,,52.406583,13.3494947,07601341
7876639901,Pizzeria & Gelateria da Massimo,Berliner Straße 22,13467.0,52.6166468,13.3170849,12400723
7947855086,Moono,Windscheidstraße 19,10627.0,52.5053319,13.2994463,04300416
7962054892,eiskrem Hausgemacht,,,52.4517488,13.1478891,05400944
7963851851,Blin Blin,Weserstraße 206,12047.0,52.4880026,13.4302972,08100311
8072617749,One Season,,,52.4677064,13.3461303,07300619
8120989360,al teatro,,,52.4573133,13.3203362,06100102
8128324269,Slush Eis,,,52.4930801,13.465678,09100101
8128324869,Slush Eis,,,52.4930927,13.4656247,09100101
8462378921,Eis Faldon,Fischerhüttenstraße 83a,14163.0,52.4425215,13.2411036,06400839
8463977952,Eisdealer im RiZ,Ribnitzer Straße 24,13051.0,52.5699488,13.4957909,11100308
8508597570,,,,52.5078968,13.33766,01100102
8586851117,Gelateria La Spada,,,52.4518292,13.4385821,08200726
8664189189,Dolce Gelato,Alt-Wittenau 86,13437.0,52.5894947,13.3346067,12500926
8691573558,Barletta-Eis,Eisenacher Straße 59,10823.0,52.4851331,13.352132,07200409
8691573574,Gelateria Marino Eiscafé,Badensche Straße 55,10825.0,52.4855068,13.3402588,07200308
8711623668,Soft-Eisladen,Regattastraße 121,12527.0,52.4179118,13.5803211,09301126
8778909754,Kunterbunt,Gardeschützenweg 66,,52.4469867,13.3068522,06300633
8801414017,Ital. Eis Dadalt,,,52.4807449,13.4357781,08100415
8847848779,Eismanufaktur Il Gelataio,,,52.5294386,13.434794,03701660
8849993891,Gimme Gelato,,,52.4793386,13.4095775,08100102
8853469884,Geheimwaffel,,,52.5741253,13.3583612,12100205
8869788017,Eiscafé Marta,,,52.4523866,13.1402107,05400945
8916909335,Il Triangolo,Möckernstraße 45,10963.0,52.4935403,13.379349,02200207
8933232389,La Bottega del Gelato,Zoppoter Straße 3,14199.0,52.4727431,13.2988946,04400832
8950919453,Tante Karla,,,52.5126258,13.4691021,02500831
8972746883,Blumen Eiscafé,,,52.4898715,13.3868647,02200209
9005350952,Eiscafé Il Viale,Karl-Marx-Allee 56,10243.0,52.5179475,13.4302121,02400623
9045032433,Atlantik Eis,Schönerlinder Straße 1,16321.0,52.674796,13.5370853,0
9055130538,Fragola,,,52.4311961,13.3089188,06300632
9074024198,Jannys Eis,Berliner Allee 60,13088.0,52.5488077,13.4540738,03500936
9074855334,Lumia,,,52.517426,13.2934872,04300413
9095176125,Wolke 7 Eiscafé,Rüdigerstraße 46,10365.0,52.5154579,13.4997846,11300725
9098799580,Päuschen Softeis & Kaffee,Steenerbuschstraße 28,16341.0,52.6462183,13.5213634,0
9124518721,Cafe Luise,,,52.5534109,13.3785684,01401045
9143588313,Eiscafé Korfu,Teltower Damm 54,14167.0,52.428858,13.2594724,06300528
9183000760,Timmys Eis,,,52.5455768,13.5913051,10200417
9215009717,Chipi Chipi Bombón,Warschauer Straße 12,10243.0,52.5131962,13.4525181,02500833
9271868177,Ital. Eis R & P,,,52.5893265,13.2809185,12200515
9391870288,Alphis Eis,Heynstraße 33,13187.0,52.5652422,13.4027943,03400721
9405031233,Heiß & Eis,Lindenallee 55,13088.0,52.5495453,13.4628606,03500936
9461868215,Dream Eiscafe,,,52.5683836,13.362285,12100204
9500966683,ital. Eis di Russillo,,,52.4655174,13.3277239,07300516
9505675856,Gelateria Mamma Laura,,,52.4974566,13.3199904,04501044
9556212664,Rodi Eis,,,52.535744,13.4923221,11200514
9586761908,Chunks by KoRo,,,52.4912399,13.4120361,02200212
9595072749,Gelateria Italy,Chausseestraße 16,,52.5296954,13.384415,01100308
9631262546,Berliner Eisbär,Fechnerstraße 30,10717.0,52.4893014,13.3200112,04501147
9667433771,Eiscafé Alberts,Hellersdorfer Straße 77,12619.0,52.5218365,13.5871708,10200629
9685479614,Hokey Pokey,Torstraße 141,10119.0,52.5296373,13.3987879,01100309
9767908892,,,,52.6175356,13.4898289,03300411
9775829186,N´ICE CAT,Richard-Israel-Straße 4,15732.0,52.3645718,13.5938382,0
9796702485,Süsse Sünde,Rudolf-Breitscheid-Allee 82,15366.0,52.5237272,13.6790856,0
9797173468,N´ICE CAT,Bahnhofstraße 38,15732.0,52.3765981,13.6276021,0
9797339416,Eiscafé Promenade,Marzahner Promenade 1,12679.0,52.5440327,13.5459901,10100210
9809605644,KE GUSTO?,Trautenaustraße 19,10717.0,52.4929909,13.3294662,04501149
9813284031,Kiosk an der Scheune,,,52.4889785,13.2611359,04400729
9861771518,Gelateria Europa,Teltower Damm 24,14169.0,52.4324093,13.2588427,06300526
9887326389,,,,52.4921301,13.5826196,10400837
9888031651,Eis Toto,Schönwalder Straße 30,13347.0,52.5422614,13.3750088,01300836
9888934886,Gelato Maria Maria,,,52.525776,13.3942864,01100309
9904979248,Italienisches Eis Marcon,Stephanstraße 26,10559.0,52.5336548,13.3467228,01200623
9912702096,Pingolino Eis,,13347.0,52.5495527,13.3613093,01401048
9918868969,Gelato Naturale,Maybachufer 3,12047.0,52.4953652,13.421712,08100310
10029281619,Gelateria No 1,Kreuzbergstraße 71,10965.0,52.4897767,13.3832579,02200209
10103240871,Jannys Eis,Schneeberger Straße 9,12627.0,52.5316672,13.6031045,10200526
10109260983,La Casa Coral,Ammerseestraße 26,12527.0,52.4166588,13.5748546,09301126
10118912505,Chunks by KoRo,Ackerstraße 80,13355.0,52.5392167,13.3830325,01300835
10180638417,Ben & Jerrys,Weinbergsweg 24,,52.5307781,13.4018796,01100416
10616370270,Caffè e Gelato,,,52.5079525,13.3742659,01100102
10824366874,Eiscafé Eisjunge,Zillestraße 15,15370.0,52.5469421,13.7448223,0
10884209900,Felicia ice cream,,,52.4788337,13.4232542,08100102
10908387117,Eiscafé Georgino,Alt Großziethen 78,12529.0,52.3988282,13.4518644,0
10908717676,Ca-phê,Einbecker Straße 26,10317.0,52.5087224,13.4973041,11400929
10963865464,Duo,,,52.5298888,13.4336106,03701660
11020839104,,,,52.4273458,13.4716184,08301036
11045663310,Monte Falco,,,52.5734602,13.5629246,11100102
11081135262,,,,52.5883395,13.27557,12200515
11107435651,Eis Henri,Beusselstraße 49,,52.5320325,13.3282973,01200518
11130931005,Kiosk,,,52.5281035,13.4336186,02400520
11140768480,Eiscafé Il Pistacchio Dahlem,,,52.4590108,13.2830823,06400844
11145846805,Eiscafe Il Pistacchio,Schreinerstraße 33,10247.0,52.5162554,13.4722114,02500729
11148418941,,,,52.5076984,13.341273,01100102
11148419019,,,,52.5070638,13.3392728,01100102
11198242338,,,,52.445463,13.6303933,09501737
11584754761,,,,52.6183552,13.3085371,12400723
11637943714,Süßfein,Rykestraße 50,,52.5354775,13.4194527,03701556
11779927412,Duo,Bürknerstraße 13,12047.0,52.4931333,13.4227177,08100310
11809800303,vanille & marille Eismanufaktur,Wilhelm-Kabus-Straße 42,10829.0,52.4824016,13.3670776,07200413
11809832579,vanille & marille Eismanufaktur,Marienburger Straße 14,10405.0,52.5340308,13.4261178,03701659
11846389104,Duo,Gabriel-Max-Straße 11,,52.5121219,13.4589708,02500833
11862211068,Marina macht Eis,Choriner Straße 40,,52.5374071,13.4114556,03701554
11875312000,Zizou,Bölschestraße 105,12587.0,52.4516236,13.6245125,09501737
11892744742,Ital. Eis Faldon Haselhorst,,,52.5431339,13.2400873,05300737
11907635566,Degli Angeli Gelato Ralli,,,52.5500917,13.4172489,03601243
11962340829,Didi Softeis,,,52.5891977,13.2813822,12200515
12001075751,Cafégarten Altstadtcafé Cöpenick,Alt-Köpenick 16,12555.0,52.4464771,13.5741731,09401534
12002104605,Cocomo Eiswerkstatt GmbH,Schillerpromenade 1D,12459.0,52.4635677,13.5177417,09200511
12005720155,Vasito,,,52.4803662,13.3258537,04501151
12023298435,Eiscafe Bacio,,,52.6100273,13.3307133,12500928
12071694229,Gimme Gelato,,,52.4992656,13.3730281,02200207
12110108051,Mokka-Milch-Eiscafé,,,52.4416609,13.5868683,09401431
12118950900,Eiscafé Calabrisella,,,52.4863722,13.4234588,08100101
12127542775,LAnima de Nata,Grumbkowstraße 9,13156.0,52.5841297,13.4249836,03400725
12146605292,EiS MaraMao,,,52.5487272,13.4513278,03500935
12147397571,Vanille & Marille,Güntzelstraße 43,10717.0,52.4912882,13.3242207,04501149
12181124901,,,,52.6357862,13.4939693,03100103
12192728680,Eisfred Friedrichshain,Fredersdorfer Straße 12,10243.0,52.5145231,13.4429256,02400624
12205136993,nice café,,,52.4907827,13.4218132,02200213
12260322750,Mustang Eiscafe,,,52.4259711,13.3929027,07501133
12315921270,Rona,,,52.502501,13.3851698,02100101
12361242318,Sofis,,,52.4900443,13.4004599,02200211
12568310205,Softinis,,,52.51996,13.4112435,01100310
12645178501,Jones Ice Cream,Wiener Straße 15,10999.0,52.4979044,13.4298723,02300417
12738631801,Duo,Harzer Straße 114,12435.0,52.4892382,13.4409975,08100313
12749970820,Softeis,,,52.3829569,13.1228054,0
12800493615,Eisangler,Friedrichstraße 50,15537.0,52.4184875,13.7548527,0
12812006490,Tribeca Ice Cream,Gabriel-Max-Straße 17,10245.0,52.5108673,13.4583598,02500833
12836657887,FrostBeule,,,52.5511021,13.4105803,03601141
12865991010,Zenner Eisdiele,,,52.4879643,13.4774226,09100101
12873216101,FrostBeule - Eisdiele am Arnimplatz,Seelower Straße 4,10439.0,52.5512124,13.4106284,03601141
12962099301,amató,Dunckerstraße 69,10437.0,52.5451364,13.422882,03601347
12983410417,American Ice-Cream,Gerichtstraße 12-13,13357.0,52.5445334,13.3767356,01300836
13012194837,Eiscafé,,,52.4543752,13.3285712,06100207
13038604988,La Cesta,,,52.5027327,13.4548404,02500835
13046042355,Ice Cafe,Schönhauser Allee 174,,52.5322053,13.4120934,03701554
13062202282,,,,52.5080904,13.3747973,01100102
13081761601,EisLoch,Waldowallee 11,10318.0,52.4895916,13.5286935,11501340
13092683044,Alex Garten,,,52.3732555,13.0962487,0
13169316977,Ciao am See,,,52.4513133,13.1473867,05400944
