id,lat,lon,name,street,zip_code,city
27446265,52.4104296,13.5983058,Regattastraße/Sportpromenade,,,
30302050,52.5467123,13.3448975,Seestraße/Amrumer Straße,,,
30303888,52.5537705,13.4138898,Schönhauser Allee/Bornholmer Straße,,,
30303894,52.5552992,13.4026406,Björnsonstraße,,,
30303950,52.5542024,13.4144934,Schönhauser Allee/Bornholmer Straße,,,
30303956,52.5527208,13.4238019,Stahlheimer Straße/Wisbyer Straße,,,
30304940,52.5514112,13.4295126,Prenzlauer Allee/Ostseestraße,,,
30304944,52.5507797,13.4300239,Prenzlauer Allee/Ostseestraße,,,
30304965,52.5566797,13.4299757,Prenzlauer Promenade/Am Steinberg,,,
30305102,52.5452352,13.427615,S Prenzlauer Allee,,,
30305106,52.5396527,13.4244774,Prenzlauer Allee/Danziger Straße,,,
30305107,52.5387517,13.4239921,Prenzlauer Allee/Danziger Straße,,,
30305113,52.5390557,13.4247224,Prenzlauer Allee/Danziger Straße,,,
30305114,52.5378916,13.4280022,Winsstraße,,,
30305118,52.5374399,13.4294221,Winsstraße,,,
30305213,52.5632037,13.4127872,Masurenstraße,,,
30554096,52.5818061,13.4286019,Galenusstraße,,,
30554100,52.5773178,13.4276065,S Pankow-Heinersdorf,,,
30554105,52.5750424,13.4192595,Mendelstraße,,,
30554110,52.5711633,13.4106484,Pankow Kirche,,,
30558129,52.5963302,13.4328707,Rosenthaler Straße,,,
30561497,52.5800908,13.3971487,Pastor-Niemöller-Platz,,,
30561525,52.582622,13.3921181,Am Iderfenngraben,,,
30622561,52.3749267,13.0919953,Magnus-Zeller-Platz,,,
30622931,52.3746899,13.1232704,Turmstraße,,,
30622937,52.3754658,13.1295158,Johannes-Kepler-Platz,,,
30623689,52.3745624,13.1418691,Gaußstraße,,,
30623714,52.369744,13.1406268,Hans-Albers-Straße,,,
30623716,52.3669744,13.1363025,Robert-Baberske-Straße,,,
30623728,52.3649859,13.1348818,Priesterweg,,,
30624481,52.5599523,13.4602303,Pasedagplatz,,,
30625116,52.5533362,13.4760326,Sulzfelder Straße,,,
30625241,52.5531803,13.480374,Hansastraße/Buschallee,,,
30684945,52.5537608,13.4805827,Hansastraße/Buschallee,,,
30684954,52.559939,13.4957441,Feldtmannstraße,,,
30684955,52.5613788,13.4999139,Hansastraße/Malchower Weg,,,
30684982,52.5351119,13.4796281,Altenhofer Straße,,,
30684987,52.532258,13.476705,Landsberger Allee/Weißenseer Weg,,,
30689860,52.5636616,13.5063374,Prerower Platz,,,
30689934,52.5638559,13.5046117,Prerower Platz,,,
30689973,52.5701623,13.4973963,Zingster Straße/Ribnitzer Straße,,,
30690321,52.5685744,13.5203133,Prendener Straße,,,
30690550,52.5661358,13.5020039,Ahrenshooper Straße,,,
30691227,52.5698506,13.5265911,Falkenberg,,,
30692597,52.5508154,13.5091772,Gehrenseestraße,,,
30693019,52.5304884,13.4615084,Oderbruchstraße,,,
30694255,52.5339119,13.4869072,Zechliner Straße,,,
30694268,52.53439,13.4948771,Genslerstraße,,,
30694279,52.5349408,13.5066484,Arendsweg,,,
30694284,52.5357322,13.5181868,Landsberger Allee/Rhinstraße,,,
30694289,52.5366428,13.5244371,Dingelstädter Straße,,,
30694295,52.5390995,13.5341226,Gewerbepark Georg Knorr,,,
30694319,52.5465019,13.5573621,Freizeitforum Marzahn,,,
30694331,52.5537187,13.565478,Max-Herrmann-Straße,,,
30694334,52.5472111,13.5619425,Jan-Petersen-Straße,,,
30694352,52.5577949,13.5682656,Wuhletalstraße,,,
30694375,52.5650166,13.5718576,Niemegker Straße,,,
30694376,52.5682711,13.5747394,Barnimplatz,,,
30694391,52.5726002,13.5741703,Ahrensfelde/Stadtgrenze,,,
30694394,52.5464096,13.5727623,Landsberger Allee/Blumberger Damm,,,
30694396,52.5479864,13.5787187,Brodowiner Ring,,,
30694741,52.5490935,13.5871358,Landsberger Chaussee/Zossener Straße,,,
30694746,52.5454601,13.587435,Michendorfer Straße,,,
30694748,52.5438862,13.5989829,Zossener Straße/Kastanienallee,,,
30694767,52.5307469,13.6211499,Riesaer Straße/Louis-Lewin-Straße,,,
30694780,52.5293723,13.6234797,Riesaer Straße,,,
30694949,52.5254798,13.5302267,Beilsteiner Straße,,,
30694953,52.5258353,13.5211177,Allee der Kosmonauten/Rhinstraße,,,
30694959,52.5254439,13.5196343,Allee der Kosmonauten/Rhinstraße,,,
30694960,52.5294311,13.5192685,Meeraner Straße,,,
30694967,52.5362433,13.5167808,Landsberger Allee/Rhinstraße,,,
30694968,52.539004,13.5146099,Rhinstraße/Plauener Straße,,,
30695361,52.5254615,13.5084195,Ev. Krankenhaus KEH,,,
30695385,52.5266198,13.4784194,Roederplatz,,,
30695390,52.5291972,13.4626653,Karl-Lade-Straße,,,
30695393,52.523331,13.4795469,Möllendorffstraße/Storkower Straße,,,
30731481,52.5204243,13.4042441,Spandauer Straße/Marienkirche,,,
30731497,52.5221645,13.4147332,U Alexanderplatz,,,
30731498,52.5249909,13.4204682,Mollstraße/Otto-Braun-Straße,,,
30731507,52.5255473,13.4202755,Mollstraße/Otto-Braun-Straße,,,
30731508,52.5208822,13.4115103,S+U Alexanderplatz/Gontardstraße,,,
30731700,52.5258817,13.3873633,U Oranienburger Tor,,,
30732016,52.528517,13.4108348,U Rosa-Luxemburg-Platz,,,
30732068,52.5236711,13.4116514,S+U Alexanderplatz/Memhardstraße,,,
30732071,52.5278448,13.4165112,Mollstraße/Prenzlauer Allee,,,
30733475,52.5312171,13.4195273,Prenzlauer Allee/Metzer Straße,,,
30733478,52.5334293,13.4208437,Knaackstraße,,,
30733479,52.5362333,13.4225029,Marienburger Straße,,,
30733487,52.5435991,13.4416553,Thomas-Mann-Straße,,,
30733493,52.5484803,13.4517416,Antonplatz,,,
30733501,52.5516729,13.440803,Friesickestraße,,,
30733522,52.5622499,13.4348544,Tino-Schwierzina-Straße,,,
30733524,52.5653634,13.4360911,Am Wasserturm,,,
30734427,52.5291671,13.4447167,Paul-Heyse-Straße,,,
30734435,52.5196343,13.4522943,Bersarinplatz,,,
30734503,52.5122375,13.4526058,Grünberger Straße/Warschauer Straße,,,
30736267,52.4971668,13.4847623,Kosanke-Siedlung,,,
30736270,52.4931464,13.4906093,Gustav-Holzmann-Straße,,,
30736271,52.4881352,13.495864,Heizkraftwerk Klingenberg,,,
30736427,52.481264,13.5251316,S Karlshorst,,,
30736431,52.4927665,13.5266007,Treskowallee/HTW,,,
30736442,52.5139723,13.5190656,S Friedrichsfelde Ost,,,
31524735,52.4576241,13.5394706,Weiskopffstraße,,,
35528193,52.5502459,13.3516304,U Seestraße,,,
50808874,52.5457156,13.5098227,Rhinstraße/Gärtnerstraße,,,
52776952,52.5399029,13.4844148,Simon-Bolivar-Straße,,,
59851047,52.5111719,13.6092949,S Mahlsdorf,,,
79408448,52.4242962,13.5752688,Friedrich-Wolf-Straße,,,
85897703,52.5380642,13.5604679,Adersleber Weg,,,
87018549,52.5232307,13.4334573,Platz der Vereinten Nationen,,,
87018550,52.5231179,13.4274985,Büschingstraße,,,
91711812,52.5495502,13.4138505,S+U Schönhauser Allee,,,
91711823,52.5449538,13.4125522,Milastraße,,,
92627145,52.6060687,13.4196558,Hugenottenplatz,,,
92627148,52.6072487,13.424295,Arnouxstraße,,,
92627167,52.6017309,13.4314825,Blankenfelder Straße,,,
94941339,52.4565253,13.5631525,Alte Försterei,,,
94941344,52.455916,13.5586012,Spindlersfelder Straße,,,
94941350,52.4566234,13.5501064,Nixenstraße,,,
94941359,52.4575779,13.5436031,Freizeit- und Erholungszentrum,,,
94942335,52.4516146,13.5710431,Bahnhofstraße/Lindenstraße,,,
94951410,52.4410441,13.5861832,Pablo-Neruda-Straße,,,
94951419,52.4443426,13.5754514,Schloßplatz Köpenick,,,
94963733,52.4453228,13.5620331,S Spindlersfeld,,,
95911874,52.5321781,13.6143398,Jenaer Straße,,,
95914718,52.5447344,13.5927651,Alte Hellersdorfer Straße/Zossener Straße,,,
95948746,52.4388396,13.5920763,Krankenhaus Köpenick/Südseite,,,
96535655,52.5339031,13.552675,Allee der Kosmonauten/Poelchaustraße,,,
96535658,52.5288185,13.5490456,Boschpoler Straße,,,
96536154,52.5256938,13.5364753,S Springpfuhl,,,
96536918,52.51236,13.4977506,S+U Lichtenberg/Siegfriedstraße,,,
98862012,52.542096,13.5638356,Alt-Marzahn,,,
98865506,52.5502042,13.5611133,Bürgerpark Marzahn,,,
98867660,52.5727427,13.5748224,Ahrensfelde/Stadtgrenze,,,
98871740,52.5357243,13.472126,Hohenschönhauser Straße,,,
98878581,52.5287726,13.4571206,S Landsberger Allee,,,
98878847,52.5407284,13.4382788,S Greifswalder Straße,,,
98883766,52.5522928,13.4858218,Orankestrand,,,
98884328,52.5508669,13.5095067,Gehrenseestraße,,,
100062685,52.5047159,13.5202011,Alfred-Kowalke-Straße,,,
103923024,52.5484859,13.4671092,Gounodstraße,,,
113639023,52.5488033,13.5051916,Alt-Hohenschönhausen,,,
123139240,52.3864113,13.6337903,Adlergestell/Vetschauer Allee,,,
123139267,52.3911239,13.6349375,Lübbenauer Weg,,,
129255755,52.4408436,13.57036,Glienicker Straße,,,
146866102,52.5384568,13.4805355,Sandinostraße,,,
150543903,52.5389275,13.6043407,Stendaler Straße/Quedlinburger Straße,,,
169494133,52.608242,13.4293062,Navarraplatz,,,
223676384,52.5945425,13.3808669,Wiesenwinkel,,,
223826507,52.5553265,13.3909991,Grüntaler Straße,,,
243457847,52.5551935,13.5124151,Anna-Ebermann-Straße,,,
243458026,52.5587048,13.5145413,Arnimstraße,,,
243458179,52.5599143,13.5101671,Rüdickenstraße,,,
243458261,52.5627532,13.5037009,Prerower Platz,,,
243460382,52.5442504,13.4927547,Freienwalder Straße,,,
243460732,52.5356989,13.473882,Hohenschönhauser Straße,,,
243460915,52.5383802,13.4714237,Sportforum,,,
243460954,52.544219,13.4686831,Betriebshof Indira-Gandhi-Straße,,,
243465044,52.5728631,13.4953373,Zingster Straße,,,
243465154,52.5723698,13.494871,Zingster Straße,,,
243465657,52.5692786,13.5258916,Welsestraße,,,
243830926,52.5351866,13.5100149,Schalkauer Straße,,,
243847233,52.543917,13.3395713,Virchow-Klinikum,,,
243848077,52.5538317,13.3585272,Osram-Höfe,,,
243848348,52.5570401,13.3667957,Louise-Schroeder-Platz,,,
243849130,52.5559049,13.3837609,Osloer Straße/Prinzenallee,,,
243849131,52.5548293,13.3962825,S Bornholmer Straße,,,
243850922,52.570062,13.4377179,Rothenbachstraße,,,
243854585,52.5475501,13.4285619,Erich-Weinert-Straße,,,
243855398,52.5419298,13.4258552,Fröbelstraße,,,
243856643,52.5192733,13.5193753,Kleingartenanlage Bielefeldt,,,
243995876,52.51539,13.4540183,U Frankfurter Tor,,,
243996096,52.5229542,13.4500341,Straßmannstraße,,,
243996833,52.4967571,13.5240205,U Tierpark,,,
243996834,52.5013606,13.5215203,Criegernweg,,,
243996913,52.5105776,13.5189935,Alt-Friedrichsfelde/Rhinstraße,,,
244129939,52.5241405,13.440187,Klinikum im Friedrichshain,,,
244129991,52.5259323,13.4462385,Landsberger Allee/Petersburger Straße,,,
244484708,52.5359069,13.3908576,Gedenkstätte Berliner Mauer,,,
244486083,52.521606,13.4117675,S+U Alexanderplatz/Dircksenstraße,,,
244486144,52.5247633,13.4194191,Mollstraße/Otto-Braun-Straße,,,
244487457,52.5273494,13.3869695,Hannoversche Straße,,,
245548434,52.5105842,13.4526258,Kopernikusstraße/Warschauer Straße,,,
247115551,52.4629445,13.5835183,Mittelheide,,,
247115795,52.4696309,13.5886074,Unter den Birken,,,
247115797,52.4669377,13.5853227,Wongrowitzer Steig,,,
247116364,52.4766078,13.6003908,Hultschiner Damm/Seestraße,,,
247116367,52.480299,13.6009475,Roseggerstraße,,,
247116371,52.482992,13.6017355,Erich-Baron-Weg,,,
247116372,52.4857014,13.6037288,Bütower Straße,,,
247119325,52.4593295,13.5800797,S Köpenick,,,
247140831,52.4615785,13.5840982,Janitzkystraße,,,
247140929,52.4582856,13.5791114,S Köpenick,,,
247141032,52.4604054,13.5844189,Hirtestraße,,,
247145793,52.4741663,13.5991443,Mahlsdorf-Süd,,,
247147355,52.4839641,13.602463,Erich-Baron-Weg,,,
247149554,52.4910007,13.6075883,Eichenhofweg,,,
247150231,52.4893741,13.6064139,Bruchsaler Straße,,,
247153173,52.4937616,13.6096147,Ledebourstraße,,,
247154123,52.5051994,13.6133356,Alt-Mahlsdorf,,,
247156814,52.4587748,13.5258742,Rathenaustraße/HTW,,,
247158622,52.4711791,13.5172971,Volkspark Wuhlheide,,,
247159172,52.4741663,13.5204016,Hegemeisterweg,,,
247159958,52.4863576,13.5268378,Marksburgstraße,,,
247338146,52.4819985,13.5166189,Stechlinstraße,,,
247352251,52.4505494,13.5079617,Pietschkerstraße,,,
247352344,52.4470964,13.506827,Sterndamm/Königsheideweg,,,
247361247,52.4454593,13.5743834,Rathaus Köpenick,,,
247361594,52.4449158,13.5678135,Köllnischer Platz,,,
247362578,52.4417915,13.5588281,Ottomar-Geschke-Straße,,,
247362579,52.4418687,13.5594516,Ottomar-Geschke-Straße,,,
247436786,52.6053946,13.4167576,Guyotstraße,,,
247437097,52.6071269,13.433607,Französisch Buchholz Kirche,,,
247437514,52.5926983,13.4315503,Marienstraße/Pasewalker Straße,,,
247437538,52.589266,13.4303202,Pasewalker Straße/Blankenburger Weg,,,
247437706,52.5851776,13.4289064,Pankower Straße,,,
247437951,52.5724332,13.4151516,Stiftsweg,,,
247441704,52.5887072,13.3882501,Nordendstraße,,,
247441829,52.5915653,13.384124,Angerweg,,,
247441884,52.5968467,13.3768132,Hauptstraße/Friedrich-Engels-Straße,,,
247444383,52.590844,13.4062294,Waldemarstraße,,,
247600965,52.5192805,13.3884107,S+U Friedrichstraße,,,
247603398,52.5194258,13.3953708,Am Kupfergraben,,,
252280390,52.4515271,13.692946,S Rahnsdorf,,,
252280408,52.4555855,13.72639,Goethestraße,,,
252280409,52.4557144,13.73096,Eichendamm,,,
252280413,52.4551646,13.7346111,Lerchenstraße,,,
252280415,52.4530562,13.7442783,Fasanenstraße,,,
252280425,52.4506347,13.7524268,Thälmannplatz,,,
252280437,52.4494518,13.759453,Blumenstraße,,,
252413764,52.3582571,13.1372236,Marie-Juchacz-Straße,,,
252448808,52.3619684,13.1370913,Am Hirtengraben,,,
252448809,52.3755464,13.1378846,Max-Born-Straße,,,
252492499,52.3931434,13.1086908,Fontanestraße,,,
253943340,52.4577004,13.6266707,S Friedrichshagen,,,
253943345,52.4591593,13.6350737,Brösener Straße,,,
253943361,52.467602,13.6816379,Waldstraße,,,
253943372,52.4785253,13.6950292,Dorfstraße,,,
253943382,52.4787702,13.7004022,Dorfaue,,,
253943389,52.4769477,13.7093222,Schillerstraße,,,
253943393,52.473898,13.7134123,Grätzwalde,,,
253943401,52.4727253,13.7302613,Jägerstraße,,,
253943403,52.4722971,13.7377538,Kalkberger Straße,,,
253943407,52.4733358,13.7520266,Berghof-Weiche,,,
253943504,52.4498523,13.6615253,Fürstenwalder Damm/Müggelseedamm,,,
253943512,52.4476458,13.6711513,Licht- und Luftbad Müggelsee,,,
253943514,52.4457181,13.6776394,Strandbad Müggelsee,,,
253943516,52.4435317,13.685038,Rahnsdorf/Waldschänke,,,
254100382,52.4524638,13.6521704,Fürstenwalder Damm,,,
254839386,52.4169658,13.5885926,Wendenschloß,,,
266559224,52.5573513,13.568045,Wuhletalstraße,,,
270927391,52.579025,13.3983499,Grabbeallee/Pastor-Niemöller-Platz,,,
271766938,52.5410444,13.4116754,U Eberswalder Straße,,,
271773180,52.5363204,13.4325586,Greifswalder Straße/Danziger Straße,,,
271773181,52.5359594,13.4335857,Greifswalder Straße/Danziger Straße,,,
271774347,52.5358897,13.4327418,Greifswalder Straße/Danziger Straße,,,
271774348,52.5364999,13.4333987,Greifswalder Straße/Danziger Straße,,,
271775909,52.5339695,13.4377292,Arnswalder Platz,,,
271777824,52.532541,13.4407002,Kniprodestraße/Danziger Straße,,,
271777826,52.5270595,13.4469945,Landsberger Allee/Petersburger Straße,,,
271779546,52.4470553,13.6156241,Spreestraße,,,
276002421,52.5267637,13.4821953,Bernhard-Bästlein-Straße,,,
282489549,52.3921466,13.0911937,Rathaus Babelsberg,,,
288268231,52.5156658,13.4788562,Rathaus Lichtenberg,,,
288268520,52.513805,13.4773672,S+U Frankfurter Allee,,,
288588445,52.3923981,13.103264,Plantagenstraße,,,
288588448,52.3920755,13.0995665,Anhaltstraße,,,
297802621,52.3920027,13.0917965,Rathaus Babelsberg,,,
315735263,52.5345175,13.4056617,Zionskirchplatz,,,
318122988,52.5493619,13.4135734,S+U Schönhauser Allee,,,
332067663,52.40105,13.6248473,Richtershorn,,,
349047807,52.4518544,13.6006253,Hirschgarten,,,
349047810,52.4531061,13.6082856,Westendsiedlung,,,
349047813,52.454141,13.6128781,Mühlweg,,,
349047884,52.4530137,13.5942323,Bellevuestraße,,,
349050439,52.4490623,13.6090983,Wassersportzentrum,,,
349055083,52.4567014,13.6319994,Hartlebenstraße,,,
349055255,52.4479905,13.6390729,Altes Wasserwerk,,,
349058473,52.4556504,13.6192978,Ahornallee,,,
349113607,52.3658201,13.0935246,Friedrich-Wolf-Straße,,,
349113615,52.359294,13.0974061,Bahnhof Rehbrücke,,,
349113757,52.360269,13.097445,Bahnhof Rehbrücke,,,
356180843,52.5111685,13.6109691,S Mahlsdorf,,,
361482764,52.5066384,13.46934,Neue Bahnhofstraße,,,
361482765,52.5064089,13.4697498,Neue Bahnhofstraße,,,
365145502,52.5414567,13.4127936,U Eberswalder Straße/Pappelallee,,,
365145503,52.5415991,13.4128789,U Eberswalder Straße/Pappelallee,,,
370884692,52.4515723,13.5728968,Bahnhofstraße/Lindenstraße,,,
386790206,52.5119866,13.4696737,Traveplatz,,,
418506176,52.5566952,13.3732617,U Osloer Straße,,,
431281297,52.510986,13.4634444,Wismarplatz,,,
431281298,52.5111368,13.4633489,Wismarplatz,,,
469462973,52.5120579,13.4522675,Grünberger Straße/Warschauer Straße,,,
469466577,52.5095695,13.4514133,Revaler Straße,,,
471493994,52.5088235,13.465969,Holteistraße,,,
471493995,52.5083933,13.4666115,Holteistraße,,,
471493996,52.5081321,13.4658555,Holteistraße,,,
521821577,52.5280674,13.4693612,Anton-Saefkow-Platz,,,
535249440,52.5457935,13.5703135,Landsberger Allee/Blumberger Damm,,,
538255601,52.5624568,13.5061494,Prerower Platz,,,
567465354,52.5081863,13.6129594,Wilhelmsmühlenweg,,,
583760324,52.5727666,13.4374123,Heinersdorf,,,
583899039,52.435251,13.5408489,S Adlershof,,,
595038851,52.5247689,13.4195215,Mollstraße/Otto-Braun-Straße,,,
598350419,52.4560552,13.6419956,Wasserwerk Friedrichshagen,,,
614090924,52.5665389,13.5138941,S Hohenschönhausen,,,
614580976,52.5552883,13.4026821,Björnsonstraße,,,
614587424,52.4842462,13.5104609,Blockdammweg,,,
617362138,52.3917197,13.0954835,S Babelsberg/Wattstraße,,,
617362180,52.3915896,13.094171,S Babelsberg/Wattstraße,,,
631457501,52.5078885,13.450451,S Warschauer Straße,,,
631457502,52.5080422,13.4506002,S Warschauer Straße,,,
654575602,52.5569615,13.4876061,Stadion Buschallee/Hansastraße,,,
667031675,52.4205549,13.577895,Königsseestraße,,,
667971366,52.5050736,13.4486813,S+U Warschauer Straße,,,
669763367,52.5197412,13.4797196,Loeperplatz,,,
717651913,52.4622508,13.5148805,Wilhelminenhofstraße/Edisonstraße,,,
717651919,52.4630566,13.5138993,Wilhelminenhofstraße/Edisonstraße,,,
717665734,52.4609913,13.5202896,Firlstraße,,,
717665736,52.4607897,13.5212276,Firlstraße,,,
766875150,52.4372432,13.546264,Marktplatz Adlershof,,,
771184388,52.5404182,13.4116896,U Eberswalder Straße,,,
771184393,52.540204,13.4113879,U Eberswalder Straße,,,
852932396,52.4502578,13.5079138,Pietschkerstraße,,,
852932443,52.4531382,13.5093914,S Schöneweide/Sterndamm,,,
938213396,52.5325525,13.3875222,S Nordbahnhof,,,
963600646,52.5238986,13.3970747,Monbijouplatz,,,
972482434,52.5695371,13.4045701,Rathaus Pankow,,,
972482435,52.5591509,13.4132251,U Vinetastraße,,,
972482438,52.5694816,13.4038045,Rathaus Pankow,,,
972482442,52.5532393,13.414524,Schönhauser Allee/Bornholmer Straße,,,
990017251,52.5242398,13.3876417,U Oranienburger Tor,,,
999586155,52.5490131,13.5826397,Betriebshof Marzahn,,,
1000715081,52.5702229,13.4377078,Rothenbachstraße,,,
1003299170,52.5760936,13.4244231,Würtzstraße,,,
1012940956,52.5503132,13.4297695,Prenzlauer Allee/Ostseestraße,,,
1012940962,52.5516937,13.428891,Prenzlauer Allee/Ostseestraße,,,
1012941040,52.5537181,13.4150001,Schönhauser Allee/Bornholmer Straße,,,
1024786267,52.3733116,13.1115649,Abzweig Betriebshof ViP,,,
1137469153,52.50903,13.4597503,Wühlischstraße/Gärtnerstraße,,,
1149196889,52.3688384,13.0912542,Zum Kahleberg,,,
1149196891,52.368211,13.0917917,Zum Kahleberg,,,
1149221130,52.363764,13.0948138,Am Moosfenn,,,
1154232187,52.5203119,13.4780996,Loeperplatz,,,
1193433542,52.37335,13.1008404,Bisamkiez,,,
1209385188,52.3692386,13.1399499,Hans-Albers-Straße,,,
1209764598,52.3643766,13.1359042,Priesterweg,,,
1219939592,52.3931897,13.1093678,Fontanestraße,,,
1264267239,52.4169977,13.5885444,Wendenschloß,,,
1383533471,52.4306271,13.5717287,Betonwerk,,,
1383533479,52.4309071,13.5716912,Betonwerk,,,
1383533525,52.4246225,13.5750827,Friedrich-Wolf-Straße,,,
1383533528,52.4415594,13.5700051,Glienicker Straße,,,
1383533552,52.4436433,13.5691692,Köllnischer Platz,,,
1383533555,52.4438253,13.569186,Köllnischer Platz,,,
1383533562,52.3912295,13.634932,Lübbenauer Weg,,,
1383533566,52.4382203,13.5489367,Marktplatz Adlershof,,,
1383533580,52.4203842,13.577967,Königsseestraße,,,
1383533585,52.411217,13.5884715,Regattatribünen,,,
1383533590,52.4347036,13.5714309,Rosenweg,,,
1383533593,52.4349601,13.5714816,Rosenweg,,,
1383533600,52.4132784,13.5749203,S Grünau,,,
1383533628,52.4086224,13.604455,Strandbad Grünau,,,
1383533634,52.4386665,13.5714889,Vollkropfgraben,,,
1383533637,52.43886,13.5714377,Vollkropfgraben,,,
1383533640,52.4392704,13.5519025,Wassermannstraße,,,
1383533641,52.4395698,13.5526003,Wassermannstraße,,,
1406990438,52.5521763,13.4659619,Weißer See,,,
1420514676,52.4340207,13.5413836,S Adlershof,,,
1421431221,52.5585796,13.4333751,Am Steinberg,,,
1421431246,52.5565563,13.4295342,Prenzlauer Promenade/Am Steinberg,,,
1421431268,52.5622588,13.4348157,Tino-Schwierzina-Straße,,,
1421431271,52.5581724,13.4331617,Am Steinberg,,,
1421431287,52.5648336,13.4358341,Am Wasserturm,,,
1448886230,52.3747162,13.1232491,Turmstraße,,,
1448895666,52.3619712,13.1371367,Am Hirtengraben,,,
1448895667,52.3587359,13.1372498,Marie-Juchacz-Straße,,,
1448895772,52.3672437,13.1368006,Robert-Baberske-Straße,,,
1455234394,52.3751684,13.0912547,Magnus-Zeller-Platz,,,
1456258882,52.3920511,13.0995775,Anhaltstraße,,,
1456258884,52.3923595,13.1032624,Plantagenstraße,,,
1545984202,52.5516265,13.4647134,Weißer See,,,
1554875829,52.5725511,13.4371063,Heinersdorf,,,
1576686929,52.5452407,13.444118,Greifswalder Straße/Ostseestraße,,,
1576803497,52.5457311,13.445119,Greifswalder Straße/Ostseestraße,,,
1585156615,52.6059135,13.4188658,Hugenottenplatz,,,
1585156630,52.6052662,13.4160793,Guyotstraße,,,
1585732263,52.6080936,13.4285114,Navarraplatz,,,
1585732290,52.6071465,13.4235947,Arnouxstraße,,,
1600662281,52.5569639,13.4681721,Betriebshof Weißensee,,,
1615477753,52.5421147,13.42592,Fröbelstraße,,,
1615477765,52.5448075,13.427408,S Prenzlauer Allee,,,
1615477793,52.5481477,13.4287932,Erich-Weinert-Straße,,,
1615531689,52.5213728,13.4120602,S+U Alexanderplatz/Dircksenstraße,,,
1628877119,52.5222588,13.4106594,S+U Alexanderplatz/Dircksenstraße,,,
1631119467,52.5327449,13.4290859,Hufelandstraße,,,
1631224840,52.5498168,13.4580146,Albertinenstraße,,,
1631224941,52.5537598,13.4691966,Buschallee,,,
1631354284,52.526818,13.4161901,Mollstraße/Prenzlauer Allee,,,
1631515733,52.5570138,13.4677089,Betriebshof Weißensee,,,
1631515805,52.5594065,13.4609656,Pasedagplatz,,,
1633759760,52.5216622,13.4026808,S Hackescher Markt,,,
1633759766,52.5226155,13.4034101,S Hackescher Markt,,,
1661140876,52.5286105,13.4104123,U Rosa-Luxemburg-Platz,,,
1661927028,52.5237138,13.3986649,Monbijouplatz,,,
1662140222,52.5297422,13.4019,U Rosenthaler Platz,,,
1662153916,52.5253215,13.4035047,U Weinmeisterstraße/Gipsstraße,,,
1666049727,52.5399725,13.4191052,Husemannstraße,,,
1666049729,52.5401347,13.4182043,Husemannstraße,,,
1666049778,52.5409945,13.4128397,U Eberswalder Straße,,,
1666367703,52.4619526,13.5138972,Wilhelminenhofstraße/Edisonstraße,,,
1667940451,52.5322689,13.3947562,Pappelplatz,,,
1668427073,52.5371529,13.4082376,Schwedter Straße,,,
1668497956,52.5238354,13.402603,S Hackescher Markt,,,
1668685086,52.5262067,13.3878498,U Oranienburger Tor,,,
1668717159,52.5250979,13.3923646,S Oranienburger Straße,,,
1673526976,52.5203096,13.39369,Georgenstraße/Am Kupfergraben,,,
1679005907,52.566363,13.5016719,Ahrenshooper Straße,,,
1679005908,52.5549343,13.512077,Anna-Ebermann-Straße,,,
1679005909,52.5585353,13.5150534,Arnimstraße,,,
1679005911,52.5685017,13.5195448,Prendener Straße,,,
1679005912,52.5597435,13.4950964,Feldtmannstraße,,,
1679005913,52.5544234,13.4821862,Giersstraße,,,
1679005914,52.5612044,13.4992999,Hansastraße/Malchower Weg,,,
1679005918,52.5461347,13.509622,Rhinstraße/Gärtnerstraße,,,
1679005919,52.5663088,13.5131802,S Hohenschönhausen,,,
1679005920,52.5566718,13.4869834,Stadion Buschallee/Hansastraße,,,
1679005921,52.5692194,13.5251581,Welsestraße,,,
1679005922,52.5703215,13.4971498,Zingster Straße/Ribnitzer Straße,,,
1679005949,52.5488737,13.5045505,Alt-Hohenschönhausen,,,
1679204620,52.5515946,13.465843,Weißer See,,,
1679204621,52.5442346,13.4687215,Betriebshof Indira-Gandhi-Straße,,,
1679204622,52.5485019,13.4671538,Gounodstraße,,,
1679204623,52.5359329,13.4729468,Hohenschönhauser Straße,,,
1679204624,52.532769,13.4764087,Landsberger Allee/Weißenseer Weg,,,
1679204625,52.5202545,13.4801576,Loeperplatz,,,
1679204626,52.5203395,13.4787369,Loeperplatz,,,
1679204628,52.5238424,13.4795914,Möllendorffstraße/Storkower Straße,,,
1679204629,52.5161015,13.4792529,Rathaus Lichtenberg,,,
1679204630,52.5139808,13.4775557,S+U Frankfurter Allee,,,
1679204631,52.5385243,13.4713825,Sportforum,,,
1679204729,52.5266001,13.479068,Roederplatz,,,
1679221132,52.5342203,13.437123,Arnswalder Platz,,,
1679221133,52.519215,13.4525257,Bersarinplatz,,,
1679221134,52.5315225,13.4421124,Kniprodestraße/Danziger Straße,,,
1679221136,52.5267024,13.4473159,Landsberger Allee/Petersburger Straße,,,
1679221137,52.5289276,13.4449135,Paul-Heyse-Straße,,,
1679221138,52.5224781,13.4503004,Straßmannstraße,,,
1685046689,52.5636566,13.4127766,Masurenstraße,,,
1685046691,52.5675692,13.4121641,S+U Pankow,,,
1685738604,52.5703917,13.4084656,Pankow Kirche,,,
1685757439,52.5706409,13.4103041,Pankow Kirche,,,
1704693343,52.4324964,13.5264686,Karl-Ziegler-Straße,,,
1704693369,52.4327476,13.5261436,Karl-Ziegler-Straße,,,
1704693381,52.429759,13.5301687,Magnusstraße,,,
1704693389,52.4299521,13.5306579,Magnusstraße,,,
1704693428,52.4343094,13.5410593,S Adlershof,,,
1704693444,52.4351347,13.5404481,S Adlershof,,,
1704693451,52.4319162,13.5346118,Walther-Nernst-Straße,,,
1704693457,52.4321529,13.5350435,Walther-Nernst-Straße,,,
1707193581,52.3866019,13.634025,Adlergestell/Vetschauer Allee,,,
1716251820,52.4447245,13.5686302,Köllnischer Platz,,,
1716251972,52.4457149,13.5624076,S Spindlersfeld,,,
1760009267,52.3735087,13.1111327,Abzweig Betriebshof ViP,,,
1783286753,52.5048497,13.4484558,S+U Warschauer Straße,,,
1787945074,52.5257994,13.4457082,Landsberger Allee/Petersburger Straße,,,
1789092673,52.5219449,13.4143847,U Alexanderplatz,,,
1789130798,52.5285131,13.424138,Am Friedrichshain,,,
1789155577,52.5485959,13.4524061,Antonplatz,,,
1789155580,52.5408786,13.4385364,S Greifswalder Straße,,,
1789155581,52.5430358,13.4410608,Thomas-Mann-Straße,,,
1789168567,52.5533884,13.4753656,Sulzfelder Straße,,,
1795862367,52.5352266,13.4742417,Hohenschönhauser Straße,,,
1797065720,52.5474117,13.5609668,Jan-Petersen-Straße,,,
1797119853,52.5231328,13.4267728,Büschingstraße,,,
1797183046,52.5459306,13.5569071,Freizeitforum Marzahn,,,
1797326623,52.5290091,13.5192567,Meeraner Straße,,,
1797361151,52.5259347,13.5434041,Helene-Weigel-Platz,,,
1797381752,52.5255039,13.5297264,Beilsteiner Straße,,,
1797381754,52.525709,13.5360958,S Springpfuhl,,,
1797381789,52.5259142,13.5203097,Allee der Kosmonauten/Rhinstraße,,,
1797405922,52.5358377,13.5170344,Landsberger Allee/Rhinstraße,,,
1797506132,52.527324,13.5486679,Boschpoler Straße,,,
1797514517,52.5339106,13.5520361,Allee der Kosmonauten/Poelchaustraße,,,
1809302376,52.3798545,13.6433378,Zum Seeblick,,,
1813427810,52.5118973,13.4708034,Traveplatz,,,
1816086143,52.5544232,13.4030585,Björnsonstraße,,,
1816086144,52.5559762,13.383244,Osloer Straße/Prinzenallee,,,
1816086145,52.5549382,13.3954269,S Bornholmer Straße,,,
1819268905,52.5255927,13.4997528,Herzbergstraße/Siegfriedstraße,,,
1820784042,52.5599848,13.5097678,Rüdickenstraße,,,
1821277733,52.5821303,13.4285911,Galenusstraße,,,
1821277734,52.5848789,13.4288486,Pankower Straße,,,
1821277735,52.5777355,13.4281593,S Pankow-Heinersdorf,,,
1821286946,52.5922981,13.4313671,Marienstraße/Pasewalker Straße,,,
1821286958,52.5896961,13.430514,Pasewalker Straße/Blankenburger Weg,,,
1821323659,52.6020283,13.4313576,Blankenfelder Straße,,,
1821323660,52.5956687,13.4326986,Rosenthaler Straße,,,
1821470693,52.6071368,13.4336533,Französisch Buchholz Kirche,,,
1821621498,52.5840207,13.4029654,Kuckhoffstraße,,,
1821622042,52.5901574,13.4023428,Nordend,,,
1821622114,52.592103,13.4110249,Schillerstraße,,,
1821622123,52.5923061,13.4108797,Schillerstraße,,,
1821685357,52.5836046,13.403169,Kuckhoffstraße,,,
1821765771,52.5714873,13.3984217,Bürgerpark Pankow,,,
1821850705,52.4676368,13.6817998,Waldstraße,,,
1821890710,52.5713805,13.3983316,Bürgerpark Pankow,,,
1822170722,52.5727169,13.4156121,Stiftsweg,,,
1822477738,52.5823559,13.3923719,Am Iderfenngraben,,,
1822477777,52.5885337,13.3882869,Nordendstraße,,,
1822477788,52.598666,13.3726689,Rosenthal Nord,,,
1822482923,52.591974,13.3837136,Angerweg,,,
1822482924,52.5970074,13.3763918,Hauptstraße/Friedrich-Engels-Straße,,,
1822482925,52.5943801,13.3810259,Wiesenwinkel,,,
1822518522,52.5101841,13.4546946,Libauer Straße,,,
1822518527,52.5098432,13.4564928,Simplonstraße,,,
1822518541,52.5089435,13.4602181,Wühlischstraße/Gärtnerstraße,,,
1822749207,52.5129045,13.4573531,Niederbarnimstraße,,,
1823188105,52.452347,13.6526988,Fürstenwalder Damm,,,
1823188120,52.4496666,13.6629783,Fürstenwalder Damm/Müggelseedamm,,,
1823188126,52.4566173,13.6333365,Hartlebenstraße,,,
1823188151,52.4477546,13.6708951,Licht- und Luftbad Müggelsee,,,
1823189305,52.4458052,13.6774213,Strandbad Müggelsee,,,
1823189338,52.4561223,13.6415532,Wasserwerk Friedrichshagen,,,
1823298700,52.5195641,13.388415,S+U Friedrichstraße,,,
1823298701,52.5671035,13.4122882,S+U Pankow,,,
1823298702,52.5596168,13.413232,U Vinetastraße,,,
1827009395,52.4552441,13.5767825,Bahnhofstraße/Seelenbinderstraße,,,
1828092992,52.5190126,13.4545077,Bersarinplatz,,,
1828092996,52.5204601,13.4592788,Forckenbeckplatz,,,
1828093026,52.5198863,13.4630477,Proskauer Straße,,,
1828093032,52.5201075,13.4663972,James-Hobrecht-Straße,,,
1828231426,52.5205573,13.4738124,Scheffelstraße,,,
1828231427,52.5204942,13.474128,Scheffelstraße,,,
1828354198,52.530501,13.4614668,Oderbruchstraße,,,
1828366917,52.5340748,13.4676978,Judith-Auer-Straße,,,
1828394571,52.5348368,13.5045091,Arendsweg,,,
1828394572,52.5368454,13.5251461,Dingelstädter Straße,,,
1828394573,52.5351151,13.5094071,Schalkauer Straße,,,
1828810863,52.534902,13.480385,Altenhofer Straße,,,
1828899860,52.5469426,13.4978874,Oberseestraße,,,
1829909910,52.5281596,13.4689825,Anton-Saefkow-Platz,,,
1830277393,52.5265974,13.4897656,Herzbergstraße/Industriegebiet,,,
1830277395,52.5188045,13.5192897,Kleingartenanlage Bielefeldt,,,
1830277396,52.5139753,13.5190234,S Friedrichsfelde Ost,,,
1830281726,52.5270931,13.4795986,Roederplatz,,,
1830648100,52.5100917,13.5189315,Alt-Friedrichsfelde/Rhinstraße,,,
1830648101,52.5005867,13.52173,Criegernweg,,,
1830648102,52.4867994,13.5269579,Marksburgstraße,,,
1830648103,52.4929123,13.5264678,Treskowallee/HTW,,,
1830648105,52.4964388,13.5241639,U Tierpark,,,
1830648241,52.5056038,13.5198488,Alfred-Kowalke-Straße,,,
1833060707,52.5436415,13.3389703,Virchow-Klinikum,,,
1833598326,52.5574032,13.4656912,Berliner Allee/Rennbahnstraße,,,
1833598327,52.5575633,13.4653797,Berliner Allee/Rennbahnstraße,,,
1834094130,52.5426977,13.5485317,Marzahner Promenade,,,
1834094132,52.5429307,13.5494306,Marzahner Promenade,,,
1834446929,52.5376742,13.5600838,Adersleber Weg,,,
1834446940,52.5417781,13.5635092,Alt-Marzahn,,,
1837885455,52.5408998,13.4057883,Friedrich-Ludwig-Jahn-Sportpark,,,
1837885456,52.5357345,13.3905139,Gedenkstätte Berliner Mauer,,,
1837885458,52.5323299,13.3875983,S Nordbahnhof,,,
1837885479,52.5384311,13.3964824,U Bernauer Straße,,,
1837885483,52.5396897,13.4012039,Wolliner Straße,,,
1837885485,52.5399966,13.4020576,Wolliner Straße,,,
1837885772,52.5380716,13.3954653,U Bernauer Straße,,,
1838908587,52.550577,13.5617322,Bürgerpark Marzahn,,,
1838908588,52.5540951,13.5658757,Max-Herrmann-Straße,,,
1839493790,52.5487647,13.5815651,Betriebshof Marzahn,,,
1839493791,52.5478226,13.5779591,Brodowiner Ring,,,
1839544393,52.5486256,13.5869065,Landsberger Chaussee/Zossener Straße,,,
1839544394,52.5455892,13.5867347,Michendorfer Straße,,,
1839573020,52.5448661,13.5920431,Alte Hellersdorfer Straße/Zossener Straße,,,
1839573021,52.5440155,13.5982956,Zossener Straße/Kastanienallee,,,
1839573038,52.5437922,13.6033753,Stendaler Straße/Zossener Straße,,,
1839585219,52.5433447,13.6034158,Stendaler Straße/Zossener Straße,,,
1839587899,52.5394032,13.6042999,Stendaler Straße/Quedlinburger Straße,,,
1839604479,52.5360594,13.6052636,U Hellersdorf,,,
1839604497,52.533407,13.6084404,Nossener Straße,,,
1839616592,52.5319883,13.6150858,Jenaer Straße,,,
1839616593,52.5328615,13.6109001,Nossener Straße,,,
1839642636,52.5305657,13.6218539,Riesaer Straße/Louis-Lewin-Straße,,,
1839733016,52.5525647,13.425432,Stahlheimer Straße/Wisbyer Straße,,,
1839996157,52.5679547,13.574395,Barnimplatz,,,
1839996163,52.5646318,13.5714494,Niemegker Straße,,,
1839997216,52.5422857,13.5425363,S Marzahn,,,
1839997217,52.5424883,13.5419279,S Marzahn,,,
1839999791,52.534413,13.4967837,Genslerstraße,,,
1840190519,52.5392903,13.4234701,Prenzlauer Allee/Danziger Straße,,,
1840238871,52.5349179,13.4216755,Marienburger Straße,,,
1840254052,52.5329765,13.4205284,Knaackstraße,,,
1840260314,52.5308299,13.4191997,Prenzlauer Allee/Metzer Straße,,,
1840309842,52.5274326,13.4161078,Mollstraße/Prenzlauer Allee,,,
1840333892,52.5233439,13.4110773,S+U Alexanderplatz/Memhardstraße,,,
1840709506,52.5249862,13.5196246,Allee der Kosmonauten/Rhinstraße,,,
1840716906,52.5091731,13.466845,Holteistraße,,,
1840721035,52.5513534,13.5092658,Gehrenseestraße,,,
1840723426,52.5189734,13.4542505,Bersarinplatz,,,
1840723427,52.5201985,13.4585731,Forckenbeckplatz,,,
1841185634,52.5700498,13.5276714,Falkenberg,,,
1841416672,52.4832902,13.5016748,Köpenicker Chaussee/Blockdammweg,,,
1841416673,52.4833627,13.5020856,Köpenicker Chaussee/Blockdammweg,,,
1841416674,52.4800883,13.5209354,Stühlinger Straße,,,
1841628954,52.4973878,13.4843647,Kosanke-Siedlung,,,
1841628955,52.5006384,13.4772464,S Rummelsburg,,,
1844135105,52.4530499,13.5937857,Bellevuestraße,,,
1844135106,52.4541676,13.6128612,Mühlweg,,,
1844135181,52.4492553,13.6085751,Wassersportzentrum,,,
1844135182,52.453131,13.6082703,Westendsiedlung,,,
1860618703,52.525766,13.4420765,Virchowstraße,,,
1860618724,52.5258387,13.4420406,Virchowstraße,,,
1860626127,52.5339761,13.4874733,Zechliner Straße,,,
1860708821,52.5232674,13.4326467,Platz der Vereinten Nationen,,,
1860777019,52.5240678,13.4398394,Klinikum im Friedrichshain,,,
1860777021,52.5249466,13.4204264,Mollstraße/Otto-Braun-Straße,,,
1860777038,52.5285325,13.4557828,S Landsberger Allee,,,
1860777041,52.5212168,13.4110566,S+U Alexanderplatz/Gontardstraße,,,
1860841039,52.5563959,13.377926,Drontheimer Straße,,,
1860841045,52.5554183,13.3902457,Grüntaler Straße,,,
1860841046,52.5570154,13.3659991,Louise-Schroeder-Platz,,,
1860841047,52.5567774,13.3726126,U Osloer Straße,,,
1860841761,52.553567,13.3579372,Osram-Höfe,,,
1861177648,52.5499916,13.3510635,U Seestraße,,,
1861282275,52.5464797,13.3443768,Seestraße/Amrumer Straße,,,
1861366563,52.5540724,13.4090846,Schönfließer Straße,,,
1861621568,52.5389551,13.5335835,Gewerbepark Georg Knorr,,,
1861621569,52.5357368,13.5187745,Landsberger Allee/Rhinstraße,,,
1861798256,52.5493627,13.4213646,Humannplatz,,,
1861798264,52.5521431,13.4243608,Stahlheimer Straße/Wisbyer Straße,,,
1861798266,52.5471362,13.4189621,Stargarder Straße,,,
1861798441,52.5435454,13.4150678,Raumerstraße,,,
1861845636,52.4505094,13.572684,Bahnhofstraße/Lindenstraße,,,
1862699772,52.5251144,13.3924023,S Oranienburger Straße,,,
1862786356,52.5253884,13.4193797,Mollstraße/Otto-Braun-Straße,,,
1863122952,52.4565101,13.5638374,Alte Försterei,,,
1863122953,52.4574526,13.5441231,Freizeit- und Erholungszentrum,,,
1863122963,52.4572322,13.5338473,Ostendstraße,,,
1863122965,52.458819,13.5256803,Rathenaustraße/HTW,,,
1863203837,52.4563907,13.550718,Nixenstraße,,,
1863260107,52.4466212,13.576083,Freiheit,,,
1864067687,52.5296427,13.6240653,Riesaer Straße,,,
1864168419,52.5206411,13.4994454,Betriebshof Lichtenberg,,,
1864168423,52.5254877,13.508866,Ev. Krankenhaus KEH,,,
1864168424,52.5236942,13.4996388,Siegfriedstraße/Josef-Orlopp-Straße,,,
1864168565,52.5253898,13.4996921,Herzbergstraße/Siegfriedstraße,,,
1864168569,52.5259894,13.5186756,Allee der Kosmonauten/Rhinstraße,,,
1864407549,52.5548156,13.4676381,Falkenberger Straße/Berliner Allee,,,
1864407550,52.5536757,13.4699582,Buschallee,,,
1864614582,52.5154751,13.4985788,Freiaplatz,,,
1864614587,52.5179705,13.4992303,Gotlindestraße,,,
1864614599,52.5121919,13.499568,S+U Lichtenberg/Gudrunstraße,,,
1864614733,52.5143097,13.4982207,Fanningerstraße,,,
1864917862,52.5203018,13.4684045,James-Hobrecht-Straße,,,
1865263813,52.5135943,13.5020314,Guntherstraße,,,
1865266994,52.5806125,13.4020889,Hermann-Hesse-Straße/Waldstraße,,,
1865271776,52.5443517,13.4929992,Freienwalder Straße,,,
1865279611,52.5341801,13.4680099,Judith-Auer-Straße,,,
1865279612,52.5422889,13.4890554,Werneuchener Straße,,,
1865282611,52.5470466,13.498184,Oberseestraße,,,
1865677162,52.4390415,13.5916396,Krankenhaus Köpenick/Südseite,,,
1865677163,52.440604,13.586986,Pablo-Neruda-Straße,,,
1865877888,52.440087,13.5817997,Betriebshof Köpenick,,,
1865877900,52.4274137,13.5852586,Dregerhoffstraße,,,
1865877905,52.4217052,13.5879004,Lienhardweg,,,
1865877909,52.4366682,13.5824134,Mayschweg,,,
1865877914,52.4189116,13.5888416,Müggelbergallee,,,
1865877918,52.443069,13.5811288,Müggelheimer Straße/Wendenschloßstraße,,,
1865877921,52.4316011,13.5836094,Pritstabelstraße,,,
1865877925,52.4343208,13.5828587,Segewaldweg,,,
1865877928,52.4248423,13.5864837,Zur Nachtheide,,,
1866487720,52.540168,13.513773,Rhinstraße/Plauener Straße,,,
1866503923,52.5409885,13.4065488,Friedrich-Ludwig-Jahn-Sportpark,,,
1866509895,52.5265183,13.4167855,Mollstraße/Prenzlauer Allee,,,
1867058882,52.5292356,13.4626679,Karl-Lade-Straße,,,
1867085605,52.4739371,13.5201087,Hegemeisterweg,,,
1867085607,52.4682289,13.5138227,Rummelsburger Straße/Edisonstraße,,,
1867085610,52.4679531,13.5135217,Rummelsburger Straße/Edisonstraße,,,
1867085611,52.4709069,13.5169533,Volkspark Wuhlheide,,,
1867110496,52.5761572,13.424869,Würtzstraße,,,
1867111218,52.575075,13.4195974,Mendelstraße,,,
1867139081,52.5506013,13.4947328,Am Faulen See,,,
1867139083,52.5497835,13.4982024,Degnerstraße/Suermondtstraße,,,
1867232507,52.5756602,13.3988199,Tschaikowskistraße,,,
1867232513,52.5763518,13.3984917,Tschaikowskistraße,,,
1867494323,52.5523154,13.4858397,Orankestrand,,,
1867554355,52.4586564,13.5121185,Brückenstraße,,,
1867554356,52.4575996,13.5110528,Brückenstraße,,,
1867580138,52.4467798,13.5066717,Sterndamm/Königsheideweg,,,
1867592594,52.4402944,13.5052638,Haeckelstraße,,,
1867592606,52.4408029,13.5057814,Haeckelstraße,,,
1867592610,52.4417413,13.5061522,Haeckelstraße,,,
1867592613,52.4442228,13.5055404,Herweghstraße,,,
1867592615,52.4416656,13.503402,Mühlbergstraße,,,
1867602297,52.4443557,13.5039451,Johannisthal Kirche,,,
1867699269,52.4559817,13.559221,Spindlersfelder Straße,,,
1868463702,52.5194799,13.4993269,Betriebshof Lichtenberg,,,
1883138762,52.4625068,13.513617,Wilhelminenhofstraße/Edisonstraße,,,
1883458398,52.4562846,13.6254085,S Friedrichshagen,,,
1883465386,52.4467099,13.6279876,Josef-Nawrocki-Straße,,,
1883472919,52.4482775,13.6404328,"Berlin, Altes Wasserwerk [Ausstieg]",,,
1883472920,52.4469208,13.6321468,Bruno-Wille-Straße,,,
1883473003,52.4480047,13.6391453,Altes Wasserwerk,,,
1883484180,52.4469814,13.6324214,Bruno-Wille-Straße,,,
1883502289,52.4472351,13.6149947,Spreestraße,,,
1888408611,52.5497421,13.4469259,Behaimstraße,,,
1888408612,52.5498427,13.4467563,Behaimstraße,,,
1888408613,52.5518541,13.4403417,Friesickestraße,,,
1888408614,52.5534746,13.4352568,Gustav-Adolf-Straße/Langhansstraße,,,
1888408615,52.5536867,13.4343757,Gustav-Adolf-Straße/Langhansstraße,,,
1891963680,52.4877427,13.4963382,Heizkraftwerk Klingenberg,,,
1891980100,52.4013919,13.6246617,Richtershorn,,,
1894395208,52.5319527,13.3993883,Brunnenstraße/Invalidenstraße,,,
1894458307,52.5322699,13.3945079,Pappelplatz,,,
1895220895,52.5265467,13.4906081,Herzbergstraße/Industriegebiet,,,
1896387646,52.4932974,13.4904967,Gustav-Holzmann-Straße,,,
1899067690,52.5258954,13.5429853,Helene-Weigel-Platz,,,
1906474291,52.4519532,13.6002344,Hirschgarten,,,
1907446557,52.4842911,13.5096509,Blockdammweg,,,
1907460123,52.4105463,13.5976825,Regattastraße/Sportpromenade,,,
1907460128,52.4114267,13.5880838,Regattatribünen,,,
1907460147,52.4134772,13.5747052,S Grünau,,,
1907460152,52.4087096,13.603986,Strandbad Grünau,,,
1908402929,52.4163318,13.5798925,Wassersportallee,,,
1908402930,52.4163494,13.5800196,Wassersportallee,,,
1941820357,52.5443197,13.4158316,Raumerstraße,,,
2047980868,52.3733498,13.1011966,Bisamkiez,,,
2058493851,52.5985188,13.3728938,Rosenthal Nord,,,
2078713387,52.3757151,13.6490388,Alt-Schmöckwitz,,,
2078713395,52.3796091,13.6436442,Zum Seeblick,,,
2085211643,52.5264878,13.3694466,S+U Hauptbahnhof,,,
2102081558,52.4740854,13.5984757,Mahlsdorf-Süd,,,
2104184739,52.5365045,13.4075076,Schwedter Straße,,,
2135441880,52.5497496,13.4217069,Humannplatz,,,
2135441881,52.5301769,13.4016121,U Rosenthaler Platz,,,
2135441883,52.5472432,13.4189937,Stargarder Straße,,,
2135441884,52.5344603,13.4055497,Zionskirchplatz,,,
2175753204,52.5192166,13.3937453,Am Kupfergraben,,,
2201770565,52.528854,13.4246058,Am Friedrichshain,,,
2255903955,52.3635709,13.0949834,Am Moosfenn,,,
2255903956,52.3658321,13.0935775,Friedrich-Wolf-Straße,,,
2256012261,52.375035,13.1419188,Gaußstraße,,,
2256012262,52.37549,13.1286919,Johannes-Kepler-Platz,,,
2256012263,52.3755718,13.1371773,Max-Born-Straße,,,
2265749273,52.4590087,13.5805735,S Köpenick,,,
2265749275,52.4590446,13.5838302,Hirtestraße,,,
2267525549,52.3943456,13.6320251,Schappachstraße,,,
2267525550,52.3946578,13.6317399,Schappachstraße,,,
2269858186,52.5112196,13.6112084,S Mahlsdorf,,,
2293695704,52.4983047,13.6128987,Rahnsdorfer Straße,,,
2293695724,52.4985173,13.613101,Rahnsdorfer Straße,,,
2293695743,52.4911084,13.6077072,Eichenhofweg,,,
2478194092,52.584898,13.3903438,Friedrich-Engels-Straße/Eichenstraße,,,
2478194105,52.5851216,13.3902792,Friedrich-Engels-Straße/Eichenstraße,,,
2479426340,52.5126725,13.458491,Niederbarnimstraße,,,
2480027318,52.5267353,13.4825593,Bernhard-Bästlein-Straße,,,
2499768851,52.5875526,13.4017828,Heinrich-Böll-Straße,,,
2500379925,52.5540838,13.408422,Schönfließer Straße,,,
2604972585,52.4739802,13.5986686,Mahlsdorf-Süd,,,
2604972586,52.4637631,13.5840398,Mittelheide,,,
2604972736,52.4701961,13.5893611,Unter den Birken,,,
2604972737,52.4671864,13.5855872,Wongrowitzer Steig,,,
2706073988,52.4733444,13.7522731,Berghof-Weiche,,,
2706074009,52.4737542,13.7135347,Grätzwalde,,,
2831020548,52.5231079,13.3617622,Lüneburger Straße,,,
2831020549,52.5251507,13.3662382,Clara-Jaschke-Straße,,,
2831020554,52.5242203,13.3620668,Lesser-Ury-Weg,,,
2914606227,52.5324696,13.3974236,Brunnenstraße/Invalidenstraße,,,
2951367727,52.5286147,13.3763477,Invalidenpark,,,
2951553387,52.5287568,13.3770736,Invalidenpark,,,
2975512955,52.4059355,13.6206513,Bammelecke,,,
3022831712,52.4746968,13.6922707,Rahnsdorfer Straße,,,
3170821915,52.5154601,13.4537902,U Frankfurter Tor,,,
3174362128,52.5125804,13.5005323,S+U Lichtenberg/Gudrunstraße,,,
3176620360,52.5497059,13.4573678,Albertinenstraße,,,
3199101963,52.5028805,13.4745827,Marktstraße,,,
3236522163,52.5302986,13.3820913,U Naturkundemuseum,,,
3239724396,52.4059861,13.6205655,Bammelecke,,,
3253288878,52.5266328,13.3700139,S+U Hauptbahnhof,,,
3257062964,52.42761,13.585222,Dregerhoffstraße,,,
3257062965,52.4218815,13.5879086,Lienhardweg,,,
3257062966,52.43718,13.5823783,Mayschweg,,,
3257062967,52.4184757,13.5890184,Müggelbergallee,,,
3257062969,52.4305802,13.5839351,Pritstabelstraße,,,
3257062970,52.4344857,13.5828681,Segewaldweg,,,
3257062973,52.4249674,13.5864658,Zur Nachtheide,,,
3263667173,52.461541,13.513643,Wilhelminenhofstraße/Edisonstraße,,,
3264968574,52.4547262,13.576353,Bahnhofstraße/Seelenbinderstraße,,,
3264968580,52.4572127,13.5339625,Ostendstraße,,,
3264968581,52.4575986,13.5399712,Weiskopffstraße,,,
3268941727,52.4553358,13.5905123,Brandenburgplatz,,,
3268941728,52.4553158,13.5908676,Brandenburgplatz,,,
3667255637,52.5178145,13.4991322,Gotlindestraße,,,
3708887804,52.52637,13.499036,Herzbergstraße/Siegfriedstraße,,,
3719592921,52.5304175,13.3827264,U Naturkundemuseum,,,
3724869250,52.5198524,13.4634375,Proskauer Straße,,,
3724869251,52.4820547,13.5164286,Stechlinstraße,,,
3724869252,52.480361,13.5202575,Stühlinger Straße,,,
3740062451,52.5316628,13.3887101,S Nordbahnhof,,,
3740062452,52.5316609,13.3890801,S Nordbahnhof,,,
3741491681,52.532764,13.3995725,Brunnenstraße/Invalidenstraße,,,
3772730267,52.5875177,13.4017289,Heinrich-Böll-Straße,,,
3817282260,52.5429295,13.4902215,Werneuchener Straße,,,
3837028202,52.5297484,13.402598,U Rosenthaler Platz,,,
3837028203,52.5302529,13.4017174,U Rosenthaler Platz,,,
3890748363,52.4556007,13.6189045,Ahornallee,,,
3890748370,52.4538898,13.6250797,Drachholzstraße,,,
3890748371,52.4540834,13.6251266,Drachholzstraße,,,
3890748374,52.4466962,13.6285653,Josef-Nawrocki-Straße,,,
3890748378,52.4508404,13.624709,Marktplatz Friedrichshagen,,,
3890748380,52.4508226,13.6247417,Marktplatz Friedrichshagen,,,
3890748382,52.4474149,13.6242985,Müggelseedamm/Bölschestraße,,,
3890748385,52.447696,13.6243771,Müggelseedamm/Bölschestraße,,,
3890748391,52.4564132,13.6253712,S Friedrichshagen,,,
3890748393,52.4568619,13.626467,S Friedrichshagen,,,
3890748394,52.4568972,13.6261659,S Friedrichshagen,,,
3892451594,52.4553906,13.5847652,Gelnitzstraße,,,
3892451595,52.45543,13.5850479,Gelnitzstraße,,,
3893875075,52.4428096,13.581722,Müggelheimer Straße/Wendenschloßstraße,,,
3894817774,52.5053424,13.6132612,Alt-Mahlsdorf,,,
3894817779,52.4889553,13.6060968,Bruchsaler Straße,,,
3894817782,52.486104,13.603978,Bütower Straße,,,
3894817785,52.4914085,13.6078903,Eichenhofweg,,,
3894817787,52.4768942,13.6004398,Hultschiner Damm/Seestraße,,,
3894817790,52.4936827,13.609508,Ledebourstraße,,,
3894817795,52.4802773,13.6009017,Roseggerstraße,,,
3894817799,52.5082644,13.6130109,Wilhelmsmühlenweg,,,
3895352486,52.374753,13.6491663,Alt-Schmöckwitz,,,
3895454718,52.4400324,13.58176,Betriebshof Köpenick,,,
3901927131,52.5264353,13.4976022,Herzbergstraße/Siegfriedstraße,,,
3901927132,52.5274442,13.4794893,Roederplatz,,,
3901927140,52.5231484,13.4995626,Siegfriedstraße/Josef-Orlopp-Straße,,,
3910983107,52.5029507,13.4742272,Marktstraße,,,
3910983111,52.501064,13.47625,S Rummelsburg,,,
3913185629,52.5728728,13.4952579,Zingster Straße,,,
3922178750,52.5324521,13.428684,Hufelandstraße,,,
3922258748,52.5190894,13.391762,Universitätsstraße,,,
3925728143,52.5543447,13.4038986,Björnsonstraße,,,
3925728144,52.5553007,13.4025884,Björnsonstraße,,,
3925728146,52.5563108,13.37861,Drontheimer Straße,,,
3925728156,52.5084858,13.4498498,Helsingforser Platz,,,
3925729357,52.5085168,13.4498351,Helsingforser Platz,,,
3926785912,52.578668,13.3983016,Grabbeallee/Pastor-Niemöller-Platz,,,
3926785931,52.5902044,13.4027567,Nordend,,,
3926785948,52.5802279,13.3969139,Pastor-Niemöller-Platz,,,
3926786061,52.5908304,13.4061538,Waldemarstraße,,,
3926952050,52.5456515,13.4129878,Milastraße,,,
3927146964,52.5683537,13.4392285,Heinersdorf Kirche,,,
3927146967,52.5686799,13.4388807,Heinersdorf Kirche,,,
3986104459,52.4541323,13.7396376,Berliner Platz,,,
3986104460,52.4542891,13.7385894,Berliner Platz,,,
3986104465,52.4508494,13.7518087,Thälmannplatz,,,
3986514157,52.4591456,13.6351326,Brösener Straße,,,
3986514162,52.4579429,13.6258286,S Friedrichshagen,,,
3986514164,52.4707861,13.6883319,Goethepark,,,
3986514165,52.470862,13.6885591,Goethepark,,,
3986514168,52.4726824,13.7305145,Jägerstraße,,,
3986514169,52.4748298,13.6924057,Rahnsdorfer Straße,,,
3986514170,52.476835,13.7094042,Schillerstraße,,,
3987874410,52.5460383,13.4947818,Degnerstraße,,,
4673135647,52.5202778,13.4052519,Spandauer Straße/Marienkirche,,,
5053329725,52.5302913,13.3834143,U Naturkundemuseum,,,
5053340655,52.5302814,13.3833714,U Naturkundemuseum,,,
5119278803,52.5364636,13.6050402,U Hellersdorf,,,
5341310303,52.3752811,13.6495632,Alt-Schmöckwitz,,,
5613468337,52.4392512,13.5818965,Betriebshof Köpenick,,,
5907113496,52.5252077,13.4065674,U Weinmeisterstraße,,,
5907113497,52.5253628,13.406737,U Weinmeisterstraße,,,
6165656632,52.4540948,13.510566,S Schöneweide/Sterndamm,,,
6231228616,52.4467954,13.6232848,Müggelseedamm/Bölschestraße,,,
6313108614,52.5413588,13.4063047,Friedrich-Ludwig-Jahn-Sportpark,,,
6313108615,52.5414023,13.4062834,Friedrich-Ludwig-Jahn-Sportpark,,,
6329369316,52.548716,13.5836544,Betriebshof Marzahn,,,
6329369317,52.5487275,13.5837011,Betriebshof Marzahn,,,
6450818478,52.5257322,13.4421106,Virchowstraße,,,
6744680993,52.5805068,13.4013183,Hermann-Hesse-Straße/Waldstraße,,,
7076449611,52.5394437,13.4834078,Simon-Bolivar-Straße,,,
7076449612,52.5379687,13.4792644,Sandinostraße,,,
7076449613,52.5364828,13.4747282,Hohenschönhauser Straße,,,
7076449614,52.5364787,13.4748251,Hohenschönhauser Straße,,,
7796868489,52.4142983,13.5752987,S Grünau,,,
8158051924,52.4813483,13.5253654,S Karlshorst,,,
8158082169,52.4769473,13.5233991,Traberweg,,,
8158082170,52.4773069,13.523838,Traberweg,,,
8176822115,52.5259174,13.5432223,Helene-Weigel-Platz,,,
8176822116,52.5419167,13.563656,Alt-Marzahn,,,
8176856717,52.5503778,13.5614084,Bürgerpark Marzahn,,,
8176856718,52.5538988,13.5656677,Max-Herrmann-Straße,,,
8176856719,52.5648244,13.5716551,Niemegker Straße,,,
8176856720,52.5681055,13.5745606,Barnimplatz,,,
8176856721,52.5726839,13.5745043,Ahrensfelde/Stadtgrenze,,,
8176856722,52.5367462,13.5247935,Dingelstädter Straße,,,
8176856723,52.5390302,13.5338607,Gewerbepark Georg Knorr,,,
8176867706,52.5428152,13.5489958,Marzahner Promenade,,,
8176867707,52.5462116,13.5571351,Freizeitforum Marzahn,,,
8176867708,52.5473115,13.5614439,Jan-Petersen-Straße,,,
8176867709,52.5460722,13.5714667,Landsberger Allee/Blumberger Damm,,,
8176867710,52.5479137,13.5783593,Brodowiner Ring,,,
8176867711,52.5490601,13.5833681,Betriebshof Marzahn,,,
8176867712,52.557557,13.5681467,Wuhletalstraße,,,
8176867713,52.5292045,13.5192642,Meeraner Straße,,,
8176867714,52.5190347,13.5193393,Kleingartenanlage Bielefeldt,,,
8176867715,52.5254901,13.530109,Beilsteiner Straße,,,
8176867716,52.5256982,13.5362653,S Springpfuhl,,,
8176925650,52.5281475,13.548876,Boschpoler Straße,,,
8176925651,52.5339069,13.5523485,Allee der Kosmonauten/Poelchaustraße,,,
8176925652,52.5378678,13.5602751,Adersleber Weg,,,
8178823658,52.5391403,13.6043183,Stendaler Straße/Quedlinburger Straße,,,
8178823659,52.5361874,13.6052035,U Hellersdorf,,,
8178823660,52.5331331,13.6096731,Nossener Straße,,,
8178823661,52.5320861,13.6147012,Jenaer Straße,,,
8178823662,52.5306478,13.6215462,Riesaer Straße/Louis-Lewin-Straße,,,
8178823663,52.5295552,13.6239628,Riesaer Straße,,,
8178939802,52.4767915,13.6003929,Hultschiner Damm/Seestraße,,,
8178939803,52.480323,13.6009227,Roseggerstraße,,,
8178939804,52.4833266,13.6020116,Erich-Baron-Weg,,,
8178939805,52.4859699,13.6039113,Bütower Straße,,,
8178939806,52.4891503,13.6061731,Bruchsaler Straße,,,
8178939807,52.4913487,13.6078065,Eichenhofweg,,,
8178939808,52.493719,13.6095621,Ledebourstraße,,,
8178939809,52.4984007,13.612998,Rahnsdorfer Straße,,,
8178939810,52.5052493,13.6132863,Alt-Mahlsdorf,,,
8178939811,52.5082169,13.6129437,Wilhelmsmühlenweg,,,
8178939812,52.5111884,13.6110829,S Mahlsdorf,,,
8178939813,52.5423752,13.5422681,S Marzahn,,,
8178939814,52.5488381,13.5870141,Landsberger Chaussee/Zossener Straße,,,
8178939815,52.5455201,13.5871589,Michendorfer Straße,,,
8178939816,52.544802,13.5924013,Alte Hellersdorfer Straße/Zossener Straße,,,
8178952817,52.5439558,13.5986106,Zossener Straße/Kastanienallee,,,
8178952818,52.543537,13.6034017,Stendaler Straße/Zossener Straße,,,
8224186789,52.4790529,13.5232864,Treskowallee/Ehrlichstraße,,,
8224186790,52.4789566,13.5234316,Treskowallee/Ehrlichstraße,,,
8461403082,52.5264121,13.3401281,U Turmstraße,,,
9214990818,52.4369716,13.5259118,Landschaftspark Johannisthal,,,
9214990819,52.4373427,13.5266116,Landschaftspark Johannisthal,,,
9214990824,52.4397147,13.5241905,Gerhard-Sedlmayr-Straße,,,
9214990825,52.4400482,13.523763,Gerhard-Sedlmayr-Straße,,,
9214990826,52.4427282,13.5197601,Benno-König-Straße,,,
9214990827,52.4430812,13.5193013,Benno-König-Straße,,,
9214990840,52.4459695,13.515054,Landfliegerstraße,,,
9214990841,52.4462919,13.514656,Landfliegerstraße,,,
9214990854,52.449322,13.5114567,Nieberstraße,,,
9214990855,52.4490273,13.5116758,Nieberstraße,,,
9218998601,52.4634812,13.5094284,Siemensstraße/Nalepastraße,,,
10657404875,52.5117885,13.4694265,Traveplatz,,,
10657421608,52.5120927,13.4733089,Jessnerstraße,,,
10657421609,52.5119329,13.4746749,Jessnerstraße,,,
11071468448,52.5266508,13.3543511,Kriminalgericht Moabit,,,
11071468449,52.5266322,13.3548211,Kriminalgericht Moabit,,,
11118304191,52.5263202,13.34097,U Turmstraße,,,
11118312088,52.5262792,13.3457584,Lübecker Straße,,,
11118312089,52.5262093,13.3465026,Lübecker Straße,,,
11118312095,52.5236109,13.3575777,Alt-Moabit/Rathenower Straße,,,
11118312096,52.5234797,13.3583979,Alt-Moabit/Rathenower Straße,,,
11211804636,52.4454583,13.5743876,Rathaus Köpenick,,,
11233149159,52.4648695,13.5135663,Siemensstraße/Edisonstraße,,,
