id,name,street,zip_code,lat,lon,geojson_feature_id
30012754,Eiscafe Eisberg,Brunnenstraße 55,13355,52.5388551,13.3960965,01300834
35528080,Coffee Star,Müllerstraße 146,13353,52.5476798,13.3563426,01400942
66917199,Starbucks,,,52.5194029,13.3887381,01100206
66917229,Starbucks,Pariser Platz 4A,10117,52.5167295,13.3797732,01100206
69226202,Brammibals Donuts,Alte Potsdamer Straße 7,10785,52.507931,13.3737316,01100102
75645699,Espresso House,Potsdamer Platz 5,10785,52.5105871,13.3764297,01100102
81362508,Café & Reisebüro - Eishandwerk,Heerstraße 1,14052,52.5089075,13.2708507,04200310
84644791,Espresso House,Potsdamer Platz 10,10785,52.5082693,13.3770044,01100102
87036259,Espresso House,Invalidenstraße 35,10115,52.5307598,13.3831456,01100308
87040343,Starbucks,Friedrichstraße 61,10117,52.5110724,13.3900182,01100207
87040348,Einstein Kaffee,,,52.5113571,13.3894708,01100207
89274938,Segafredo,,,52.5194912,13.4102122,01100310
115544715,Caffè Kamee,Rudower Chaussee 25,12489,52.4296874,13.530639,09200715
203592976,Café Kibar Wunderbar,Oberfeldstraße 24,12683,52.5189237,13.5553974,10300731
208510718,The Leaf,Residenzstraße 109,13409,52.5640793,13.3644914,12100204
249299067,SowohlAlsAuch,Kollwitzstraße 88,10435,52.5382237,13.4204986,03701555
253999353,DoubleEye,Akazienstraße 22,10823,52.4879922,13.3540483,07200409
268760098,Café Meta,Am Falkplatz 1,10437,52.545836,13.4061087,03601142
268915525,Kuno 15,Kuno-Fischer-Straße 15,14057,52.5038271,13.291085,04300415
269713585,Bistro in der Akademie der Künste,Hanseatenweg 10,10557,52.5183945,13.3464153,01200629
270814693,Totto Land,Potsdamer Chaussee 80,14129,52.4272121,13.2172579,06400736
271668412,Mokka & Juice House,,,52.4882026,13.3609478,07200411
272593724,eßkultur,Lansstraße 8,14195,52.456348,13.2925424,06400843
272811519,Bizim Kiez,,,52.4980559,13.4435002,02300419
275564580,Espresso House,Friedrichstraße 125,10117,52.525912,13.3869997,01100308
277836777,Kiez-Bäckerei,Sonnenallee 293,12057,52.4686515,13.4677356,08100521
278125487,Uebereck,Sonntagstraße 31,10245,52.5054349,13.4663979,02500834
278295436,Barcomis Café & Kaffeerösterei,Bergmannstraße 21,10961,52.4890118,13.3935082,02200211
278874829,Milchgesicht,Mainzer Straße 1,10247,52.5146574,13.4630543,02500830
281334742,Konditorei & Eiscafé Engel,Marzahner Promenade 55,12679,52.5467698,13.5567171,10100210
281513616,Cafe Finovo,Großgörschenstraße 12-14,10829,52.4910478,13.3675144,07100206
282420126,Caramello,Wühlischstraße 31,10245,52.5097761,13.457186,02500833
282421717,Intimes,Boxhagener Straße 107,10245,52.5128318,13.4582338,02500830
282430727,Café Tasso,,,52.5160258,13.4570212,02500727
282739852,Brunchella,,,52.5166158,13.4631774,02500728
286428319,Café Lutetia,Jüdenstraße 10,13597,52.5370841,13.2019954,05100316
289414441,Das kleine Eiswerk,Hultschiner Damm 76,12623,52.4820047,13.6015579,10400941
291535997,Pars,Grolmanstraße 53,10623,52.5074506,13.3213947,04300624
292203637,Loena,,,52.4978961,13.3230488,04501044
292203638,Sweet2go,Pfalzburger Straße 79,10719,52.4979575,13.3228653,04501044
300658414,Sommercafé Kladow,Lüdickeweg 1,14089,52.4445732,13.1306758,05400944
305259644,The Coffee Shop,Werderscher Markt 1,10117,52.5152592,13.3983179,01100207
305260598,Café im Alten Museum,,,52.5191167,13.3985266,01100206
307717829,Tales Untold,Am Comeniusplatz 1,10243,52.5123446,13.4479958,02400624
308410291,Tudo,,,52.5213767,13.4096608,01100310
308523030,Kiez Kaffee Kraft,Schivelbeiner Straße 23,10439,52.5511873,13.4040715,03601140
309627391,Overcomer Bubble Tea,,,52.4513354,13.2825941,06400844
310267637,Schönes Café,Dieffenbachstraße 54,10967,52.4923642,13.418062,02200213
310269864,Narr-Bar,Böckhstraße 24,10967,52.4931596,13.4203993,02200213
312697036,Café Bilderbuch,Akazienstraße 28,10823,52.4866549,13.3551643,07200409
313144186,Metropol,,,52.5254302,13.4455523,02400522
314401620,Ja Dilo,Petersburger Straße 45,10249,52.5223054,13.4509232,02500726
314752483,caffe e cioccolata,Anklamer Straße 41,10115,52.5351623,13.3986537,01100416
315549929,La Lúcuma,Granseer Straße 8,10435,52.536814,13.402935,01100416
315738178,Cup Arkona,Arkonaplatz 10,10435,52.5373544,13.4007116,01100416
316883775,Cafe Fräulein Dietrich,Fürstenberger Straße 14,10435,52.5373736,13.4040229,01100416
317179404,Fedora,Müllerstraße 28,13353,52.5472409,13.3580798,01400942
317550357,Gerdans Café,Rudower Chaussee 26,12489,52.4310052,13.5319872,09200715
319181468,Espresso House,Schönhauser Allee 116,10439,52.5498572,13.4132889,03601141
323226411,Café Viktoria,,,52.4562032,13.307115,06300629
324792576,Eiscafe Europa,Marienfelder Allee 146,12279,52.4133405,13.3629671,07601236
329969468,Lotus Cafe,,,52.5175686,13.4238976,01100311
330264334,St. Oberholz,Rosenthaler Straße 72,10119,52.5295304,13.4017825,01100309
332625327,Zimt & Zucker,Schiffbauerdamm 12,10117,52.5206164,13.384282,01100308
333136478,Café Albrecht,Reinhardtstraße 23,10117,52.5230929,13.3837544,01100308
333136721,Espresso Ambulanz,Oranienburger Straße 51,10117,52.5260119,13.3880152,01100309
333192881,Wolke,Rubensstraße 108,12157,52.4650127,13.3441689,07300619
333336881,,Lucy-Lameck-Straße 32,12049,52.4838008,13.4225619,08100101
334638166,Monsieur Toche,Albrechtstraße 19,10117,52.5223826,13.384463,01100308
335172577,Aux Delices Normands,,,52.4483263,13.276018,06400843
335594170,Feuerstein,Veteranenstraße 22,10119,52.5331919,13.4008848,01100416
336139006,Café Fleury,Weinbergsweg 20,10119,52.5312177,13.4022416,01100416
339305531,Cafe & Konditorei,Alt-Marzahn 71,12685,52.5423416,13.5634074,10100313
339819416,Napoljonska,Kastanienallee 43,10119,52.5349278,13.4057256,01100416
345552308,Luna & Sole,,,52.4804428,13.5194662,11501341
346196517,Ice Angels,Blumberger Damm 90,12685,52.5412048,13.5705532,10100316
347278881,bei Maria,Veteranenstraße 11,10119,52.5331417,13.4018075,01100416
347294453,Genç,Königsberger Straße 4a,12207,52.4290088,13.3234863,06200421
347422929,Caffé Maura,,,52.4428752,13.3113788,06300633
348053171,Tillmanns Café Krone,Argentinische Allee 2,14163,52.4383177,13.2327133,06400838
352936932,Café Monaco,Mansteinstraße 17,10783,52.49307,13.367236,07100206
359754354,Parkcafé Pusteblume,Durlacher Straße 2,10715,52.4802048,13.3365051,04501153
361569575,Felicia,Weisestraße 8,12049,52.4788003,13.42333,08100102
365099975,λ,Simon-Dach-Straße 1,10245,52.5127816,13.4573118,02500833
365102429,Lino Restaurant & Sushi Bar,Karl-Marx-Straße 18,15732,52.3729394,13.6023915,0
366943233,TreBo,Treskowallee 75,10318,52.4857307,13.526982,11501340
366986850,Ulteamate,Kantstraße 40,10625,52.5065004,13.3133688,04300623
370455026,Cafe Lisboa,Goethestraße 34,10625,52.5090275,13.3077924,04300623
370455636,Homera,Pestalozzistraße 33,10627,52.5080285,13.3054849,04300623
370852065,Le midi,Greifenhagener Straße 17,10437,52.5470948,13.4153599,03601346
371832454,Café Kali,Schillerstraße 35,10627,52.5102468,13.3075842,04300623
387487628,eleven,Leipziger Platz 11,10117,52.5095598,13.3797813,01100205
388291809,Zur alten Backstube,Hauptstraße 155,13158,52.6004376,13.3790095,03400618
388939733,Binnbonn Café,Lenbachstraße 13b,10245,52.505529,13.4670037,02500834
389896794,Roberta,,10629,52.4999162,13.30369,04500936
394829831,Café Morgenlicht,Schloßstraße 13,14059,52.51579,13.295969,04300413
395599322,Café Madlen,Schönower Straße 105,16341,52.6596876,13.5326439,0
412722274,Klein Schwalbenberg,,,52.4192605,13.7216644,09501838
412790055,Café Eselsohr,,,52.3936573,13.1290243,0
415309920,Café Bolacha,Senefelderstraße 29,10437,52.5412773,13.4225078,03601348
416405905,Coffee Station,,,52.4506268,13.2808788,06400844
416858116,Kaffee-Haus Madlen,Bahnhofstraße 81a,16341,52.6492501,13.5173903,0
419873047,Bohnenranke,Moltkestraße 50,12203,52.4466712,13.3071263,06300633
420646832,Ulfs Café im HPI,Prof.-Dr.-Helmert-Straße 2-3,14482,52.3932775,13.131179,0
427932030,Café Planwirtschaft,Hardenbergstraße 40A,10623,52.5114759,13.3245364,04300622
428114285,Eiscafé Falsone,Hindenburgdamm 58,12203,52.4473524,13.315569,06300633
429735606,Spoonful,Auguststraße 63,,52.527189,13.3969021,01100309
430043457,Cafe Rosengarten,Hubertusstraße 13,15831,52.3765712,13.3966855,0
431258771,Siebert’s Back & Café,Achillesstraße 65,13125,52.6174691,13.4897579,03300411
432486560,Endlich Mittag,Helmholtzstraße 23,10587,52.5220903,13.3270868,04300620
434481239,Kaffeehaus Blankenburg,Alt-Blankenburg 44,13129,52.5930118,13.4570289,03300514
434565581,Marios Eiscafé,Bahnhofstraße 89a,15732,52.3725489,13.615483,0
437194563,Blixen,,,52.5190506,13.4102575,01100310
437320468,Espresso Eleganza,Unter den Linden 36-38,10117,52.5171785,13.3869064,01100206
438156127,Café Shila,Leonida-Zamfirescu-Weg 1,10623,52.514519,13.3258091,04300622
440012483,gigi,Lausitzer Platz 1,10997,52.5006491,13.4295135,02300315
440078137,Gia,Kurfürstendamm 66,10707,52.5005212,13.3094972,04501040
440923198,Einstein Kaffee,,,52.5124847,13.3936722,01100206
441322911,Kaffeehaus Morgenrot,Scharfschwerdtstraße 1,16540,52.6660554,13.2825038,0
441324651,Kunst und Filterkaffee,Schönfließer Straße 13,16540,52.669743,13.2853798,0
441514952,Café Qlis,Hermannstraße 36,12049,52.4803905,13.424959,08100102
441878995,Café Kent,,,52.4706565,13.4429525,08100417
442392124,Makara,Mariendorfer Damm 48,12109,52.4484477,13.3849151,07501030
442534063,Rotes Café,Harnackstraße 1 A,14195,52.4488357,13.2783362,06400843
443129170,Silber Cafe Bar,Hermannstraße 117,12051,52.4662556,13.4317552,08100105
443674211,Café Schlacht,Breisgauer Straße 2,14129,52.4390465,13.214718,06400737
443728425,Eiscafé Millefiori,Breite Straße 35,13597,52.5380486,13.2068219,05100316
447436526,Cafeteria im PTZ,Pascalstraße 13-14,10587,52.5232961,13.3234413,04300620
447904739,Seestern,Am Schlachtensee 70,14129,52.4398995,13.2137084,06400737
448081472,Café Barfly,Brüderstraße 47,13595,52.5241735,13.1932594,05200630
454257347,Venue,Weserstraße 172,12045,52.4841453,13.439611,08100312
459668815,Café Rosenrot,,,52.5713907,13.4090296,03400722
459672233,Eis-Cafe Kubitza,Dietzgenstraße 22,13156,52.5819179,13.4043582,03200206
459673806,Johns,,,52.5834832,13.4034581,03200207
462667753,Espresso House,Albrechtstraße 131,12165,52.4571248,13.3219704,06100102
469201752,Café Impuls,Breite Straße 49,13187,52.5717507,13.4147236,03400723
470319897,Dopamine Café,Grußdorfstraße 12-13,13507,52.5885781,13.2855239,12200515
470319909,Seeblick,,,52.5619796,13.2462072,12200412
473066926,Dolce Vita,Lindenstraße 1,12207,52.4175822,13.3053628,06200420
474799087,Café Rix,Karl-Marx-Straße 141,12043,52.4770501,13.4396823,08100416
476258826,Cafe Tribune,,12059,52.4792298,13.4455331,08100415
476810292,Cafe Sgaminegg,Seelower Straße 2,10439,52.5504144,13.4104738,03601141
477430712,Enjoy,,,52.4265984,13.3038598,06300632
486517824,Coffeebar,,,52.4553114,13.5246833,09200511
489761194,Berlin Pavillon am Reichstag,Scheidemannstraße 1,10557,52.5176023,13.3737245,01100102
491566232,Pianocafé am Lietzensee,Neue Kantstraße 20,14057,52.5063206,13.2850956,04300415
493655311,Café Morgenrot,Kastanienallee 85,10435,52.5375349,13.4088525,03701554
499274751,Tapiocaria,Samariterstraße 34a,10247,52.5163204,13.4648762,02500728
505944632,Mr. Minsch,Yorckstraße 15,10965,52.493531,13.3820141,02200208
506265961,Viticula,,,52.5227444,13.6779672,0
506267615,Café Auszeit,,,52.5217818,13.6728029,0
506275774,Jannys Eis,,,52.5214748,13.6979165,0
507655174,,,,52.5269736,13.5084488,11300721
508657352,Waffle Brothers,,,52.5880587,13.2849445,12200515
509405055,Cafeteria,,,52.5139107,13.4952827,11300725
514753672,Medoc,,,52.4105387,13.2200016,0
515879722,Café Kent 3,Weisestraße 64,12049,52.4799669,13.423336,08100102
520048684,Café Liebling,Raumerstraße 36a,10437,52.5421007,13.4206554,03601348
530557759,Bistro Waldschulallee,,,52.5015112,13.2604007,04200207
530715885,Göttlich essen & trinken,Tegeler Straße 23,13353,52.5419608,13.3574263,01401047
531305449,Café Lebensart,Unter den Linden 69,10117,52.5162817,13.3822317,01100206
531795198,Cafe Buchhandlung,Tucholskystraße 32,10117,52.5261737,13.3937554,01100309
533621382,Magnifique,Damaschkestraße 38,10711,52.5014791,13.2971475,04500936
534572922,Maries Cuisine,Hohenzollerndamm 151,14199,52.4856082,13.2985642,04400830
536668241,WaschBar mit Stephanus-Shop,Johannes-Kraaz-Straße 9,12459,52.4562244,13.5263792,09200511
539466865,Zur Sonne,,,52.575032,13.2242449,12400616
541077710,Lorch & Söhne,Danziger Straße 25,10435,52.5405112,13.4172239,03601347
544752150,Nadia + Kosta,Türrschmidtstraße 31,10317,52.5032645,13.4823881,11400927
549227499,Café Zwerg,Konrad-Wolf-Straße 7,13055,52.5482581,13.5001346,11200411
549227520,K3 Lounge,Konrad-Wolf-Straße 3,13055,52.5487278,13.5009843,11200411
550408206,Raz,Müllerstraße 163,13353,52.5434493,13.3633758,01401047
559983461,Cafe Dollinger,Stuttgarter Platz 21,10627,52.5048357,13.2991984,04300416
560526925,Caffè Monelli,Greifenhagener Straße 53,10437,52.5479554,13.4154754,03601346
564686130,507,Veitstraße 40a,13507,52.5859108,13.2866935,12200515
565649878,Bio Company,Dircksenstraße 145-147,10178,52.523162,13.4041367,01100310
568525725,Frau Behrens Torten,Wilmersdorfer Straße 96-97,10629,52.50166,13.3079215,04501040
569992089,Wiener Conditorei am Hagenplatz,Hagenplatz 3,14193,52.483723,13.2674353,04400728
570034727,Konditorei Rabien,Klingsorstraße 13,12167,52.4518101,13.3304701,06100206
573381064,Peggy Bee,,,52.5113992,13.4688574,02500831
581887067,Pizzeria N1,,,52.4306229,13.1935989,06400737
582747040,Café Bar Chagall,Kollwitzstraße 2,10405,52.5313153,13.412804,03701556
597413602,Friendly Society Berlin (Kulturkaufhaus),Griebenowstraße 23,10435,52.536158,13.406129,01100416
603798038,Konditorei Fester,Markt 4,13597,52.5368723,13.2045554,05100316
607756448,Cafe Desd,Schulzendorfer Straße 13,13347,52.5401534,13.3753652,01300836
609005537,Bahnhofsklause,,,52.4374617,13.2323477,06400839
611031859,Galão A Pastelaria,Weinbergsweg 8,10119,52.5311012,13.4026797,01100416
613536371,Backhaus Helmholtz,Helmholtzstraße 1,10587,52.5208955,13.3217679,04300620
614502665,lunch+more,Pascalstraße 10,10587,52.5234417,13.3223481,04300620
615147093,Röststätte,Rosenthaler Straße 40-41,10178,52.5241937,13.4022118,01100309
616297349,Cafe Extrablatt,Wilmersdorfer Straße 46,10627,52.5094249,13.3056216,04300623
616526854,Steckenpferd,Hauptstraße 35,13159,52.6192673,13.3936976,03200204
617262898,Eis Michel,Pestalozzistraße 85,10625,52.5077347,13.3098133,04300623
617342493,Was Gesundes,Joachim-Friedrich-Straße 27,10711,52.5006544,13.2968487,04500937
618021341,Kösk Frühstück & Café,,,52.468267,13.4672874,08100521
618571207,Coffeebar FU Wirtschaftswissenschaften,Garystraße 21,14195,52.4471029,13.2806343,06400843
618993715,brot&butter,,,52.5108514,13.322867,04300624
621274121,Rudi & Rosa,Viktoriastraße 10-18,12105,52.4541235,13.3817861,07400825
622136256,Twins Catering,Beermannstraße 2,12435,52.4902199,13.4560369,09100101
622481673,Kindercafe Spielzimmer,Schliemannstraße 37,10437,52.5422898,13.4180647,03601347
622642559,milchweiß,Reinhardtstraße 2,10115,52.5239063,13.387091,01100308
623299186,la Caffèteria,Brunnenstraße 153,10115,52.5358964,13.3974266,01100415
626328553,Cafe brennBar,,,52.5077517,13.3990512,02100103
627105786,Cafe Star,Stettiner Straße 11,,52.5527628,13.385714,01300733
629369805,Impala Coffee,Wilmersdorfer Straße 67,10629,52.5048153,13.3070218,04501040
629369820,L’Berg,,,52.5037455,13.3073425,04501040
635820523,Sandwich Art,Schloßstraße 112,12163,52.4616728,13.3255962,06100103
635871464,Cooquin Cafe,,,52.5154958,13.478308,11300722
638214074,Coffee Star,Wörther Straße 23,10405,52.5356286,13.4214006,03701556
639281322,Studentisches Begegnungszentrum Motorenprüfstand,Newtonstraße 16,12489,52.4322931,13.5296167,09200715
643056998,Lara Beach,Helene-Weigel-Platz 4,12681,52.528159,13.5382721,10100312
643494404,Dilekerei,Eulerstraße 11b,13357,52.5540116,13.3914822,01300733
644618647,Bica Billard & Café,Helene-Weigel-Platz 4,12681,52.528282,13.538245,10100312
645413268,Black Bottle,,,52.5043733,13.3302152,04501042
647907957,Kleines Cafe,,,52.5029418,13.4944202,11400929
648259071,,,,52.5095173,13.2087991,05200634
648259073,Captains Inn am Stößensee,,,52.50954,13.2114308,05200634
651452392,Coffeebar Wetterleuchten,Straße des 17. Juni 135,10623,52.5119621,13.3261805,04300622
652440986,Easy Peasy,Wichertstraße 33a,10439,52.5469035,13.4244633,03601244
654401099,Spielwiese,Kopernikusstraße 24,10245,52.5104455,13.4541003,02500833
655146770,Becks Bäckerei & Bistro,Frankfurter Allee 172,10365,52.5122546,13.4852364,11300826
658617876,Pee Pees Katzencafé,Thomasstraße 53,12053,52.4723377,13.433447,08100208
661126955,Exclusive Coffee,Zillestraße 74,10585,52.5135018,13.3053868,04300621
661126957,Kira‘s,Kaiser-Friedrich-Straße 11,10585,52.5156405,13.3005291,04300414
661126968,Schlesische Backstube Hutzelmann,Wilmersdorfer Straße 19,10585,52.5153002,13.3045787,04300621
662869978,Wiener Conditorei Caffeehaus,Hohenzollerndamm 92,14199,52.4777628,13.2818428,04400727
664244050,Oase,,,52.474521,13.2922768,04400832
666388873,Tillmann,Hohenzollerndamm 47a,10713,52.4886406,13.301475,04500939
667211344,Café Thiel,,,52.5113062,13.2686117,04200310
667211368,Wiener Caffeehaus,,,52.5159551,13.2604129,04200310
667211390,Café Kuhn,,,52.5157916,13.2622288,04200308
667890052,Die Garbe,Frankfurter Allee 40,10247,52.5147577,13.4623755,02500830
667893376,The Kafé,Kastanienallee 24,10435,52.5376459,13.4084608,03701554
668246088,Toms Kaffeerösterei,Ladenstraße 50-52,14169,52.4497919,13.252357,06400840
668953779,Coffee Cult,Bergmannstraße 89,10961,52.4893414,13.3932506,02200211
668954190,Jederzeit,Bergmannstraße 92,10961,52.4894164,13.392622,02200211
670658006,Gümüs,Dominicusstraße 43,10827,52.4804592,13.3520052,07200308
674314965,Sandwich art Café,,,52.5031619,13.313199,04501040
675503721,Eiscafé Angelina,,,52.6000299,13.3025247,12500824
676633343,Kauf dich glücklich,Oderberger Straße 44,10435,52.5392474,13.4073495,03701554
676897955,Café Lebensart,,,52.4362387,13.261466,06400841
677826168,Café La Vineta,Berliner Straße 92,13189,52.5590025,13.413655,03400826
678901089,Olivchen,Königin-Luise-Straße 38,14195,52.4578859,13.2927463,06400843
679118943,Cinnamon & Sugar,Lychener Straße 63,10437,52.5454347,13.4192733,03601347
687075341,U-Back,,,52.5124608,13.4892499,11300724
687399427,Cafe Amelie Coffee and Breakfast,Pappelallee 11,10437,52.5427083,13.414434,03601347
691297105,Demlik Cafe & Restaurant,,10967,52.4905938,13.4238882,02200213
691484585,9 to 5,Albrechtstraße 11,12165,52.4554826,13.3251231,06100207
693830507,Cafe Bäckerei,Kurfürstenstraße 101,10787,52.50467,13.34207,07100101
693892027,Schneewittchen,,10629,52.5040761,13.3072318,04501040
695831701,Tre Terre,Joachim-Friedrich-Straße 45,10711,52.4974558,13.2959074,04500938
699851948,Café Steinecke,,,52.491494,13.3246763,04501149
699851950,Glückscafé,Güntzelstraße 22,10717,52.4914278,13.3252965,04501149
700761160,An einem Sonntag im August,Kastanienallee 103,10435,52.5401,13.4115903,03701554
703501026,Jute Bäckerei,Schönhauser Allee 52A,10437,52.5430245,13.4126746,03601142
703607113,Cafe Adam,Pankstraße 27,,52.5480242,13.3749562,01300836
704913843,Bella Italia,,,52.4884134,13.3409245,07200307
705140939,Il Pistacchio,Berliner Straße 34,16540,52.6699998,13.2808589,0
707417295,Œuf,Reinickendorfer Straße 110,13347,52.5450226,13.3691344,01401043
707490376,Eis Boutique,,,52.552202,13.3821838,01300733
715911667,Frollein Grün,,,52.5099653,13.2977888,04300416
718143769,Café Beatz,Neue Kantstraße 32,14057,52.5066267,13.2943986,04300416
718143866,Adiks Stehcafé,Soldauer Allee 22A,14055,52.5078425,13.2582233,04200207
718143873,Suarez Café,,14057,52.5061448,13.2941973,04300416
718143894,Kids Planet,Damaschkestraße 4,10711,52.4996474,13.3027278,04500936
721522044,Manufacture Delicate,Rykestraße 7,10405,52.5353847,13.4199291,03701556
721907907,Sindbad,,,52.5843498,13.3661533,03400619
725941837,Café Reet,Klausenerplatz 5,14059,52.5181274,13.2927651,04300413
726126783,R3 Coffee Lounge,Rüdesheimer Straße 1,14197,52.4740598,13.3147718,04400835
727851984,ess eins,,,52.4865603,13.3606762,07200411
727852032,Coffee House,Eisenacher Straße 87-88,10781,52.4905678,13.3493941,07100204
727852043,Winterfeldt Schokoladen,Goltzstraße 23,10781,52.4945858,13.3541633,07100204
728708454,Fiaker,Bochumer Straße 5,10555,52.5238158,13.3377772,01200522
729587083,Lezziz,,,52.5517673,13.3821694,01300836
730172932,Stehcafé 72,,,52.4971132,13.3640563,07100205
734960871,Burak Künefe,Brunnenstraße 56,,52.5391912,13.3959123,01300834
735944524,Romy Café & Bistro,Ottomar-Geschke-Straße 44,12555,52.4468407,13.5629766,09200818
737197006,Kaffee-Haus Madlen,,,52.5268357,13.4783092,11300617
738604733,Café Heideklause,,,52.3482497,13.6453544,09301228
739939511,Alpen-Eis,Schulstraße 1,12247,52.436338,13.3465325,06200313
742015772,Café Happiness,,,52.4250012,13.4632617,08300935
745680952,RUDIMARIE + missismiller,Weichselstraße 35,12045,52.4887871,13.4386477,08100312
745732665,Ketori Coffee,Weserstraße 202,12047,52.48772,13.431108,08100311
747493591,Les Baguettes,Berliner Straße 22,10715,52.4867015,13.3263802,04501149
747493608,Merenda Snacks & Spezialitäten aus Italien,Güntzelstraße 63,10717,52.4905325,13.3338592,04501152
747528357,Café maximal,Dietzgenstraße 68,13156,52.5870727,13.40202,03200207
750621200,Blauer Stern,Hermann-Hesse-Straße 11,13156,52.5803653,13.4015537,03200206
752878303,That Pink Café,Schwarzastraße 9,12055,52.4727222,13.4545851,08100417
752903324,Café Dejavu,Niemetzstraße 22,12055,52.4719574,13.4510678,08100417
752995885,Gülays Kitchen,Richardplatz 15,12055,52.4737502,13.4447944,08100416
760035387,Kindercafé Wunderland,Düsseldorfer Straße 40,10707,52.4970063,13.3084147,04501043
766467492,The Barn,Alte Potsdamer Straße 5,,52.5083684,13.3746993,01100102
766742164,Kiez Vegan,Körtestraße 22,10967,52.4904781,13.4095085,02200212
766875154,Eiscafé Venezia,Florian-Geyer-Straße 109a,12489,52.4380015,13.546032,09200716
768569344,Einstein Kaffee,Wegelystraße 1,10623,52.5152912,13.3336514,04300620
769850000,Cafe Irmak,Residenzstraße 122,13409,52.5664578,13.3632601,12100204
771332593,Cafe Belmont,,,52.5042035,13.3438641,07100101
773342385,Häppies,Dunckerstraße 2,10437,52.5405949,13.4192924,03601348
773640803,Panorama Punkt,,,52.5090499,13.3750816,01100102
774485383,Asmen Feinkost,Danziger Straße 19,10435,52.5407053,13.4159966,03601347
775342935,Fendricks,Muthesiusstraße 1,12163,52.4585143,13.3215886,06100102
775342945,Confiserie Reichert,Schloßstraße 96,12163,52.4586454,13.3227066,06100102
775862467,Cali Bocca,,10629,52.503883,13.3169154,04501041
775862481,Kame,Leibnizstraße 45,10629,52.503825,13.313729,04501040
775862484,1900,,10623,52.5039936,13.3224052,04501041
776125571,KaraMels,,,52.5175085,13.3071924,04300619
778710960,Kaffee Marlene,Kastanienallee 103,10435,52.5399494,13.4114208,03701554
778710965,Eis Bar,,,52.539385,13.4103183,03701554
790502622,Gardine,Knaackstraße 8,10405,52.5341014,13.4201663,03701556
792057080,Die Kiste,Heidenauer Straße 10,12627,52.5360975,13.6095221,10200524
793020082,Bistro Grenzfall,,,52.5355294,13.3895386,01300835
794213642,Milch & Zucker,Oranienstraße 37,10999,52.5018471,13.4175899,02300314
800128344,JamJam Eis,,,52.4629091,13.3386564,06100209
800786280,Herman Schulz,Finowstraße 33,10247,52.5126458,13.4688594,02500831
802550080,Bonanza Coffee Heroes,Oderberger Straße 35,10435,52.5399974,13.4053802,03701554
809726248,Cafe Isa Mitz,Görlitzer Straße 1,10997,52.4984392,13.4335985,02300418
809927484,Café Neundrei,Monbijouplatz 2,10178,52.5230254,13.399815,01100309
811188490,Café Mantika,Rathenower Straße 34,10559,52.5341205,13.3501692,01200623
813354337,Berliner Genussmanufaktur,Curtiusstraße 8,12205,52.4425443,13.2949936,06300634
814185643,Caféteria,Warener Straße 7,12683,52.5187671,13.5676003,10300732
821271943,Coffee Fellows,Friedrichstraße 204,10117,52.508244,13.3900606,01100205
823779622,Pakolat,Raumerstraße 40,10437,52.5438537,13.4162712,03601347
823788770,CoffeeCross,Thielallee 34,14195,52.4533177,13.2865366,06400843
831416217,Tee Tea Thé,Goltzstraße 2,10781,52.4902868,13.3533984,07100204
832835292,Golden Bäcker & Eis Café,,,52.5531634,13.3661352,01401049
832840930,Flying Roasters,Gneisenaustraße 85,10961,52.4915142,13.3962811,02200210
833111849,Mandarin,Sophienstraße 10,10178,52.5250687,13.4025511,01100309
833164275,WonderWaffel,Schloßstraße 128,12163,52.4642659,13.3282185,06100103
837695966,Bäckerei Wahl,,,52.4331186,13.5355616,09200715
839543566,L21,Lottumstraße 21,10119,52.5304933,13.4076613,03701554
849634209,Fatoush,Simon-Dach-Straße 41a,10245,52.5114415,13.4571362,02500833
849791887,Aquarium Café,Suermondtstraße 3,13053,52.5517753,13.4878352,11200512
855341809,Karadeniz Lokali,,,52.5521179,13.3622806,01401048
858993575,LPG Bio-Bistro,,,52.5328113,13.4133277,03701556
861329092,Kudika,Charlottenburger Ufer 1,10587,52.5211298,13.300105,04300619
862030918,Café Mediterrane,,,52.5143243,13.3147167,04300621
862992897,Fourty Years,Lausitzer Straße 34,10999,52.495706,13.4273547,02300417
863057757,Espresso House,Panoramastraße 1A,10178,52.5208397,13.4101065,01100310
865931269,Simitdchi,Adalbertstraße 97,10999,52.499904,13.418011,02300314
866049060,luzia,Oranienstraße 34,10999,52.5016751,13.418271,02300314
867271475,LAP Coffee,Adalbertstraße 91,10999,52.5010875,13.418963,02300314
867497526,Pfau,Turmstraße 55,10551,52.5273463,13.3308641,01200519
867497537,Eis Rialto,,,52.5254463,13.3299052,01200521
867734682,ART en chocolat,Oranienplatz 15,10999,52.5023636,13.4169636,02300314
867751944,Smyrna Kuruyemis,Oranienstraße 27,10999,52.5011789,13.420052,02300314
871641850,Ağrı Efsanesi,,,52.4996233,13.4172801,02300314
872538359,By Leo,,,52.5020534,13.42001,02300314
874274557,Cafe Kotti,,,52.5001477,13.4181523,02300314
874353331,ichorya,Oranienstraße 42,10969,52.5026859,13.4145875,02100104
876181984,TIM’s Bakery & Deli,Bebelplatz 1,10117,52.5163595,13.3929727,01100206
886097100,Café Mori,Wiener Straße 13,10999,52.4983654,13.4284928,02300417
886309568,A.Horn,Carl-Herz-Ufer 9,10961,52.495893,13.4053992,02200210
895721094,Bistro Jonas Café,Jonasstraße 1,10551,52.526835,13.3393389,01200520
898660200,Eiscafe Delizia,,,52.3624262,13.3121318,0
900404996,Seasidebar,Siemenswerderweg 50,13595,52.5059202,13.2011105,05200634
910426655,Bistro DönerWerk,Chausseestraße 54,10115,52.5357691,13.3768873,01100308
923413825,Pêle Mêle,Innstraße 26,12043,52.4794544,13.4416806,08100415
925237927,Aux Delices Normands,Chausseestraße 2a,14109,52.4129931,13.143137,06400735
925524894,leo coffee,,,52.5044803,13.3378959,04501042
930288682,Park-Café,,,52.4403717,13.3962769,07501032
931622739,Zimt & Mehl,Weigandufer 16,12045,52.4847439,13.4439166,08100312
932342550,Giro Coffee Bar,Knesebeckstraße 5,10623,52.5100684,13.3227678,04300624
935637567,cuccuma,,,52.4905777,13.3943553,02200211
937913621,Bravo,Auguststraße 69,10117,52.5270744,13.3946631,01100309
940815668,La Vie,,,52.4643933,13.2963918,06400844
941375461,monsieur ibrahim,Körtestraße 8,10967,52.4913067,13.4112178,02200212
945649942,Guth,Knaackstraße 33,,52.5349391,13.4174939,03701556
959238592,Kouskous Café Bar,,,52.4887243,13.408271,08100101
959704845,Kellermann,Rudolf-Breitscheid-Straße 32,14482,52.3921477,13.0917375,0
961626565,Kame,Linienstraße 113,10115,52.5274648,13.3925097,01100309
970422265,Golightly,Friesenstraße 22,10965,52.4879159,13.3946276,02200211
971891546,QG - Café Français,Pettenkoferstraße 6,10247,52.5164075,13.4725194,02500729
972319931,Bake & Bite,Brückenstraße 4,,52.5122954,13.4173278,01100313
974389011,Camino,Hufelandstraße 16,10407,52.5318455,13.4315211,03701660
974393040,Messesnack Kleiner Stern,,,52.5059555,13.2772492,04200311
975136815,LePopulaire,Unter den Linden 5,10117,52.5169402,13.3962176,01100206
975312178,Viadukt Bistro,,,52.522594,13.4003855,01100309
975312193,Starbucks,Neue Promenade 3,10178,52.5231934,13.4020866,01100309
975693680,Skatehalle Berlin,,,52.5068724,13.4540486,02500834
978979323,soopoollim,Ackerstraße 149,10115,52.5315895,13.3962167,01100415
980767608,Café Vux,Wipperstraße 14,12055,52.4721688,13.4425773,08100417
988995654,Tortenwerkstatt,Gleimstraße 6,13355,52.5461439,13.3976501,01300834
989022916,Pure Origins,Georgenstraße 193,10117,52.5200936,13.3911123,01100206
992805974,Malibu,Leonorenstraße 71a,12247,52.4388235,13.3441377,06200313
992806068,Cafe Rosenduft,Jungfernstieg 4b,12207,52.4297578,13.3273282,06200421
993801825,Barista,Oderberger Straße 54,10435,52.5383099,13.4098669,03701554
997194050,La Femme,,,52.490974,13.4236412,02200213
1006711174,Frau Lüske,Baseler Straße 46,12205,52.437981,13.2951499,06300634
1011764416,Limone,,,52.5065755,13.3020578,04300416
1026652653,Die Bohne,,,52.3928855,13.128021,0
1029298838,cafézinho espresso-bar,Bötzowstraße 41,10407,52.532969,13.435551,03701660
1041847871,Cinnamood,Kurfürstendamm 20,10719,52.5039452,13.3305315,04501042
1057589896,Haliflor,Schwedter Straße 26,10119,52.535267,13.4071784,01100416
1059237503,Strandbad Weissensee,,,52.553736,13.4655505,03500933
1074960875,Bistro im Haus der Bundespressekonferenz,Schiffbauerdamm 40,10117,52.5219239,13.3770007,01100308
1075397105,Sag mir wo die Blumen sind,Albrechtstraße 9,10117,52.5218537,13.38456,01100308
1077639186,Casero,Schlesische Straße 6,10997,52.5002405,13.4430425,02300419
1077639222,Cafe an Schlesi,,,52.5003458,13.4428293,02300419
1078275013,Café Elisabeth,,,52.4158829,13.2459829,0
1078531630,Backiyem,,,52.430643,13.259168,06300526
1078763320,zwölf.uhr.mittags,Kirchstraße 17,10557,52.5227923,13.3490886,01200626
1078763398,coffeemamas,Kirchstraße 2,10557,52.524139,13.3491796,01200626
1078763413,Maxway Coffee,Kirchstraße 2,10557,52.5241967,13.3491981,01200626
1078763421,moa,Kirchstraße 1,10557,52.5244316,13.3492903,01200626
1078763424,cafépaci,Kirchstraße 19,10557,52.5231319,13.3492197,01200626
1082694815,CoffEy,Machnower Straße 6,14165,52.4289169,13.2560014,06300524
1092682874,Fesi Coffee,Kopernikusstraße 19,10245,52.5102108,13.4551574,02500833
1104699440,Tchibo,Stern-Center 1-10,14480,52.3713569,13.1346787,0
1108199052,Maître Münch,Giesebrechtstraße 16,10629,52.5023012,13.3097974,04501040
1112868723,Amasya,,,52.4784312,13.4300615,08100206
1126457748,Mokkafee,Grünstraße 21,12555,52.444924,13.5756378,09401534
1127766779,Café Paula,,,52.5655524,13.4001871,03400721
1127766843,Trivitys,Florastraße 27,13187,52.5653802,13.4037971,03400721
1129787480,CoCo,Friedrichstraße 119,10117,52.5267188,13.3869388,01100308
1131533968,Coffeebar,Alt-Friedrichsfelde 60,10315,52.5092173,13.5269246,11401034
1133787154,Rücker,Pichelsdorfer Straße 99,13595,52.5237358,13.1974152,05200630
1135716864,Café Goldzug,,,52.5645076,13.3708829,12100101
1137567654,Weinbeisser,Handjerystraße 90,12159,52.4742961,13.3329289,07300517
1140719947,Regenbogenfabrik Soli-Café,Lausitzer Straße 22,10999,52.4955993,13.4268698,02300417
1142406753,Espresso House,,,52.5336525,13.1983836,05200629
1154259642,Sing Blackbird,,,52.4923589,13.4262022,08100310
1156532513,Café Hardenberg,Hardenbergstraße 10,10623,52.5094541,13.3249126,04300624
1158236121,DÄRI Frozen Yogurt,Oderberger Straße 6,10435,52.5384946,13.4104199,03701554
1159055478,Melis Coffee,Am Friedrichshain 35,10407,52.5282716,13.4246042,03701659
1165884601,Schicha Habibi,,,52.4869857,13.428753,08100311
1165969884,HayHay,Skalitzer Straße 38,10999,52.4986682,13.4264959,02300417
1168905946,La Manife (& DHL/DPD Pakete),Spandauer Damm 115,14050,52.5181423,13.279605,04200311
1169625216,McCafé,,,52.5957989,13.5990987,0
1170145498,Yaz Up,Guerickestraße 38,10587,52.5180469,13.3163455,04300619
1175886847,AJBrasil,Krumme Straße 57,10627,52.5073392,13.309583,04300623
1179601251,coffee... and bananas,Greifenhagener Straße 19,10437,52.548594,13.4163743,03601346
1187333100,Stulle mit Brot,,,52.5046568,13.3253099,04501041
1187333115,Café Lila,,,52.5036379,13.3256024,04501042
1187355556,Brammibals Donuts,Maybachufer 8,12047,52.4950249,13.4230147,08100310
1188954400,Cappuccino Grand Cafe,Kurfürstendamm 35,10719,52.5025083,13.3236432,04501041
1188954629,Caras,Kurfürstendamm 36,10719,52.5024732,13.3234064,04501041
1194782083,Kunstpause,,,52.5190117,13.2969673,04300414
1194782107,Café Kredenz,Kantstraße 81,10627,52.5069595,13.2968527,04300416
1198087064,Florida Eiscafé,Klosterstraße 15,13581,52.530458,13.1959382,05200629
1198396904,Just a little crush,Hubertusstraße 14,12163,52.4604707,13.3248225,06100103
1209659439,Kuchenkultur,Großbeerenstraße 28d,10965,52.492664,13.3829619,02200209
1210101080,elf Gaststätte,Paul-Robeson-Straße 11,10439,52.552585,13.409725,03601141
1210996840,Blackmore,,,52.5081347,13.3017956,04300416
1217597889,Sant Buena,Torstraße 153,10115,52.5295433,13.3972965,01100415
1219857968,BagCo,,,52.5053547,13.3276348,04300622
1224145991,Rausch Schokoladenhaus,Charlottenstraße 60,10117,52.5120778,13.3911878,01100207
1226789679,alea,Kaiserdamm 3A,14057,52.5110151,13.2941867,04300414
1229303959,La Pallina,Hortensienstraße 12B,12203,52.4482443,13.3056286,06300629
1229408775,Black Fox Coffee,,10627,52.5097639,13.3055486,04300623
1231246020,Residenz Weisser See,,,52.5530058,13.4673589,03500933
1235266872,Backstube & Café,Hultschiner Damm 51,12623,52.4795856,13.6007254,10400940
1237776947,Kombrink,Dresdener Straße 27,10999,52.5040092,13.415139,02300314
1238525253,Sonnenwinkel,,,52.560721,13.4444227,03500932
1239746377,Café Lebensart,Lennéstraße 1,10785,52.5119941,13.376716,01100102
1254056139,Kaffee-Haus Madlen im Café Max,Robert-Rössle-Straße 10,13125,52.62707,13.501353,03100103
1254063155,Café Röttgen,Berliner Straße 3,13507,52.5892738,13.2836029,12200515
1254064335,Aud Réy,Holtzendorffstraße 18,14057,52.5060452,13.2958488,04300416
1255588544,dildile,,,52.4930669,13.4152562,02200213
1256737675,Mephisto,Graefestraße 10,10967,52.4940938,13.4183887,02200213
1256737702,"Dobedo / NOIR Café kleider, kuchen, künste",Graefestraße 82,10967,52.4935579,13.4184004,02200213
1256737721,TEE·SALON·IKI,Böckhstraße 50,10967,52.4943854,13.4167548,02200213
1256737730,Mitterhofers Tönchen und Lenchen,Graefestraße 18,10967,52.4929383,13.4174689,02200213
1256785842,Non Solo Vini,Güntzelstraße 26,10717,52.491639,13.3235063,04501149
1256888920,Villarge,,,52.4870704,13.4287534,08100311
1257634395,Café Korso,Südwestkorso 59,14197,52.4713881,13.3196542,04400835
1270333627,Green Wall Coffee,Sophienstraße 27,10317,52.5061361,13.4955614,11400929
1273053926,Exclusive Coffee,Tauentzienstraße 9,10789,52.5041076,13.3376151,04501042
1279671584,Café Laelia,Greifswalder Straße 50,10405,52.5370584,13.4345124,03601451
1279778647,BoBoQ Tegel Quartier,,13507,52.5901547,13.2870331,12200515
1282042781,Paris Café,Alt-Tegel 5,13507,52.5895134,13.2825568,12200515
1293209201,Winkels Cafe Restaurant Bar,Fanningerstraße 27,10365,52.5144197,13.4949395,11300725
1305230458,Arrey,,,52.5182219,13.3147959,04300619
1305276032,Zip,Pannierstraße 57,12047,52.4869118,13.4307821,08100311
1306177287,schaumschläger,Hobrechtstraße 11,12047,52.4874287,13.4271307,08100311
1306177292,Camon Coffee,Sonnenallee 27,12047,52.4865589,13.4295126,08100311
1307115261,Fincan,Altenbraker Straße 26,12051,52.4692685,13.4324824,08100208
1307115302,Café Canisi,Schierker Straße 23,12051,52.4701508,13.4315508,08100208
1309021878,Coffein Centrale,Mainzer Straße 6,10247,52.5136469,13.462356,02500830
1311121818,pera,,10711,52.5007728,13.2992627,04500936
1313014964,Cafe im Garten,,,52.3911083,13.2255407,0
1313503798,Café Kaktus,,,52.511912,13.2944229,04300414
1314614830,bagel coffee culture,Mehringdamm 66,10961,52.4906157,13.3863191,02200209
1314769761,,Markgrafenstraße 35,10117,52.51283,13.3935515,01100206
1315492722,Café Crema,Sakrower Kirchweg 1-3,14089,52.452404,13.1448711,05400944
1321276954,Bar e Gelato,,,52.3951579,13.1221793,0
1326048795,Hofcafe,,,52.4827139,13.1716037,05400942
1331751571,Altstadtcafé Cöpenick,Alt-Köpenick 16,12555,52.4463093,13.5747815,09401534
1331755902,Milchkaffee,Kirchstraße 5,12555,52.4461719,13.5763467,09401534
1332424262,Café Sibylle,Karl-Marx-Allee 72,10243,52.5171831,13.436985,02400623
1333812249,Thoben,Schöneberger Straße 8,12163,52.4639085,13.3315579,06100209
1336612570,Mr.box Tee,Carl-Schurz-Straße 25,13597,52.5366077,13.2021844,05100316
1336637898,Ciao Eisladen,,,52.5375029,13.2034027,05100316
1336663082,Taqueria Florian,,,52.5005266,13.4227441,02300314
1336725589,,,,52.5388469,13.2061316,05100316
1339054034,Long Story Short,Kantstraße 134b,10625,52.5059664,13.316565,04300624
1340883145,Marien Corner,,,52.4148464,13.4013669,07601442
1346939879,Chez Michel,,,52.5025709,13.4200198,02300314
1346939936,Cafe Dostlar,,,52.5008776,13.4289001,02300315
1348552210,Horon Cafe,,12051,52.468253,13.4297907,08100104
1348552229,Café Günseli,,12051,52.4681435,13.4287583,08100104
1348720482,Jannimu,Eisenbahnstraße 2,10997,52.5015398,13.4319234,02300315
1350015247,Cafeteria,,,52.394249,13.0890086,0
1350537933,,,,52.5124553,13.4133041,01100312
1352718186,Sonderbar,,,52.5509028,13.4200152,03601243
1363833363,Café Lebensart,Tempelhofer Damm 227,12099,52.4553547,13.3856182,07400927
1365431665,Ce la vi,,,52.5417028,13.2358828,05300737
1365742613,Two Trick Pony,Bergmannstraße 52,10961,52.4889161,13.4049368,02200211
1367516641,Egen Tied,Invalidenstraße 90,10115,52.5284889,13.3765681,01100308
1372320333,Warthe-Mahl,Warthestraße 47,12051,52.4695377,13.4234072,08100104
1374234648,Weder gestern noch morgen,Gärtnerstraße 22,10245,52.5116728,13.4611045,02500833
1374234665,Faves,Grünberger Straße 83,10245,52.5111231,13.4615464,02500833
1383039164,Café am See,Residenzstraße 43,13409,52.5652664,13.3628164,12100204
1383552996,Cafe Santraz,Reichenberger Straße 30,10999,52.4977394,13.4222421,02300417
1387515956,Bäckerei Biene Maja,Schönburgstraße 1,12103,52.465632,13.3809397,07400824
1387559098,LAP Coffee,Krossener Straße 21,10245,52.5102866,13.459235,02500833
1387922023,Café Galaxy,,,52.5332473,13.1568948,05200423
1389048016,Baretto,,10997,52.4997963,13.4387375,02300419
1389054322,Cassonade,,,52.4999124,13.4238645,02300315
1390695197,Muca,Martin-Hoffmann-Straße 16,12435,52.4944067,13.4600197,09100101
1394484108,Bundesbrot,Bundesplatz 9,10715,52.4781398,13.328193,04501151
1397070387,Staabi Back & Bistro Kiosk,,,52.5049434,13.3679278,01100104
1400842135,Weltladen Falkensee,Bahnhofstraße 44,14612,52.5624554,13.096985,0
1403784421,Cafe Sack,Kiefholzstraße 248,12437,52.4640391,13.4895725,09100304
1408380025,Caesars Eis,,,52.4236381,13.3972867,07501134
1409476638,NICO Café Bar,,12163,52.4636073,13.3321769,06100209
1412218896,Cafe Einstein,Unter den Linden 42,10117,52.517102,13.3859461,01100206
1413338645,Golferia Berlin,Wittenberger Straße 50,12689,52.5630585,13.5692916,10100103
1420377685,FrozenFire Kaffeehaus,Buntzelstraße 92,12526,52.4020992,13.5648215,09301025
1423930314,"Ryans Eis, Waffel & Co.",Eldenaer Straße 58,10247,52.5206232,13.4590452,03601453
1425004085,My First Love,,,52.4972719,13.4317026,02300417
1425707922,Icerde,,,52.4817967,13.4251322,08100206
1431722014,Coffeebar,,,52.4526349,13.287921,06400843
1431722015,Kauderwelsch,Habelschwerdter Allee 45,14195,52.452868,13.2899566,06400843
1432538587,Café Cinema,Rosenthaler Straße 39,10178,52.5241901,13.4026549,01100309
1433120465,Bandy Brooks,Karl-Liebknecht-Straße 1,,52.519203,13.402645,01100310
1438352952,Centolire,,,52.5104602,13.3881611,01100207
1442933536,,,,52.4587508,13.3894021,07400927
1444792934,Klar*motte,Nazarethkirchstraße 40,13347,52.5495968,13.3619093,01401048
1447902834,Green Pineapple,,,52.4936199,13.4273135,08100310
1453876137,Turo Cafe u. Sportsbar,Alt-Friedrichsfelde 87,10315,52.5100937,13.5180766,11400931
1454355303,Teehaus Alte Forno,Leykestraße 1,12053,52.4747017,13.4277186,08100208
1456062232,NikoDemus,,,52.4898723,13.4313321,08100311
1458852556,Romance Eis - Cafe - Snack,Alfred-Kowalke-Straße 2-4,10315,52.5054002,13.5146863,11401137
1470020221,Rosa+Schwarz,Mehringdamm 33,10961,52.4934395,13.3884678,02200208
1470688063,Göttin der Weisheit,Lenaustraße 5,12047,52.4899481,13.4253804,08100311
1470688064,Bullys Bakery,Friedelstraße 7,12047,52.4882335,13.4281088,08100311
1471137930,The Barn,Invalidenstraße 112,10115,52.5305927,13.3837117,01100415
1471966102,Eggrything,Gleimstraße 12,10437,52.5469244,13.4065317,03601142
1472505562,Charlies Tea,Eichhornstraße 1,10785,52.5058941,13.3737159,01100102
1479236385,Kleines Café,,,52.5617093,13.2069295,05100105
1486087545,Emma T.,,,52.5520167,13.4316458,03500934
1489328842,Café Luise,Luisenstraße 46,10117,52.5234286,13.379825,01100308
1489978776,Einstern,Prenzlauer Allee 195,10405,52.5396848,13.4241249,03701657
1492336682,Rosa Canina,Hufelandstraße 7,10407,52.5326044,13.4307374,03701660
1499760148,Creperie Lamour,Raumerstraße 36,10437,52.5420062,13.4210853,03601348
1505231651,Schlosscafé,,,52.4433179,13.5737816,09401534
1511340435,Cafeteria der Guttempler,Wildenbruchstraße 80,12045,52.484281,13.443209,08100312
1519970045,Stay,Grunewaldstraße 29,,52.4895119,13.3477991,07100204
1526715525,Katie’s Blue Cat,Friedelstraße 31,12047,52.4929734,13.4282957,08100310
1527934169,Churrolade Neukölln,Donaustraße 111,12043,52.4830345,13.4346087,08100314
1535709267,Mambo Billard Cafe,,,52.511768,13.6119847,10400939
1538359026,Krone Kitchen & Coffee,Oderberger Straße 38,10435,52.5397486,13.4060443,03701554
1544180781,Krumm & Schief,Rhinower Straße 5,10437,52.5484679,13.4101238,03601142
1544191099,Kaffee 50QM,Kopenhagener Straße 69,,52.5488241,13.4094243,03601142
1551867698,Tor 25,Möckernstraße 26,10963,52.4977655,13.3792487,02200207
1552051681,Oslo Kaffebar,Eichendorffstraße 13,10115,52.5310103,13.3868181,01100415
1552576662,Moonchild Coffee,Zimmerstraße 56,10117,52.5081113,13.3951983,01100207
1557125533,leuchtstoff – Kaffeebar,Siegfriedstraße 19,12051,52.4681276,13.4325447,08100208
1557276158,Gelateria Lion,Brandenburgische Straße 149,15566,52.4764786,13.6993338,0
1557465381,Liebes Bisschen,Berliner Straße 6,13187,52.5696348,13.4109162,03400723
1559866469,Dresdner Café,,,52.4540287,13.6248219,09501737
1562676230,Kaffeehaus Zeltinger,Zeltinger Platz 1A,13465,52.633383,13.289765,12400721
1569311602,Büro,,,52.5125866,13.411279,01100312
1575536843,Myxa,,,52.4902908,13.4267463,08100311
1581563474,Bruch,,,52.4869859,13.4308776,08100311
1586841130,Les Pâtisseries de Sébastien,Invalidenstraße 157,10115,52.5323549,13.396964,01100415
1587105378,Kaffeeserie,,,52.5199838,13.3922192,01100206
1587137752,Nö!,Glinkastraße 23,10117,52.5133352,13.386262,01100206
1588368446,Café alma,Hertzbergstraße 14,12055,52.4771185,13.4480371,08100415
1590031005,Einer dieser Tage,Waldstraße 32,10551,52.5322494,13.3315261,01200519
1591637176,Campus Café,Luisenstraße 13,10117,52.5248854,13.3789937,01100308
1595959821,Das Berliner Frühstück,Südostallee 169,12487,52.4554889,13.5033093,09100407
1597401733,Eiscafé Surprise,Langhansstraße 136,13086,52.5499137,13.4460153,03500935
1601806281,Helvaci Ali,Zossener Straße 16,10961,52.4910917,13.3940977,02200211
1602775598,Macondo,Gärtnerstraße 14,10245,52.5107813,13.4610674,02500833
1608905894,Green Tea Café Mamecha,Mulackstraße 33,10119,52.5272205,13.4062986,01100309
1617444761,Bäckerei Bärenstark,Ringstraße 48,12205,52.4337358,13.2868004,06300634
1621270112,Tenzan Lab.,Wörther Straße 22,10405,52.5357069,13.4210922,03701556
1632237622,Cafe am Park,,,52.4107281,13.3302591,06200423
1632310948,Café Anneliese,Teltower Damm 41,14167,52.4303799,13.2597472,06300526
1636909103,Sofia,Wrangelstraße 93,10997,52.499783,13.4393804,02300419
1648374191,Kiez Backshop,Donaustraße 118,12043,52.4838386,13.4327862,08100314
1650697555,Engels,Herrfurthstraße 21,12049,52.4767265,13.4200344,08100102
1652675145,CAFÉ CARAMEL,Sterndamm 67,12487,52.4468495,13.5071893,09100408
1659884026,Multi-Kult8 Café,,,52.5491323,13.3612195,01401048
1659884043,Sechs fünf,Müllerstraße 145A,,52.5479045,13.3559595,01400942
1663350390,Café Morgenduft,Warschauer Straße 60,10243,52.5097321,13.4517477,02500834
1685663904,Café Butter,Pappelallee 73,10437,52.5439586,13.4151937,03601346
1686209741,Jakob-Gemeinde e.V.,Rigaer Straße 86,10247,52.5173468,13.4605057,02500727
1695272245,Edel & Faul,Veteranenstraße 16,10119,52.5335102,13.40222,01100416
1699572602,Eisbox,Elberfelder Straße 27,10555,52.5222497,13.336143,01200522
1699759457,handmade Berlin,,,52.522842,13.398625,01100309
1706967652,Milchmanns,Berliner Straße 119,13187,52.568189,13.4124173,03400723
1714250170,Backshop Cafe am Deutschen Theater,Reinhardtstraße 27,10117,52.5229855,13.3828675,01100308
1717925725,Brezel Company,Lenaustraße 10,12047,52.4900924,13.4273743,08100311
1718497603,Bichou,Schönstedtstraße 14,12043,52.4825188,13.4363725,08100314
1718570743,Kuchen Zeit,Ludwigkirchplatz 12,10719,52.4970772,13.3221363,04501044
1718668798,Kaffeebar,Stargarder Straße 55a,10437,52.5446359,13.422957,03601348
1721061603,Tayas,Breisgauer Straße 14,14129,52.4375529,13.2155154,06400737
1723757955,Café Bar Sweet,Fuldastraße 1,,52.4822073,13.4340105,08100314
1731205692,Café Schwesterherz,Kopenhagener Straße 22,10437,52.5490235,13.4061879,03601142
1741956100,CentAnni,,10178,52.522285,13.3998676,01100310
1743226665,Backyard,Fichtestraße 3,10967,52.490932,13.4128265,02200212
1746692345,Leckerback Café,,,52.5036739,13.3462051,07100101
1753752059,Eis Bär,Gontermannstraße 56,12101,52.4770702,13.3711351,07400720
1762352159,Einstein Kaffee,Franklinstraße 12,10587,52.5211711,13.3292433,04300620
1766678243,Cafe am Marktplatz,,,52.6099574,13.2492081,12400619
1776499511,Café Bar Craemer,Alt-Rudow 58,12357,52.4177544,13.4953513,08401243
1777155489,Rokis café-bar fresh,,,52.5711192,13.5637402,10100101
1781450171,Princess Cheesecake,Tucholskystraße 37,10117,52.5266968,13.3931906,01100309
1781513759,Kaffee mit Zucker?,Perleberger Straße 65,10559,52.5357235,13.3573574,01200623
1794131335,Espresso House,,,52.5196945,13.4036191,01100310
1800983070,Brandi Espresso Bar,Dieffenbachstraße 63,10967,52.493128,13.4150077,02200213
1802244177,Alte Backstube,Martin-Buber-Straße 18,14163,52.4349241,13.2574527,06300526
1811815459,Coffeebar,Geschwister-Scholl-Straße 1,10117,52.5203576,13.3904824,01100206
1815228807,La Siesta,Garnisonkirchplatz 2,,52.5219314,13.4017393,01100310
1825925171,Hofcafé Späth,Späthstraße 80/81,12437,52.4532614,13.4737176,09100306
1831983147,Herrlich,Herrfurthstraße 7,12049,52.4774238,13.4237153,08100102
1834289225,Eisstübchen Madlen,Oderberger Straße 31,10435,52.5404253,13.4052762,03701554
1835112340,Good Morning Monday,Falckensteinstraße 18,10997,52.4974338,13.4410298,02300419
1836349969,Café Blume,Fontanestraße 32,12049,52.4818162,13.4212116,08100101
1844110215,Erchys Coffee & Plants,Choriner Straße 84,10119,52.5309738,13.4057171,01100416
1846582013,Ventelino,Hauptstraße 30,13158,52.5868154,13.3675408,03400619
1851822930,Café Zina,,10551,52.5287225,13.335613,01200519
1852738792,Cafe Palladin,Pallasstraße 8,10781,52.494573,13.3580211,07100103
1860372428,Padrino,Hermannstraße 206,12049,52.4766304,13.4269976,08100207
1860400733,Breggs,Oranienburger Straße 84,10178,52.5235834,13.3994669,01100309
1860404844,Comebuy,Oranienburger Straße 83,10178,52.5235963,13.3992021,01100309
1862881461,Credo,Westfälische Straße 27a,10709,52.4955276,13.2985304,04500938
1863558440,lue,Hufelandstraße 18,10407,52.5317262,13.4319571,03701660
1868541156,Eis Hennig,Mariendorfer Damm 143,12107,52.4387677,13.3883529,07501134
1870419333,The Cup,Winterfeldtstraße 54i,10781,52.4969107,13.3520038,07100102
1870419336,Coffee Date,Winterfeldtstraße 48,10781,52.4970766,13.3531602,07100102
1870419338,Café Honig,Winterfeldtstraße 46,10781,52.4971233,13.3534856,07100102
1870490929,Baltas Coffee Shop,Goltzstraße 17,10781,52.4934156,13.3538625,07100204
1870490931,Golzo,Goltzstraße 21,10781,52.4940479,13.3540184,07100204
1870490938,Ombretta,Goltzstraße 12a,10781,52.4921071,13.3535428,07100204
1882363782,"""Wintergarten"" im Literaturhaus",,10719,52.5020358,13.3268611,04501042
1882589613,Starbucks,Kurfürstendamm 231,10719,52.503958,13.3333339,04501042
1891601074,Dosis,Wühlischstraße 27,10245,52.5094093,13.4587276,02500833
1891619034,Wahrhaft Nahrhaft,Revaler Straße 16,10245,52.5075618,13.4563419,02500834
1891835063,,,,52.3650527,13.1001679,0
1894786511,Bootshaus Café,Marienburger Straße 49,10405,52.535475,13.4228532,03701658
1898418740,Bonjour,Normannenstraße 37,10367,52.5162344,13.4825508,11300722
1905963690,,,,52.4972992,13.3240282,04501044
1905971550,Nellys,,,52.4933048,13.3221541,04501044
1905981083,Homemade,Simon-Dach-Straße 10,10245,52.5107974,13.4564059,02500833
1910446611,Matcha Harmony Café,Gabriel-Max-Straße 21,10245,52.5099219,13.4579023,02500833
1914289753,Bean 15,Lehmbruckstraße 15,10245,52.5025548,13.4528483,02500835
1914552946,Magnifique,,,52.4979356,13.3233011,04501044
1914553002,Ludwig,Ludwigkirchstraße 10,10719,52.4976244,13.3233885,04501044
1915596923,Maxway Coffee,Maaßenstraße 13,10777,52.4975547,13.3546662,07100102
1917019358,Mokkafee,Bölschestraße 7,12587,52.4477609,13.6246356,09501737
1920148932,Café Re,Märkisches Ufer 22,10179,52.513121,13.4109299,01100312
1924843944,Bonne Vie Berlin,Propststraße 1,10178,52.517285,13.407669,01100310
1927805998,SBZ Krähenfuß,Dorotheenstraße 17,10117,52.5190904,13.3943048,01100206
1927815788,K-Fetisch,Wildenbruchstraße 86,12045,52.4830906,13.4417527,08100312
1928857792,Kaffe,Immanuelkirchstraße 6,10405,52.532701,13.4232129,03701659
1930103812,Stadtschloss-Treff,Rostocker Straße 32b,10553,52.5316567,13.3259808,01200518
1932625177,Caras,,,52.5110999,13.3225045,04300624
1934149461,nibs,Bleibtreustraße 46,10623,52.5042231,13.3200365,04501041
1935018843,The Barn,Schönhauser Allee 8,10119,52.5299353,13.4106932,03701556
1944093933,Tischendorf,Friedelstraße 25,12047,52.4920765,13.4282321,08100310
1944751229,Frau Krüger,Kopenhagener Straße 37,10437,52.5482559,13.400897,03601142
1947763919,Boba Cuppa,Lychener Straße 6,10437,52.5414748,13.4152702,03601347
1948871654,Anno Domini,Klausenerplatz 21,14059,52.5184897,13.2899419,04300413
1948871666,Café Kiki,Klausenerplatz 22,14059,52.5185996,13.2899199,04300413
1948899765,Brewlin,Spandauer Damm 69,14059,52.5186754,13.2874979,04300413
1951034843,Espresso Bar,,,52.5236029,13.3851104,01100308
1956119086,Fürst & Iven Autorenbuchhandlung,Else-Ury-Bogen 601,10623,52.5051192,13.3207974,04300624
1957503593,Granoli Café,Gardeschützenweg 88,12203,52.4458234,13.3041219,06300633
1962661754,Spiers,Ohlauer Straße 4,10999,52.4970859,13.4315028,02300417
1962769142,Café Adèle,Bundesallee 142,12161,52.4770202,13.3287885,07300517
1964235485,Ralfs Torten Atelier,,,52.5331615,13.422673,03701659
1964235517,Godshot,Immanuelkirchstraße 32,10405,52.5330809,13.4228978,03701659
1964250492,Café Blaumond,Immanuelkirchstraße 3,10405,52.5329329,13.4225646,03701659
1964736150,Il Glaciale,Kollwitzstraße 59,,52.5353789,13.416651,03701556
1964818110,Guice,,,52.533147,13.40781,03701554
1965270854,Prizreni,,,52.4844549,13.4280581,08100206
1965270881,Barbar Aga,,,52.4836253,13.4307659,08100314
1971713459,Pandoras Kirchencafé,Zossener Straße 65,,52.4962467,13.3959314,02200210
1979796735,Eis Esila Café,Dörpfeldstraße 42,12489,52.4376095,13.547001,09200716
1981033693,Tzom,Dieffenbachstraße 69,10967,52.4937607,13.4125288,02200213
1994994766,Weltcafé,,,52.4998951,13.4308111,02300315
2013009711,Café & Bäckerei am Markt,,,52.4954914,13.4208452,02200213
2021504230,Cafe & Bistro im Ärztehaus,Helene-Weigel-Platz 10,12681,52.5274715,13.5424799,10100312
2024980009,Café Tagtraum,Mariannenstraße 7,10997,52.5007861,13.423276,02300314
2027152518,Cafe am Volkspark,Livländische Straße 2,10715,52.4826473,13.3258944,04501151
2028823935,Cafe Mon Cherie,Naumannstraße 48,10829,52.4814946,13.3632289,07200413
2033281023,,,10629,52.5022555,13.3166554,04501041
2033281037,SETs,Schlüterstraße 36,10629,52.5024401,13.3166875,04501041
2037492340,Orangerie Neukölln,Schierker Straße 8,12051,52.4708958,13.4368213,08100208
2049027952,Patatorito Bowls,Dörpfeldstraße 24,12489,52.4367793,13.5447188,09200716
2060775214,Lindner & Feinbäckerei,Zeltinger Platz 13,13465,52.6343912,13.2899811,12400721
2060775701,Alegria,Zeltinger Platz 15,13465,52.6343651,13.2909817,12400721
2072371209,Sarihan Frühstück,Turmstraße 39,10551,52.5268335,13.3363386,01200520
2095900330,Aux Délices Normands,Brandenburgische Straße 32,10707,52.4993125,13.3075146,04501043
2098290149,Cafe Sammeltasse,Kaiser-Wilhelm-Straße 75,12247,52.4354681,13.3447856,06200313
2098311147,INI-Keller,Straße des 17. Juni 145,10623,52.5119946,13.3241953,04300622
2102301336,Café Largo,Malplaquetstraße 33,13347,52.5506121,13.3594236,01401048
2102541972,Konditorei & Café Buchwald,Bartningallee 29,10557,52.521226,13.3476767,01200629
2102640486,Cafe am Grabensprung,Grabensprung 118,12683,52.5010625,13.5545747,10300734
2105932661,Café Humboldthain,Wiesenstraße 2,13357,52.545356,13.3779836,01300836
2121663158,Roca,,,52.505405,13.3333868,04501042
2126217579,Yesil Çam,,,52.545705,13.3616136,01401043
2126473948,Goldfries,Schwiebusser Straße 45,10965,52.4856879,13.3941757,07400721
2140292702,Engelberg,Oderberger Straße 21,10435,52.539702,13.4072172,03701554
2143425558,Mokkabar,Gneisenaustraße 93,10961,52.4919617,13.3939307,02200210
2154327887,Thea & coffee,Birkenstraße 19,10559,52.5311817,13.3463418,01200623
2155961177,"""You are welcome""",Große Hamburger Straße 15-16,10115,52.5249129,13.3989764,01100309
2157243739,Weichardts Hofladen | Cafeteria Kladow,Kladower Damm 221,14089,52.462487,13.158768,05400942
2160817394,Café Grenzenlos,Plesser Straße 1,12435,52.4892471,13.4527925,09100101
2163096456,Café Sonnenstrahl,,,52.525906,13.4777098,11300619
2166771285,,,,52.5796153,13.2937791,12200412
2167347246,Handbestand - Altbuchhandel und Kaffeehaus,Brunnenstraße 42,10115,52.5366668,13.3975708,01100416
2171343152,Bertolini,,10623,52.5068798,13.3213697,04300624
2171343193,Arme Ritter,,10623,52.5066542,13.3203788,04300624
2176128667,Cafe Kurve,Friedrich-Wilhelm-Straße 22,12103,52.458605,13.3814251,07400825
2181178529,Misch-Misch Café Bistro,Rudi-Dutschke-Straße 18a,10969,52.5070536,13.3935284,02100102
2181178530,Café Springfeld,,,52.5075282,13.3988291,02100102
2181178790,The Barn,Friedrichstraße 25,10969,52.5058194,13.3904613,02100102
2183841782,Kaffee lieben wir,Schöneberger Straße 9/10,10963,52.5032118,13.3792996,02100101
2183841788,,,,52.5050695,13.3858576,02100101
2187058416,Telefónica Basecamp,Mittelstraße 51-53,10117,52.5178809,13.3880748,01100206
2190105993,Bar Italia,,,52.4901725,13.3860728,02200209
2196151350,Dujardin,Uferstraße 12,13357,52.5508274,13.3735134,01401044
2204643562,Super,Bundesallee 161,10715,52.4820593,13.3302306,04501153
2204880969,Panke Café,Gerichtstraße 23,13347,52.5449816,13.3742252,01300836
2218321934,Das Café in der Gartenakademie,Altensteinstraße 15A,14195,52.4563332,13.2995177,06400843
2232551186,Kaffee 9,Eisenbahnstraße 43,10997,52.5018861,13.43189,02300315
2233864243,Kart World,Am Juliusturm 15-29,13599,52.53717,13.22483,05300736
2245080198,Fior di Mocca,,,52.4673434,13.4318209,08100209
2255624853,Agnes Neuhaus Café,,,52.5914557,13.3992462,03200205
2256111701,Café Wunder,Jonasstraße 7,10551,52.5277872,13.3393944,01200520
2258203499,Café Pförtner,Uferstraße 8-11,13357,52.5518654,13.3743804,01401044
2262623769,Seestern,Mohriner Allee 145,12347,52.4355445,13.4156465,08200729
2264296523,Il Milanese del Tacco,Stettiner Straße 63,13357,52.5518655,13.3840183,01300733
2275847312,Trinkaus Café,Roseggerstraße 44,12043,52.4788243,13.4444784,08100415
2284912291,The Dawn,Kurfürstendamm 20,10719,52.5039547,13.3306362,04501042
2285494280,Fräulein Frost,Manfred-von-Richthofen-Straße 29,12101,52.4818183,13.3798649,07400720
2286554245,Café TELquel,Ernst-Reuter-Platz 7,10587,52.5130534,13.3200138,04300622
2286878625,Café Montalis,Maximilian-Kolbe-Straße 16,14089,52.4968299,13.1555099,05400942
2287270716,Café ParkGenuss,,,52.4959199,13.3733975,02200207
2287794608,Eat & Enjoy,Urbanstraße 87,10967,52.4887605,13.4233995,02200213
2287826642,WonderWaffel,Adalbertstraße 88,10997,52.5017038,13.4194007,02300314
2295487012,HonigStein Cafe,Joachim-Karnatz-Allee 21,10557,52.5193181,13.3579103,01200628
2297383148,Barcode,,,52.546648,13.3626109,01401043
2298418674,Café Bades,Antonstraße 35,13347,52.5473887,13.3638,01401043
2301610457,Internet & Telecafe,,,52.5520232,13.3666409,01401049
2301610474,Hak Bäckerei,Hochstädter Straße 24,13347,52.5520042,13.3661306,01401049
2315817603,Café Friedberg,Bergmannstraße 42,10961,52.4886291,13.4011481,02200211
2318227966,Petit Café,,,52.5230531,13.6948695,0
2320709661,Café Pink,Goltzstraße 40,10781,52.4927363,13.3532929,07100204
2322237728,Cutie Pie,Lausitzer Straße 8,10999,52.4975935,13.4288505,02300417
2324082133,Kamps,,,52.5119394,13.3894483,01100207
2328402487,Lieblings-Kaffee,,12524,52.4124787,13.5721499,09301024
2329589241,Café Eule,Bülowstraße 69a,10783,52.4977522,13.3693839,02200207
2332824353,Gülünoğlu Baklava,Hermannstraße 148,12051,52.4651323,13.4328696,08100105
2335060179,Italienische Eis Manufaktur,,,52.5373431,13.2031601,05100316
2335067091,Milch & Zucker,Warschauer Straße 70,10243,52.5116533,13.4526184,02500833
2335068380,Kala,Warschauer Straße 71,10243,52.5119055,13.452735,02500833
2335073751,MELT Bistro,Grünberger Straße 40,10245,52.5121329,13.4538222,02500833
2335074680,La Tazza DOro,Grünberger Straße 40,10245,52.5121179,13.4538889,02500833
2335130703,Carik Kuruyemis,,10967,52.4903256,13.4240468,02200213
2335180297,Bistro-Café tetova,,,52.4842273,13.4345045,08100314
2336906515,Café Bistro Vili,Wilhelmsaue 134,10715,52.4849761,13.3292122,04501150
2338489620,Casa Pascale,Am Apitzsee 1A,16567,52.6561735,13.3370635,0
2342631502,Coffeebar c.t.,Universitätsstraße 6,10117,52.5189879,13.3925988,01100206
2346617841,Café Hide,Neue Bahnhofstraße 21,10245,52.5074052,13.4711984,02500832
2347398750,Carisma Bakery,Joachimsthaler Straße 19,10719,52.5012925,13.3307086,04501042
2347507107,LAP Coffee,Kantstraße 23,10623,52.5060814,13.3207031,04300624
2347507121,Coffee Drink Your Monkey,Savignyplatz 11,10623,52.5055383,13.3214359,04300624
2349075194,the coffee shop,,,52.5130194,13.3973586,01100207
2352412930,The Pink,,10625,52.5060617,13.3149028,04300624
2367435171,Café Paresüd,Prellerweg 47-49,12157,52.4599153,13.3582043,07400822
2377831972,Café Eckstern,Sodtkestraße 20,10409,52.546475,13.4335178,03601245
2383431410,Frau Honig,,,52.5215627,13.4469191,02400522
2388295426,Erdals Obst und Gemüse,,,52.4485591,13.305078,06300629
2390772266,Café Gerch,,,52.441269,13.687283,09501838
2391234910,Lou,Westfälische Straße 54,10711,52.496275,13.2935112,04500938
2398120502,goldmarie,Grimmstraße 29,10967,52.4946846,13.4156477,02200213
2398308917,Cafe minouche,Budapester Straße 6,,52.5064511,13.3437959,01100102
2406812438,La Piazza,Beerenstraße 66,14163,52.437341,13.2334557,06400839
2409135234,Café Traum,Hauptstraße 69,12159,52.4758569,13.3402464,07300517
2409187394,LuLa am Markt,Lauterstraße 14-15,12159,52.4721187,13.3350396,07300517
2410979582,Tonys Cafe,Ortolfstraße 206A,12524,52.4026799,13.5258814,09300922
2422635786,Dazwischen,Torfstraße 16,13353,52.5415936,13.3506764,01401046
2424861694,Café Viet Nam,Möllendorffstraße 87,10367,52.5205365,13.4793723,11300722
2426748297,Cookie Doughi,Tegeler Weg 23a,10589,52.5282247,13.29746,04300517
2429500285,Neumanns,Gabriel-Max-Straße 18,10245,52.5102963,13.4581081,02500833
2436745219,Kleine Schwester,,,52.503814,13.4242436,02300314
2438834478,Calm Coffee,Wühlischstraße 38,10245,52.509038,13.4592702,02500834
2439759151,Eiscafé Mauritius,Theodor-Heuss-Platz 2,14052,52.5099931,13.2735201,04200310
2441868208,Eiscafe am Nordring,Nordring 57,15366,52.5171827,13.7226791,0
2444312258,Companion Coffee,Oranienstraße 24,10999,52.501168,13.4211245,02300314
2445454961,Kunstwerk Blisse,Blissestraße 14,10713,52.4849551,13.3200649,04501146
2454290041,Sully,Leberstraße 8,,52.485329,13.3613164,07200413
2454311766,K21,,,52.4173293,13.2253912,0
2464442845,Cafe Jenseits,,,52.5005854,13.4230002,02300314
2466173887,Eiscafé Juwel,Droysenstraße 19,10629,52.502968,13.3009576,04500936
2466173900,Bluebirds,Leonhardtstraße 9,14057,52.5054853,13.2970665,04300416
2466173940,Windback-Coffee,,,52.5057082,13.2992682,04300416
2475561025,Pomeranze,Leinestraße 48,12049,52.4730163,13.4253955,08100103
2476315800,KannVa,Wexstraße 23,10715,52.4788366,13.3325366,04501153
2476384356,Cafe Kanel,,,52.473589,13.4233614,08100103
2476698389,Beach 61,,,52.4966705,13.3711719,02200207
2477049946,Belfort,,,52.5333997,13.4153768,03701556
2477072118,Isla Coffee,Hermannstraße 37,12049,52.4803102,13.4249827,08100102
2477073440,die Kaffeemaschine,Herrfurthstraße 7,12049,52.4773934,13.4236539,08100102
2479053614,Callas Café,,,52.5016056,13.3211244,04501041
2484347003,dreifünf,,,52.4861043,13.4307767,08100312
2484936123,Aromas Café,Marienburger Straße 26a,10405,52.5331589,13.4286271,03701659
2485492848,Selimiye,,10967,52.4926043,13.4220394,02200213
2491967179,L 18,,,52.4931566,13.4339937,02300418
2492377699,Café Zwei Freunde,Nordufer 5,13353,52.5394405,13.3565383,01401046
2492377707,Coruba Dream,,,52.5408872,13.357451,01401046
2493363835,Café Behring,Behringstraße 6,12437,52.4666283,13.4896876,09100304
2495554582,Frau Behrens Torten,,,52.4897974,13.3879172,02200211
2495556406,Marameo,Chamissoplatz 7,10965,52.4881298,13.3917754,02200211
2495675254,Conni Island,Heimstraße 24,10965,52.4884663,13.3972032,02200211
2496364950,Izis Bäckerei & Café,,,52.3917579,13.0943749,0
2496651180,Canteen,Bergmannstraße 3,10961,52.4900967,13.3884093,02200211
2496651195,Einstein Kaffee,Bergmannstraße 105,10961,52.4900418,13.3887714,02200211
2496651327,Café Sarotti Höfe,Mehringdamm 57,10961,52.4911669,13.3873422,02200211
2496651338,Melitta Sundström,Mehringdamm 61,10961,52.490789,13.3871797,02200209
2496651341,espressolounge,Mehringdamm 67,10961,52.4904706,13.3870665,02200209
2496752204,Fräulein nimmersatt,Bergmannstraße 95,10961,52.4896112,13.3915288,02200211
2498341346,i-café,Fraunhoferstraße 33-36,10587,52.5144214,13.3216074,04300622
2498835784,Venezia,Kantstraße 65,10627,52.5069383,13.3035027,04300623
2501081509,The visit,Nürnberger Straße 17,10789,52.5023302,13.3382153,04501042
2502014631,Atomic,Hardenbergstraße 36,10623,52.5110576,13.3239916,04300622
2502057450,WiwiCafé,Straße des 17. Juni 145,10623,52.5118067,13.3248383,04300622
2519923021,Freygeist,Alt-Pichelsdorf 1a,13595,52.5119925,13.2010234,05200634
2520042607,Day Date Berlin,Sophie-Charlotten-Straße 49,,52.5118224,13.288499,04300414
2524533110,Chokocafé,Bleibtreustraße 15,10623,52.5035933,13.3195451,04501041
2532870724,The Passion,Krumme Straße 41,10627,52.5076388,13.3091999,04300623
2532898304,Café au Lait,Kantstraße 110,10627,52.5065804,13.3057457,04300623
2541111638,Shahad,Karl-Marx-Straße 190,12055,52.4732365,13.4406406,08100208
2542846158,Cafés,Oranienstraße 56,10969,52.5037732,13.4090016,02100104
2547380145,Gina Bistrot,Zionskirchstraße 77,10119,52.532458,13.4096059,03701554
2552449932,Pallas Back-Snack & Bistro,,,52.4946637,13.3566501,07100103
2575029355,Café Kreuzzwerg,Hornstraße 23,10963,52.4937361,13.3817731,02200208
2578675608,Blaffke Kaffeebar und Rösterei,Florastraße 37,13187,52.5656023,13.4077074,03400723
2588408989,Café Mado,Gritznerstraße 43,12163,52.462474,13.3149597,06100102
2612036878,MDC Cafe,,,52.6247759,13.5017712,03100103
2613470004,Heinrichs Kitchen,Bölschestraße 11,12587,52.4481113,13.6246639,09501737
2613826861,McCafé,Prenzlauer Promenade 45,13089,52.5609121,13.4290391,03300516
2623259624,KaffeeKult,Revaler Straße 99,10245,52.5077563,13.4537124,02500834
2628471058,Five Elephant,Reichenberger Straße 101,10999,52.4933818,13.4382967,02300418
2628596238,Chapter One,Mittenwalder Straße 30,10961,52.4898185,13.3958112,02200211
2634883659,EspressoBar,Keithstraße 5,10787,52.5021268,13.3457005,07100101
2634887161,brotzeit,,,52.5003754,13.3511239,07100102
2637754155,Suß & Frei,Kurfürstendamm 114,10711,52.4974665,13.2912767,04500937
2639416051,Nothaft,Schönhauser Allee 43a,10435,52.5402263,13.4125482,03701554
2640326880,19grams,Boxhagener Straße 74,10245,52.5071039,13.4686605,02500832
2642055411,Diyar Simit Evi,,,52.4231349,13.4749346,08301037
2652913677,Cafe Tatort,Vant-Hoff-Straße 8,14195,52.4477613,13.2809256,06400843
2660995028,Da Bäckerei und Café,,,52.5128261,13.4111961,01100312
2664750640,Señorita Ploff,,,52.5537509,13.3916108,01300733
2678567862,Silo Coffee,Gabriel-Max-Straße 4,10245,52.5100341,13.4583681,02500833
2680764046,USE ggmbh,Oranienstraße 26,10999,52.5010678,13.4204778,02300314
2683662621,al teatro,,,52.4294768,13.4553755,08300934
2688558597,Deniz,Warschauer Straße 85,10243,52.5148559,13.4540863,02500830
2689706273,bRICK coffee&more,Lenaustraße 1,12047,52.4898978,13.4246172,08100311
2690960245,Uppers,,,52.4933909,13.3867428,02200208
2708769179,Lemon,Wühlischstraße 17/18,10245,52.5086094,13.4620939,02500833
2712690375,Café - Villa Oppenheim,Schloßstraße 55,14059,52.5160502,13.2981003,04300414
2722217302,Pirouette,Saarbrücker Straße 17,10405,52.5312173,13.4124939,03701554
2722970663,Café Benjamine,Sensburger Allee 26,14055,52.5098242,13.255277,04200205
2725618122,Röststätte Café,Ackerstraße 173,10115,52.5289921,13.3974614,01100309
2752211180,Kaffeeberg,Wollankstraße 70,13359,52.5609112,13.3885335,01300732
2756763446,Café KahveRengi,,,52.5641045,13.3930733,01300732
2763457969,Plötners Cafe,Anton-Saefkow-Platz 11,10369,52.5293019,13.4705843,11300617
2764078986,Giro dEspresso,Knobelsdorffstraße 47,14059,52.5129884,13.2896415,04300414
2764110685,Café Espera,Pannierstraße 6,12047,52.486663,13.431051,08100312
2772307545,Five Elephant,Alte Schönhauser Straße 14,10119,52.5267285,13.4076235,01100309
2796742907,Barachel Café,Rosenthaler Straße 51,10178,52.5255231,13.4037406,01100309
2815379155,Lila Pause,,,52.52867,13.3192881,01200517
2820028497,,Dörpfeldstraße 30,12489,52.4338086,13.5382031,09200715
2821132945,Costa,,,52.5244692,13.3689344,01200628
2822957655,LAP Coffee,Karl-Marx-Straße 101,12043,52.4794281,13.4375784,08100415
2824879440,eni Café,Belßstraße 51,12249,52.4274143,13.3650108,06200317
2824977593,Teegebäck-Haus,Waldeyerstraße 12,10247,52.5145873,13.4710438,02500729
2836862301,Haferkater,Sonntagstraße 37,10245,52.5029636,13.4692139,02500835
2836947133,Softeis und Kugeleis,Bölschestraße 75,12587,52.4562151,13.6250668,09501737
2837335509,Café Mom & Son,Lützowstraße 44,10785,52.5048459,13.3570157,01100103
2837536021,Hörnchen,Bölschestraße 54,12587,52.4538748,13.6253455,09501737
2841527486,Cafe Miro,,,52.4646563,13.3858412,07400927
2844631419,Café Alt-Tempelhof,Alt-Tempelhof 23-25,12103,52.4655683,13.3846894,07400824
2847667701,Kaffee Bohne,Rubensstraße 122,12157,52.4633342,13.3444078,07300619
2849536401,Backshop & Cafe Zeit,,,52.59681,13.346672,12601236
2852008191,Mana Moabit,Bremer Straße 67,10551,52.5282587,13.3378644,01200520
2852280633,Aviatrix,Herrfurthstraße 13,12049,52.4769416,13.4198418,08100102
2853426920,Café im Museum “Spandovia sacra”,,,52.5387319,13.2055861,05100316
2856196171,kOfain,Skalitzer Straße 66,10997,52.5002158,13.4393434,02300419
2860415301,What a Treat,Boxhagener Straße 27,10245,52.5125555,13.4583684,02500833
2861331618,Ma Maison Café & Brunch,Oraniendamm 11,13469,52.6081778,13.3235948,12500928
2861340555,Frühstückscafé Lavanda,Oraniendamm 66,13469,52.6072101,13.3241228,12601032
2864985073,Café am Feld,,,52.4071419,13.4401254,0
2869920582,Thoben,,,52.5363667,13.1809822,05200420
2880627001,Bäckerei Konditorei Café Hennigs,Waldstraße 10,15366,52.4775123,13.6143694,0
2887512101,Kaffeehaus Madlen,Bahnhofstraße 4,13125,52.613738,13.4703802,03300412
2888310036,Café Elsken,Kiehlufer 75,12059,52.4838674,13.4475129,08100419
2904138761,Cheers,,,52.5290523,13.3933697,01100415
2935221701,Petit Brunch,Schönhauser Allee 140,10437,52.5423198,13.4117981,03601142
2935229201,Cafe Juan,,,52.5642947,13.3261961,12200309
2935237610,Café Klas,Audre-Lorde-Straße 60,10997,52.5004144,13.4271747,02300315
2935334701,Rixbox,Richardstraße 1,12043,52.478905,13.4380239,08100416
2935337601,,,,52.4810938,13.4265305,08100206
2935347901,Eiscafé Gelatoni,,,52.5894704,13.2814308,12200515
2935364316,Barettino,Reuterstraße 59,12047,52.4877729,13.4287633,08100311
2935422001,Safe,Sonntagstraße 10,10245,52.5059431,13.4662755,02500834
2935582001,Funk You,Rosenthaler Straße 23,10119,52.5263436,13.4034291,01100309
2939040146,Cafe Lehmsofa,Dorfstraße 4a,13057,52.5700973,13.5369257,11100102
2940541860,KONRAD,Am Bahnhof 8,15831,52.3605804,13.4101011,0
2947954495,Krümel,Stargarder Straße 73,,52.546906,13.417571,03601346
2947989521,Populus Coffee,Naumburger Straße 4,12057,52.4667266,13.4440884,08100209
2952546542,Cafe Lounge,,,52.5668897,13.3630253,12100204
2952547136,Panda Bar,,,52.5709532,13.360916,12100103
2983759499,Eiscafe Delfin,Körtestraße 35,10967,52.4892671,13.4084215,02200212
2992722331,Spel Café,,,52.496401,13.511284,11401136
3001258774,Einstein Kaffee,Kurfürstendamm 72,10709,52.5000865,13.3060674,04500936
3007109027,LUX,Herrfurthstraße 9,12049,52.4773317,13.4230613,08100102
3017245238,Kantine Neun,,,52.5020847,13.431415,02300315
3021116548,Eiscafé Allegro,Lil-Dagover-Gasse 2,12627,52.5378357,13.603396,10200421
3026664263,Lost my Love to Italy,Torstraße 165,10115,52.5291604,13.3957945,01100309
3037805653,Espresso House,Knesebeckstraße 2,10623,52.5106062,13.322831,04300624
3039049776,Happa Happa,Smetanastraße 17;21,13088,52.5484392,13.4594412,03500936
3042132580,Café Meyer,Kollwitzstraße 26,10405,52.5331601,13.4149232,03701556
3042132628,Neue Liebe,Rykestraße 42,10405,52.5371041,13.420774,03701555
3042132700,Love At First Bite,Kollwitzstraße 42,,52.5340645,13.4158832,03701556
3045267666,Cafe im Bürgerhaus Grünau,Wassersportallee 34,12527,52.4157748,13.5781158,09301126
3045364456,Eiscafé La Gondola,Marzahner Promenade 31,12679,52.5449083,13.5495374,10100210
3047207560,Early Birds Café & Bäckerei,,,52.4907054,13.4008823,02200210
3051044948,Pausini,Kaiserin-Augusta-Straße 78,12103,52.4592426,13.3837179,07400825
3061480423,Coffee Corner,,,52.501015,13.3916123,02100102
3061546254,Café Obergfell,Lichtenrader Damm 34-36,12305,52.4108082,13.4029351,07601442
3064733044,meyan,Goltzstraße 36,10781,52.4937732,13.3535589,07100204
3065805133,Caffè Focacceria San Francesco,Kastanienallee 64,10119,52.5345909,13.4059197,01100416
3070901377,Cafeteria KSES,Greifswalder Straße 16,10405,52.5302359,13.4273788,03701660
3072343533,60 Grad,Stübbenstraße 8,10779,52.4896704,13.3370125,07200307
3072345336,Patisserie & Café Lézard,Bamberger Straße 49,10779,52.4941796,13.3375423,07200307
3073277843,Slava Berlin,Wrangelstraße 43,10997,52.4995131,13.4394071,02300419
3073303915,Telecafé,Wrangelstraße 81,10997,52.4984724,13.4425063,02300419
3077086555,Le Petit Délice,Steinweg 9,14532,52.4125102,13.2124853,0
3077900876,Auf der Suche nach dem verlorenen Glück,Nazarethkirchstraße 43,13347,52.5490597,13.3611113,01401048
3081222948,Eis Capone,Hochstraße 38,13357,52.5434345,13.3765877,01300836
3095237531,Chestnut Coffee,Kastanienallee 79,,52.5366272,13.4079224,03701554
3095299417,Görlitzer Bahnhof,Audre-Lorde-Straße 75,10997,52.4997257,13.4269411,02300315
3098125129,Matchasome,,,52.5289097,13.4076401,01100309
3098126329,Lois,Linienstraße 60,10119,52.5288123,13.4053958,01100309
3100097109,torten & schnittchen,Langhansstraße 101,13086,52.5528659,13.4366208,03500934
3104033692,Unser Café,Dänenstraße 14,10439,52.5500787,13.4082194,03601141
3140301718,,Burgsdorfstraße 16,13353,52.543135,13.3634365,01401047
3140301727,Mon Reve,Müllerstraße 163B,13353,52.5432713,13.3641848,01401047
3147455149,Spazio,Torfstraße 15,13353,52.5414197,13.3508558,01401046
3149329260,Blanke Helle,,,52.4604033,13.3706252,07400823
3152593408,NoLe,Sprengelstraße 40,13353,52.5419122,13.3563747,01401046
3157916992,Frau Behrens Torten,Rheinstraße 65,12159,52.4711198,13.3352295,07300618
3161178436,Café Maggie,Frankfurter Allee 205,10365,52.5123101,13.4908099,11300724
3164685739,Cafe am Möckernpark,Obentrautstraße 70,10963,52.4973706,13.3809365,02200208
3170513905,Paradise,Kirchstraße 25,10557,52.5242905,13.3497255,01200626
3178164315,DaBangg Teehaus,Hedwigstraße 18,12159,52.4716126,13.3361405,07300618
3180358892,Kaffeekirsche,Adalbertstraße 23,10997,52.5029849,13.4206976,02300314
3186355346,saibaba,Rigaer Straße 75,10247,52.5164237,13.4654524,02500728
3189414961,Café Wostok,Weitlingstraße 97,10317,52.5024732,13.4940034,11400929
3204976696,Coffee Fellows,Frankfurter Allee 113,10365,52.5140285,13.4758186,11300722
3204999060,Coffee Fellows,Schloßstraße 15,12163,52.4631271,13.3236499,06100103
3205029103,Coffee Fellows,Karl-Liebknecht-Straße 13,10178,52.5227223,13.4096521,01100310
3209504898,Efilim,Wrangelstraße 88,10997,52.4992864,13.4406234,02300419
3209505565,Tante Emma,,,52.5014295,13.4417758,02300316
3215791511,cafenero,Fasanenstraße 88,10623,52.5106677,13.3305481,04300622
3215985262,Café Waldemar,,,52.5026689,13.4223606,02300314
3219121362,Café M,Goltzstraße 33,10781,52.4942071,13.3536452,07100204
3219121621,Adams,Trautenaustraße 12,10717,52.4917392,13.3267475,04501149
3220715909,Café September,Haeselerstraße 20,14050,52.5138071,13.2788139,04200311
3225776361,Blue Eis-Café,Tempelhofer Damm 104,12099,52.471258,13.3850948,07400720
3229138226,My Coffee,Schloßstraße 106,12163,52.4602687,13.3242827,06100102
3235442169,Bouldergarten,,,52.4793487,13.4513117,08100418
3235730004,Café Carşı,,,52.4752259,13.4527548,08100417
3235752193,Tele-Internetcafé Sonnenallee,,,52.4753503,13.4525221,08100417
3239758882,Kaffeemitte,Weinmeisterstraße 9a,10178,52.5251621,13.406038,01100309
3239761058,LAP Coffee,Rosenthaler Straße 62,10119,52.5276447,13.4034299,01100309
3239761059,Oliv,Münzstraße 8,10178,52.5243115,13.408829,01100310
3256320761,Freudberg,,,52.4898756,13.4082246,02200212
3265557369,Greek Delicious,Knesebeckstraße 97,10623,52.5095865,13.3232008,04300624
3269283180,Mauritius,,,52.5485254,13.5060782,11200411
3296607261,Belyzium Kakao Manufaktur,Lottumstraße 15,10119,52.530919,13.406059,01100416
3296688064,LAP Coffee,Kastanienallee 47,,52.534483,13.405316,01100416
3296709961,espressomania coffee roastery,Kastanienallee 45,10119,52.534641,13.405447,01100416
3301212261,Hermann Eicke,Brunnenstraße 45,10115,52.5373773,13.3969932,01100416
3306163531,San & Bettina,Potsdamer Straße 25,14513,52.3998139,13.2506845,0
3309942461,Wine & Coffee House,Karl-Liebknecht-Straße 7,,52.5208464,13.4057651,01100310
3314477540,Rudolfs im Gästehaus,,,52.5429448,13.339221,01400938
3314954413,Eiszeitcafe,Spandauer Straße 158,14612,52.5587914,13.1342679,0
3314954424,Julias Café,Spandauer Straße 178,14612,52.5574292,13.1390933,0
3326963969,Roots Café,Libauer Straße 10,10245,52.5086641,13.4529114,02500834
3330737658,Café Bistro,,,52.520984,13.2771597,04200308
3342853687,Crêpes à manger,,,52.4967824,13.482013,11501238
3343102776,Le Bretagne,,,52.49196,13.3510758,07100204
3343102818,2 Schwestern,Grunewaldstraße 16,10823,52.4900203,13.3535008,07200409
3343102819,Café Adele,Grunewaldstraße 24,10823,52.4896334,13.3497962,07200409
3343267710,Coffeebar am Audimax,Straße des 17. Juni 135,10623,52.5123636,13.3279986,04300622
3349717793,Domae Café,Niederbarnimstraße 21,10247,52.513963,13.4592875,02500830
3349916393,Milchmädchen,Grimmstraße 30,10967,52.4948037,13.4155711,02200213
3350472097,Coffee Bergmann Roastery,,,52.4713795,13.4294252,08100104
3351605893,Lerncafé,,,52.540199,13.40025,01300834
3354053698,Lehmbrucks,Fehlerstraße 1,12161,52.4767619,13.3263263,07300515
3354430613,au petite delice,Rankestraße 31,10789,52.5031992,13.3348539,04501042
3354437236,Berliner Kaffeerösterei,Uhlandstraße 173-174,10719,52.5014612,13.3253136,04501042
3354437244,Pavlova,,,52.502109,13.3244289,04501041
3354437263,Blueberry,Uhlandstraße 168,10719,52.5006981,13.3251813,04501042
3362258043,Café Femo,,,52.3904499,13.0906763,0
3363345993,Café Cathrin,Invalidenstraße 161,10115,52.5323957,13.3979002,01100415
3367877663,chicco di caffè,,,52.5068382,13.3282532,04300622
3374664252,Cafeteria-Nord,,,52.5425837,13.3439501,01400938
3381157694,Factory Girl,Auguststraße 29,10119,52.527267,13.3989126,01100309
3391048631,BEAN HERE Café,,,52.5157307,13.4784595,11300722
3391940093,CousCous Schale,,,52.4996576,13.3036768,04500936
3394536430,Traum-Bäckerei,Matthiasstraße 11,10249,52.5231308,13.4404411,02400521
3398280593,Pursuit of Coffee,Pappelallee 36,10437,52.5466528,13.4186419,03601347
3409427012,m|a - feine Kost,Kienitzer Straße 93,12049,52.4759329,13.4262374,08100103
3411198757,Harvest,Böhmische Straße 46,12055,52.4737981,13.4490605,08100416
3418007717,Cafeteria,,,52.5896415,13.3090009,12500927
3427181066,Simit Haus,Alt-Rudow 19,12357,52.4205504,13.4921506,08401243
3442750175,Café Fleurs,Glogauer Straße 6,10999,52.4940532,13.4378061,02300418
3442988798,Cocktailgarten & Kaffeekaschemme,,,52.52446,13.4018019,01100309
3444591295,Cafe Peppe,Torgauer Straße 2,10829,52.4790103,13.3625971,07200413
3446657748,Mokalola,Leberstraße 21,10829,52.484251,13.3615931,07200413
3446661006,Café fe,Leberstraße 1-3,10829,52.4854375,13.3616363,07200413
3452093251,La Terrasse,Bornholmer Straße 2,10439,52.5541053,13.4137273,03601139
3452124072,Ruby Heo,Schönhauser Allee 81,,52.550102,13.4142436,03601243
3455613402,Der Kuchenladen,Kantstraße 138,10623,52.5058698,13.3183735,04300624
3455614576,Saftpresse,Kantstraße 138,10623,52.5058884,13.3182467,04300624
3455614578,Starbucks,Kurfürstendamm 61,10707,52.5009885,13.3127798,04501040
3456238093,Mittelpunkt-Café,Luisenstraße 39,10117,52.52183,13.3799778,01100308
3457756793,Bell’ Chicco,Rosa-Luxemburg-Straße 16,10178,52.5247545,13.4103867,01100310
3465171793,7 Schwestern,,,52.4901952,13.402718,02200210
3474035719,Hellas Feinkost,,,52.5133337,13.3043698,04300621
3474035726,Waffle Brothers,,,52.5063455,13.3097011,04300623
3474035729,Café Barachel,Wilmersdorfer Straße 52,10627,52.5089491,13.3057679,04300623
3478877036,Alte Forno Cafe,Potsdamer Straße 164,10783,52.4956357,13.3608817,07100103
3480282004,Mattea,Frankenstraße 13,10781,52.4933055,13.351924,07100204
3487251661,Café con Amore,Gierkezeile 31,10585,52.5158077,13.302583,04300621
3487433393,Du Bonheur,Brunnenstraße 39,10115,52.5362695,13.3978016,01100416
3488852926,SantAngelo,Eisenacher Straße 19,10781,52.4953926,13.349552,07100102
3499253022,Cicala Caffetteria Italiana,Kottbusser Damm 1,10967,52.4954179,13.4202243,02200213
3499253048,Carisma,Hasenheide 49,10967,52.4889133,13.4109884,02200212
3500642516,Refinery,Albrechtstraße 11b,10117,52.5213186,13.3848801,01100308
3503894822,Ora,Oranienplatz 14,10999,52.5014009,13.4160011,02300314
3511118179,Café Mandelzweig,,,52.5494104,13.349232,01400938
3518024329,Arnies,Knaackstraße 76,10435,52.5385998,13.4152714,03701555
3519164464,gut gezogen,Kollwitzstraße 74,10435,52.5370225,13.419253,03701555
3524098878,Zuka,Emser Straße 25,10719,52.4974242,13.3204209,04501044
3525872330,Melis Coffee,Prenzlauer Allee 51,10405,52.5378519,13.4238784,03701658
3530843890,Roberts Café Berlin,Bleibtreustraße 50,10623,52.5054943,13.320208,04300624
3530849180,Aura,Savignyplatz 11,10623,52.5056827,13.3214766,04300624
3542093143,Exclusive Coffee,Bismarckstraße 45-47,10627,52.5117003,13.3044118,04300621
3547096691,Der Cupcakeladen,Frankenstraße 15,10781,52.4933019,13.3527206,07100204
3562916493,Hannes Café,Buchwaldzeile 49,14089,52.4844564,13.18164,05400942
3566544710,Yeni Gala,,,52.5390599,13.2701981,05300839
3570845452,Café Baier,Schloßstraße 26,12163,52.4596337,13.323011,06100102
3573519568,Chá,Schloßstraße 100,12163,52.4593596,13.32336,06100102
3577377788,Schröders,Poelchaustraße 2,12681,52.5342235,13.5394451,10100312
3579004087,satt & glücklich,Richardplatz 21,12055,52.4740271,13.4473007,08100416
3580094293,dots,Weserstraße 191,12045,52.48647,13.4346547,08100312
3586377540,Gigis Lounge,,,52.5629228,13.3661021,12100101
3592488623,Alfima,,,52.462735,13.4833096,09100304
3593968204,Neuer Hain,,,52.5292248,13.4434803,02400520
3598904406,Coffeshop Z,Teltower Damm 25,14169,52.4326607,13.2594767,06300526
3599641327,,Teltower Damm 15,14169,52.4333509,13.2604613,06300526
3602840703,Friedl,Pappelallee 35,10437,52.5462181,13.4181564,03601346
3608353561,Eiscafé Castagno,,,52.3920818,13.2215322,0
3609505023,Waldcafe,,,52.4641975,13.5424312,09200512
3627094218,Sommerhaus KaffeeBar,Hufelandstraße 43,10407,52.5302411,13.4361889,03701660
3631630870,Einstein Kaffee,Wilmersdorfer Straße 112,10627,52.5070283,13.306805,04300623
3632387191,Café Manstein 4,Mansteinstraße 4,10783,52.4925778,13.3666134,07100206
3632408148,Dinos Eiscafé,Langenscheidtstraße 1,10827,52.4900829,13.3605679,07200411
3632641427,Café Projekt,Crellestraße 41,10827,52.4877101,13.3596813,07200411
3636472602,Five Elephant,Schwedter Straße 11,,52.5337458,13.409914,03701554
3644083393,Maracay Coffee,Stresemannstraße 72,,52.5036466,13.3839735,02100101
3644153793,Frau Maus,Rheingaustraße 4,12161,52.4682443,13.3217331,07300516
3644187393,East West Bridge,,,52.5112096,13.4565904,02500833
3644292694,Classic,Grünberger Straße 58,10245,52.511721,13.456307,02500833
3644546194,Gelapino,Rüdesheimer Straße 13,14197,52.4723163,13.3146496,04400835
3650927951,Lüttes BC,Lorenzstraße 63,12209,52.4274696,13.3311231,06200422
3654205952,Y not,Karl-Heinrich-Ulrichs-Straße 10,10787,52.5014596,13.3538868,07100103
3654379541,Galetterie Café,Inselstraße 13,10179,52.5115566,13.4132492,01100312
3655549445,Amrumer Frühstückshaus,,,52.5412496,13.3483832,01401046
3655549447,Eiskult Wedding,Fehmarner Straße 20,13353,52.5405022,13.3494011,01401046
3661696179,Espresso House,Friedrichstraße 230,10969,52.5031163,13.3908407,02100102
3666540068,Victoria Eis,Motzstraße 58,10777,52.4953555,13.3402195,07100101
3666623785,Face,Martin-Luther-Straße 22,10777,52.4967552,13.3456821,07100101
3666623788,Viktoria Eis,Motzstraße 54,10777,52.4962115,13.3428292,07100101
3666631694,Mi Rosa,Ansbacher Straße 52,10777,52.4980847,13.3397001,07100101
3666631696,Hey Schnecke,Viktoria-Luise-Platz 11,10777,52.4952211,13.3420572,07100101
3666635599,Cafe Modo,Fuggerstraße 37,10777,52.4990874,13.3416676,07100101
3668274196,Distrikt Coffee,Bergstraße 68,10115,52.53161,13.394174,01100415
3668882625,Thoben Café,Alt-Tegel 8,13507,52.5894912,13.2815209,12200515
3669516500,Italia,Ansbacher Straße 32,10789,52.500652,13.3411637,07100101
3669886010,La Petite France,Nürnberger Straße 24a,10789,52.5011142,13.3369491,04501042
3670473949,Coffee Room,Saarbrücker Straße 30,10405,52.5297886,13.4152952,03701556
3675747756,Salut,Augsburger Straße 29,10789,52.5015473,13.3347882,04501042
3676977427,LAP,Kurfürstendamm 229,10719,52.5037006,13.3321468,04501042
3677478899,Caffè Vero,,,52.5570961,13.2090849,05100104
3680820641,Café im Preußenpark,,,52.4935124,13.3133563,04501043
3688980395,ZooBa,,,52.5058089,13.3341209,04501042
3693972410,Café Schöngrau,Eisenacher Straße 79,10823,52.4886787,13.3494473,07200409
3694035419,Frau Bäckerin,Eisenacher Straße 40,10781,52.4899342,13.3488679,07100204
3704378264,mathe.cafe,Straße des 17. Juni 136,10623,52.5139707,13.3254422,04300622
3706912245,Sommergarten,,,52.5437952,13.2908749,04100101
3708064006,Cebe coffee roasters,,,52.5164903,13.4682632,02500728
3710018859,Milchbubies,Haubachstraße 16,10585,52.5156941,13.3044186,04300621
3712396679,Bistro Aleksandra,Schloßstraße 33,14059,52.5122008,13.2974658,04300414
3715481411,Café Lotka zum Schloss,Schloßstraße 38,14059,52.5129081,13.2973293,04300414
3715490341,Cafe Istanbul,Bismarckstraße 76,10627,52.5110688,13.3022071,04300623
3715794143,Kaffeerösterei RöstTeam Falkensee,,,52.561089,13.0923554,0
3717577416,,,,52.5757846,13.4131581,03400724
3719027965,Mokka-Milch-Eiscafé,Sewanstraße 174A,10319,52.4960817,13.5100846,11401135
3733553131,Seelenglück,Goethestraße 50a,10625,52.5087455,13.3089371,04300623
3734954302,Cafe Buondí,Eichendorffstraße 6,10115,52.5303309,13.3875982,01100415
3751458628,Marktwirtschaft,Marheinekeplatz 15,10961,52.489234,13.394105,02200211
3751642870,Le Bon Coin,Kollwitzstraße 42,10405,52.5339886,13.4158216,03701556
3755995854,Kiezstube,,,52.4992468,13.3930786,02100102
3756479706,Utopia Specialty Coffee,Drontheimer Straße 1B,13359,52.5571759,13.3772525,01300730
3757048825,Mamas Back+Bistro,,12524,52.4022732,13.5427067,09300923
3759638268,Die Kaffeenauten,Schützenstraße 4,12165,52.4548886,13.3244156,06100207
3761121276,Eis Tempel,Tempelhofer Damm 134,12099,52.4675228,13.3851852,07400824
3763639065,Heilehaus,Waldemarstraße 36,10999,52.5034971,13.4191496,02300314
3763639080,TABA Brasileira,Pflügerstraße 11,12047,52.4912822,13.4281879,08100311
3767970061,Rudolfs im Forum,,,52.5411515,13.3402886,01400938
3770956049,Comebuy,Joachimsthaler Straße 14,,52.5020877,13.3308709,04501042
3772705288,Eiscafé Monello,,,52.4153894,13.495359,08401244
3775184619,Café 1001,,,52.486497,13.4296791,08100311
3780185336,Art-In-Caffé,Brüsseler Straße 29,13353,52.5469933,13.3498825,01400942
3780849349,La Femme Patisserie,Residenzstraße 128,13409,52.5685937,13.3621796,12100204
3781996745,Il Ostan,Gustav-Freytag-Straße 5,10827,52.4795712,13.3500029,07200308
3782374473,Espresso Company,,,52.5014172,13.3308044,04501042
3790550758,Kaffeehaus Mila,Grolmanstraße 40,10623,52.5037283,13.324396,04501041
3798843744,Your Best Shot,Potsdamer Straße 132,,52.4988979,13.3622142,07100205
3799527239,Café San Sebastian,,,52.500615,13.325199,04501042
3799527472,Sinless Cakes,,,52.4981698,13.3250365,04501045
3800610364,Cafe Bistro Filou,,,52.493435,13.436894,02300418
3803711355,Café Zera,,10969,52.5044051,13.410638,02100104
3804233547,Impala Coffee,Schönhauser Allee 173,10119,52.5325548,13.4121626,03701554
3814164108,Bistro Café Restaurant Selgros,,,52.5543341,13.1015329,0
3826014012,Le Soleil,Nollendorfstraße 21,10777,52.4976161,13.3502476,07100102
3826014914,Reza,Maaßenstraße 4,10777,52.49854,13.3538158,07100102
3826451958,Brezel Company,Kalckreuthstraße 16,10777,52.4993584,13.3483113,07100102
3826452018,Café Herzberg,Eisenacher Straße 3A,10777,52.4995072,13.349129,07100102
3826452467,Vickis Café,Motzstraße 8,10777,52.4989406,13.3512559,07100102
3826455884,Romeo und Romeo,Motzstraße 20,10777,52.4983295,13.3493772,07100102
3830168142,Zimt & Zucker,Potsdamer Straße 103,10785,52.5004685,13.3636862,01100104
3831419367,Nothing out of the ordinary,Gabriel-Max-Straße 11,10245,52.5121807,13.459004,02500833
3832565601,Bistro am Kalenderplatz,,,52.4369971,13.4207387,08200729
3834271558,Die Löffelei,Potsdamer Straße 73,10785,52.50269,13.3656278,01100104
3837620174,Laganini,Karl-Heinrich-Ulrichs-Straße 6,10787,52.5011966,13.3539747,07100103
3837620182,Coffeelounge,,,52.5032983,13.3661611,01100104
3837626623,Coffee & Deli,Pohlstraße 65,10785,52.5007425,13.3633042,01100104
3841171912,Alara,,,52.5264932,13.3422558,01200520
3842255157,Daisies,Am Nußbaum 8,10178,52.5177858,13.4072054,01100310
3844382009,Merienda Haus,,,52.4884301,13.349918,07200409
3854351583,Roberta,Damaschkestraße 4,,52.4996833,13.3026506,04500936
3854427861,Café Fragezeichen,Goltzstraße 34,,52.494048,13.3536315,07100204
3855567146,Café Veranda,Potsdamer Straße 146,10783,52.4973293,13.3615177,07100103
3855578746,Lucca,Potsdamer Straße 137,10783,52.4969587,13.36197,07100205
3859397151,Impala Coffee,Maaßenstraße 5,10777,52.4984442,13.3544758,07100102
3861437157,Ladys Antik,,,52.461025,13.317878,06100102
3861762662,Einstein Kaffee,,10707,52.5017035,13.3174071,04501041
3861762679,Princess Cheesecake,Knesebeckstraße 32,10623,52.5033148,13.3217757,04501041
3862782314,Miro,Uhlandstraße 33,10719,52.5002822,13.3247497,04501041
3862847728,Hūftgold,Neue Bahnhofstraße 29,10245,52.5056192,13.4694947,02500834
3864797259,Café Dreikäsehoch,Kaiserdamm 20,14057,52.5105298,13.2863693,04300414
3864942884,Baci’s Coffee,Königin-Luise-Straße 39,14195,52.4582324,13.2920817,06400844
3868790051,The Barn,Auguststraße 58,10119,52.5274504,13.3981267,01100309
3868790052,Father Carpenter Coffee Brewers,Münzstraße 21,10178,52.5244438,13.4065961,01100309
3869596912,eulinchen,Bayerische Straße 12,10707,52.4960064,13.3131527,04501043
3874241761,Café Piter,Schaperstraße 14,10719,52.4996912,13.3302182,04501045
3874428957,Passenger espresso,Oppelner Straße 44,10997,52.4999253,13.4412276,02300419
3876470382,Café Bom,,,52.5489518,13.4111377,03601142
3878908357,Kaffeebar,Graefestraße 8,10967,52.4944446,13.4186046,02200213
3882208072,Alas,,10707,52.4989799,13.3140033,04501043
3883140251,Echo 36 Spätkauf,Wilhelminenhofstraße 82A,12459,52.4610262,13.5196457,09200511
3886926175,Back all in,,,52.5124933,13.4068346,01100312
3895255523,Koro Café,Rosa-Luxemburg-Straße 7,,52.5239479,13.4093818,01100310
3900932270,Anna Blume,Kollwitzstraße 83,10435,52.5380589,13.4195778,03701555
3900932440,Berg Eis,,,52.5384824,13.4173512,03701555
3900932443,Ludmilla,Sredzkistraße 33,,52.5384829,13.4171739,03701555
3900935689,werkstatt der süße,Husemannstraße 25,10435,52.5390592,13.4175556,03701555
3902472802,Milchhalle,Auguststraße 50,,52.5277703,13.4005346,01100309
3902729060,Witch Garden,,,52.5293757,13.3993624,01100309
3903343966,Edelmond,,,52.5248662,13.3951822,01100309
3903346162,Tadshikische Teestube,Oranienburger Straße 27,10117,52.5250846,13.3950698,01100309
3904910955,eliza,Sorauer Straße 6,10997,52.4990463,13.4383392,02300419
3906856105,Lap,Warschauer Straße 81,10243,52.5137288,13.4535431,02500833
3907113978,Café Jiro,Libauer Straße 13,10245,52.5085698,13.4532903,02500834
3912365975,WIM,Sonnenburger Straße 68,10437,52.5480555,13.4078676,03601142
3912478022,Eiscafe,,,52.4375884,13.5548778,09200717
3918742516,Süße Momente,Bismarckstraße 30,12169,52.4539608,13.3384671,06100208
3920547058,Canal III,Sophienstraße 5,10178,52.525315,13.401667,01100309
3922915259,Lagōm,Bleibtreustraße 4,10623,52.5065821,13.3199696,04300624
3924078583,Budapest Bagel Berlin,Elisabethkirchstraße 1,10115,52.5327461,13.3978849,01100415
3924330200,Fritz Heyn,Heynstraße 15,13187,52.5631094,13.4025798,03400721
3926671506,Blaue Bohnen Kaffeerösterei,Seumestraße 14,10245,52.5103768,13.4626022,02500833
3933415860,Mint & Basil,Niederbarnimstraße 29,10247,52.5133445,13.458102,02500830
3937513355,flat white,Weinbergsweg 23,10119,52.5308372,13.4019336,01100416
3937876094,Samán Café Bar,Invalidenstraße 151,10115,52.5322184,13.3951121,01100415
3937876096,Café Ribo,Ackerstraße 157,10115,52.5309287,13.3966067,01100415
3951294555,Cafe LaVie,Wartburgstraße 25,10825,52.4860971,13.3390066,07200307
3954285617,Lili Marleen,Crellestraße 39,10827,52.4878927,13.3601498,07200411
3954285621,Smyrna,Hauptstraße 4,10827,52.4899158,13.3594546,07200409
3954285623,The Bliss,,,52.4869704,13.3586134,07200411
3954639325,Neumanns kleine Backstube,Meißner Weg 54,12355,52.4153899,13.4776976,08401242
3956555038,Mörder Espressobar,Torstraße 199,10115,52.5282593,13.391331,01100415
3956555039,Salon Schneider,Torstraße 199,10115,52.5282123,13.3913774,01100415
3958391457,Cafe Cheeky,Anzengruberstraße 19,12043,52.4806571,13.4397666,08100415
3964610265,180° Cafe Bistro Apero,Oderstraße 52,12049,52.4763678,13.4189112,08100102
3968064311,Bäckerei & Konditorei Laufer,Heinsestraße 37,13467,52.6176794,13.3059217,12400722
3986748898,Atopia Berlin,Prenzlauer Allee 187,10405,52.5416001,13.4252032,03601348
3987051075,Starbucks,,,52.5195867,13.4152257,01100311
3993562057,Zazza,Schönleinstraße 7b,10967,52.4919822,13.4206473,02200213
4006159589,Mauercafé,Bernauer Straße 117,13355,52.5342457,13.387974,01300835
4007032906,OASE,Gustav-Meyer-Allee 25,13355,52.5404582,13.3855242,01300835
4024075045,Bienennest,,,52.480298,13.439076,08100415
4024075048,Cafè Mignón,Donaustraße 84,12043,52.479073,13.4415376,08100415
4024676693,Zeitenträumer,Fanningerstraße 55,10365,52.5139371,13.4998139,11300725
4026592677,GM 26,Gutsmuthsstraße 26,12163,52.4643814,13.3260177,06100103
4029454023,7 Delikatessen,Deitmerstraße 7,12163,52.4589454,13.3254346,06100102
4034138652,Pfeiffers,Oranienstraße 17,10999,52.5005468,13.4228384,02300314
4035165240,Kremanski,Adalbertstraße 96,10999,52.5000786,13.4177996,02300314
4050299293,Morgenmuffel,Kameruner Straße 12,13351,52.550019,13.3457554,01400938
4053475456,La Tortuga,Koloniestraße 23,,52.5583606,13.3791243,01300730
4054630091,Stück vom Glück,Wilhelm-Kuhr-Straße 2,13187,52.5694221,13.3999566,03400721
4059516804,Belle Alliance,,,52.4914577,13.3866204,02200209
4061488018,Zur Mieze,Wilmersdorfer Straße 158,10585,52.5158819,13.3048496,04300621
4061948091,Hank Chinaski,Koloniestraße 32,13359,52.5595707,13.3797506,01300730
4065458964,Mahlzeit Kreuzberg,Alexandrinenstraße 1a,10969,52.4988597,13.4001174,02100105
4066840140,Enjoy Bubble Tea,Sonntagstraße 6,10245,52.505292,13.4670571,02500834
4100233309,Gartenlaube,,,52.5690522,13.1955808,05100101
4103514010,passenger coffee,Elsenstraße 38,12435,52.4874342,13.4516916,09100101
4104554190,Mintys,Torstraße 178,10115,52.528431,13.3943594,01100309
4105132823,Café Flora,Philippstraße 13,10115,52.5247823,13.3828345,01100308
4107024538,Café Pilz,Weisestraße 58,12049,52.4784979,13.4237818,08100102
4107529092,Saaldeck,Karl-Marx-Allee 103a,,52.5173667,13.4435436,02400522
4109452993,Café Max,,,52.4287391,13.164943,06400735
4127536098,JoCa,,,52.5724005,13.1955885,05100101
4128553443,Freiraum,Katzbachstraße 24,10965,52.4862364,13.376384,02200209
4137093098,Eiscafé Fontana,Adolf-Grimme-Ring 12,14532,52.4035396,13.2203793,0
4138548489,Flop Cafe,Otawistraße 11,13351,52.5551324,13.3411784,01400937
4138608262,Classic,Falckensteinstraße 4,10997,52.4997282,13.443332,02300419
4139413003,Café Güneş,Koloniestraße 143,13359,52.5568941,13.3775583,01300730
4142947098,Ploetz,Czeminskistraße 4,10829,52.4873212,13.3631191,07200414
4143174675,Café LichtHaus,Ollenhauerstraße 99,13403,52.5719365,13.3304874,12200307
4149996991,Kiosk Bäckerei Café,,,52.5292294,13.3002129,04300517
4153062559,IlCaffé della Peppina,Samariterstraße 14,10247,52.5176546,13.4659567,02500728
4153838983,café und bistro freysinn,,,52.5397894,13.3881318,01300835
4157496899,Bar Sigismondo,Kopenhagener Straße 6,,52.5489243,13.4115196,03601142
4159749894,The Store Kitchen,Torstraße 1,10119,52.5275642,13.4156767,03701556
4173963655,Der Eisladen,Bausdorfstraße 65,12621,52.5129778,13.5946089,10400835
4188062814,Café Konzerthaus,,,52.5138051,13.3917145,01100206
4205495690,Bread&Coffee,,,52.4305547,13.3178921,06200421
4220986644,Hallmann & Klee,Böhmische Straße 13,12055,52.4738178,13.4497145,08100417
4221964045,Spitz+Pfau,Knesebeckstraße 20-21,10623,52.5073652,13.322369,04300624
4222272408,May Café,Chausseestraße 21,,52.5304372,13.3834937,01100308
4224268268,Çarik Kuruyemiş & Cafe,Müllerstraße 39,13353,52.5498065,13.353569,01400942
4231573655,Karaca,Chausseestraße 106,10115,52.5316389,13.3813837,01100308
4239735870,Storchencafé,,,52.5791896,13.4816865,11100101
4250113289,Kalimera,,,52.5173585,13.3076546,04300619
4254607601,Cadadia,Marburger Straße 12,10789,52.5021882,13.336452,04501042
4259417431,Café Non,,,52.510268,13.2822504,04200311
4267091828,,,,52.5337314,13.3844938,01100414
4271022999,Bio Company,Kladower Damm 362-364,14089,52.4555175,13.1449754,05400944
4279698596,Café Strasburg,Samariterstraße 29,10247,52.5177632,13.4655948,02500728
4288728889,Café Katulki,Friedelstraße 40,12047,52.4919183,13.4277045,08100310
4295224659,What do you fancy love?,Knesebeckstraße 68-69,10623,52.5029511,13.3222749,04501041
4298835594,Einstein Kaffee,,10178,52.5211518,13.4149628,01100310
4303818517,La Luna,,,52.5203994,13.410896,01100310
4304149095,This is Coco,Gabriel-Max-Straße 15A,,52.5111196,13.4584912,02500833
4304242992,Neo1,Lettestraße 1,10437,52.5428218,13.4206355,03601347
4311571896,Café Schmus,Lindenstraße 9-14,10969,52.502348,13.3958211,02100103
4311571992,No Fire No Glory,Rykestraße 45,10405,52.5366338,13.4203939,03701555
4311621694,Café Auszeit,Hermann-Hesse-Straße 15,13156,52.5802689,13.4009371,03200206
4315470219,Cafe Tee Stube,,,52.5501691,13.3489468,01400938
4318473024,Cafe Bar Adam,Jägerstraße 18,13595,52.5209108,13.195933,05200630
4320869993,OM Coffee,Karl-Marx-Allee 136,10243,52.5158088,13.4513207,02400624
4321142332,Ein Moment,Lehrter Straße 26a,10557,52.5331947,13.3601271,01200624
4321142333,Moab,Lehrter Straße 36,10557,52.5343204,13.3591683,01200624
4327994292,Puffle Bees,Brunnenstraße 165,10119,52.5339869,13.3980928,01100415
4336930048,The Coffee Brothers,Skalitzer Straße 134,10999,52.499273,13.4192421,02300314
4339053528,M&M Back,,,52.5668217,13.3630587,12100204
4344303889,Bonanza,Adalbertstraße 70,10997,52.504183,13.420258,02300314
4349755837,Nemo,,,52.5516269,13.4308133,03500934
4351511590,Salon Cafebar 63,,,52.5461691,13.3583304,01400942
4351511614,Café Appetito,,,52.5499546,13.3643885,01401049
4353662601,Momenti Di Vini,Florastraße 15,13187,52.5655124,13.4009605,03400721
4358916930,19grams,Chausseestraße 36,10115,52.5331293,13.3801916,01100308
4360052976,Tatli,Karl-Marx-Straße 208,12055,52.4714766,13.4411066,08100208
4362369189,Café Wetterstein,Alt-Tegel 18,13507,52.589048,13.2798355,12200515
4362864756,Companion Tea & Coffee,Weserstraße 166,12045,52.4833964,13.441162,08100312
4363560907,Le Petit Four Konditorei & Eiscafé,Weimarische Straße 6A,10715,52.4800619,13.3240302,04501151
4363560908,Mainzer Coffee & more,Mainzer Straße 10,10715,52.479707,13.3256761,04501151
4363623293,Café Pelmeni,,,52.5065811,13.3039486,04300623
4368477789,Berliner Kaffeerösterei,Kaiserdamm 90,14057,52.5098553,13.2832082,04200311
4373603313,Kater und Goldfisch,Exerzierstraße 1,13357,52.5534862,13.3764874,01401044
4375183730,Kaffee Container,,,52.5257843,13.3822169,01100308
4379223590,Tabatabar,,12105,52.4427167,13.3804584,07501029
4379223592,Café Backshop,,,52.438783,13.380017,07501029
4379228000,Café Tulipes,Kaiserstraße 6,,52.4450418,13.3748899,07501029
4379404319,The Visit Coffee Roastery,Adalbertstraße 9,10999,52.5006694,13.419486,02300314
4381394734,Heli,Torfstraße 23,13353,52.5408784,13.3508029,01401046
4383692990,Lacino Coffee,Grunewaldstraße 83,10823,52.48999,13.3551639,07200409
4383715445,Black Hat Coffee,Grunewaldstraße 9A,10823,52.4902531,13.3558239,07200409
4383882560,Cafe Delux,Potsdamer Straße 189,10783,52.4925932,13.3611772,07100206
4386329689,Abia,Wilhelmstraße 76,10117,52.514648,13.3812369,01100205
4388936224,Starbucks,,,52.5212498,13.4115986,01100310
4392776226,Café Tukan,,10779,52.4884054,13.3400929,07200307
4393406590,Blaue Stunde Tagesbar,Oderstraße 22,12051,52.4708197,13.4201717,08100103
4393654941,Snack Corner,,,52.5413805,13.342387,01400938
4394846891,Waldcafe Kleinmachnow,Zehlendorfer Damm 9,14532,52.416651,13.2460109,0
4396174589,Eisdiele Müggelheim,Odernheimer Straße 2,,52.4121302,13.6634088,09401635
4396230906,Blessing 66,Triftstraße 3,,52.5446687,13.3606967,01401047
4396255795,Bistro Linie 68,,,52.375587,13.6493666,09301228
4396258266,,,,52.542167,13.5003356,11200515
4397586158,PapalaCup,Gotenstraße 55,10829,52.4798435,13.3603929,07200413
4400663294,Shapesty,Augsburger Straße 37,10789,52.5023791,13.3327244,04501042
4403423603,Café Info-Station,Fritz-Reuter-Allee 44,12359,52.4486878,13.4496127,08200726
4408597028,Eisfabrik Alan,Wundtstraße 4,14059,52.5130872,13.2943449,04300414
4409599067,BONA,Hermannstraße 178,12051,52.4716914,13.4292751,08100104
4420510590,Hallesches Haus,Tempelhofer Ufer 1,10961,52.4972613,13.3902445,02200210
4420588472,LAP Coffee,Falckensteinstraße 5,10997,52.4995235,13.443153,02300419
4422077489,Arkaden Café,,,52.6692,13.287814,0
4423364915,Coffee Fellows,Danziger Straße 1,10435,52.5411151,13.4127101,03601347
4426025291,Café Prana,Pasteurstraße 2,10407,52.5342481,13.4315383,03701660
4427678891,Cafe Schneiderei,Kuglerstraße 31,10439,52.5521855,13.4193768,03601243
4434157436,Kaffefreunde,Bänschstraße 73,10247,52.5178016,13.46852,02500728
4437373441,Barachel Café,,,52.5104727,13.3809076,01100205
4440405277,Cafe Babylon,Schönwalder Straße 84,13585,52.5484269,13.2005567,05100315
4450505158,Kali Café Berlin,Görlitzer Straße 38,10997,52.4958226,13.4432288,02300419
4450832743,Miss Coconut,Pappelallee 86,10437,52.542161,13.4132554,03601346
4452235647,Naranj,Gärtnerstraße 27,10245,52.509657,13.4601239,02500833
4452581567,Spontan,Gotzkowskystraße 29,10555,52.5250312,13.3302489,01200521
4454024993,Neue Nachbarschaft,Beusselstraße 44,10553,52.5326839,13.3287187,01200519
4454024999,D Joma,Beusselstraße 23,10553,52.5290074,13.3288778,01200518
4454025007,Amore,Beusselstraße 70,10553,52.5285096,13.328434,01200518
4454265670,Café Pinguin,Lübecker Straße 52,10559,52.5265669,13.345171,01200625
4457967928,Zwipf,Charlottenstraße 75,10117,52.5091533,13.3918004,01100207
4457967930,Linnen,Eberswalder Straße 35,,52.5414548,13.4089012,03601142
4461324689,Xantener Eck,,,52.4988892,13.3075292,04501043
4466099589,Cafe BrotZeit,,,52.525913,13.3064194,04300518
4471345153,Roasters,Hermannstraße 176,12051,52.4714251,13.429405,08100208
4476720170,Ataya Caffe,Zelterstraße 6,10439,52.5471622,13.4271348,03601244
4487529790,Pension Palermo,,,52.5501014,13.4172845,03601243
4496928662,Cappuccino Grand Cafe,,,52.526552,13.3936902,01100309
4500066989,Sardinen.Bar,Grunewaldstraße 79,10823,52.4897709,13.3537997,07200409
4502302720,Bamboo Bowl,Ruschestraße 103,10365,52.5147732,13.4864215,11300724
4511819790,Chaplins,Kastanienallee 75,10435,52.5362898,13.4075518,03701554
4524915745,Lovelite,Haasestraße 1,10245,52.5067569,13.4616719,02500834
4533857097,Mokofuk,Grünberger Straße 75,10245,52.5113938,13.4597283,02500833
4534110451,Espresso & Co,Grünberger Straße 77,10245,52.5113264,13.4601956,02500833
4539977293,BagCo Coffee Bar,Prager Platz 6,10779,52.4930779,13.3336796,04501152
4544613894,Blend Coffee House,Hermannstraße 164,,52.4693664,13.4305047,08100208
4549272413,Vilja Café und Deli,Maximilianstraße 1,,52.5613254,13.4125042,03400826
4552354928,Hafermilch,Albrechtstraße 114,12167,52.4548601,13.3274042,06100207
4556214756,Formel 8 / Billard-Café,Ilsenburger Straße 15,10589,52.5252735,13.3104697,04300518
4556223565,Billardtreff 65,Seestraße 50,13347,52.5509855,13.3541292,01401048
4558464515,Elterncafé,,,52.4949152,13.4308773,02300418
4561702262,Cafeteria,Lindenberger Weg 27,13125,52.6313524,13.5059061,03100102
4582601010,Benedict,Uhlandstraße 49,10719,52.4968973,13.3239431,04501044
4583828567,Jearsey Lounge,Germaniastraße 150,12099,52.4656684,13.3940423,07400927
4583915411,Schokochino,Eberswalder Straße 22,,52.5409779,13.41098,03701554
4583979874,Café Pankow,,,52.5852166,13.4285089,03400725
4589778497,Café Crusty,,,52.4969872,13.5234075,11401137
4596967089,Café Wilhelm,,,52.520454,13.3950002,01100206
4609342155,Café CoCo StadtteilCafé,Fischerinsel 3,10179,52.5131565,13.4094568,01100312
4611812289,Carlaconradpaula,Müggelstraße 13,10247,52.510332,13.4688974,02500832
4632664177,Sportbar Stadtmitte,Kommandantenstraße 34,10969,52.5058775,13.4061616,02100104
4634187339,Café Sartre,Birkenstraße 32,10551,52.5323705,13.3417647,01200520
4639811894,Antoni Berlin,,,52.444898,13.5763293,09401534
4640055908,Hofcafe Stadtgut Blankenfelde,,,52.6179754,13.3930382,03200204
4668245759,Citronella,Falckensteinstraße 9,10997,52.49892,13.4425358,02300419
4682864289,Masha’s,Bouchéstraße 15,12435,52.4912481,13.4498138,09100101
4685017689,,,,52.5060143,13.3030032,04300623
4687481459,Café Carlotta,,,52.4773358,13.7000378,0
4687628165,WonderWaffel,Grüntaler Straße 88,13357,52.5509869,13.3848457,01300733
4690337763,Einstein Kaffee,Friedrichstraße 166,10117,52.5152105,13.3888747,01100206
4692382890,The Rabbit Café,Strelitzer Straße 62,10115,52.535335,13.394977,01100415
4698342025,Grenander,Wittenbergplatz 3a,10789,52.5008818,13.343105,07100101
4698884695,Café Central,Rathenaustraße 2,12459,52.4584424,13.5270166,09200512
4700309060,Café Fjura,Gardeschützenweg 116,12203,52.4440505,13.299792,06300633
4707272047,Caffetteria da Emiliano,Welserstraße 25,10777,52.4988145,13.3419925,07100101
4707989357,,Bergmannstraße 59,10961,52.4889454,13.4029223,02200211
4708524876,Zeit für Brot,,,52.4990662,13.3121976,04501043
4726496389,Fine Bagels,Warschauer Straße 74,10243,52.5126629,13.4530743,02500833
4735919424,Simit Evi,Donaustraße 103,,52.4818184,13.4369318,08100314
4736286826,Lê Orchid V Noir,,,52.5020648,13.3302726,04501042
4736286836,Luardi,,,52.5019215,13.3292759,04501042
4737034922,Cafe Schloss Biesdorf,Alt-Biesdorf 55,12683,52.5098027,13.557816,10300733
4743878699,Talea,Ebersstraße 27,10827,52.4800527,13.3518455,07200308
4746867826,Steel Vintage Bikes Café,Wilhelmstraße 91,10117,52.5127409,13.3822271,01100205
4749062076,Lit Coffeebar & Bakery,Jagowstraße 23,10555,52.5240862,13.3343041,01200522
4754036014,Gelato Bacio,,,52.3868162,13.4044254,07601544
4757424123,Sandwichart,Am Postbahnhof 16,10243,52.5077392,13.437601,02400625
4761858225,Alnatura Café-Bar,,10551,52.5267982,13.3327838,01200521
4770924228,Cafe Sommerlust,,,52.5780868,13.4040512,03400722
4773332991,AO Pop up,Wühlischstraße 34,10245,52.5092925,13.4581368,02500834
4773438621,Two Planets,Hermannstraße 230,12049,52.4813733,13.4251646,08100206
4775081056,Café Komine,Welserstraße 13-15,10777,52.4978285,13.3417388,07100101
4788621923,Giovanni L.,,12163,52.4628469,13.3234125,06100103
4796821923,Café Bärbucha,Eisenacher Straße 73,10823,52.4869117,13.3503741,07200409
4799733106,Schön & Gut,Neue Schönholzer Straße 2,13187,52.5687309,13.4015207,03400721
4807883323,Ooh la la la,Kollwitzstraße 44,10405,52.5341747,13.4160092,03701556
4809861322,Central,Brunnenstraße 49,10115,52.5381519,13.3964017,01100416
4811480960,Café Haubach,Wilmersdorfer Straße 156,10585,52.5153982,13.3048955,04300621
4812222794,Grano de Café,,,52.5650467,13.3938733,03400721
4813846795,Zeitraum Kaffee,Bundesallee 93,12161,52.4669431,13.3280048,07300516
4816206584,Thoben,,,52.5336047,13.1978175,05200629
4832553124,Café Latrio Bistro,Monbijouplatz 4,,52.5233023,13.3991175,01100309
4834609490,Ceco Coffee,Breite Straße 13,13187,52.570844,13.4077783,03400722
4836753766,Coffee & Cookies,Stresemannstraße 107,,52.5061288,13.3799037,02100101
4840148119,Coffea,Ebertystraße 49,10249,52.5258152,13.4519225,02500726
4840148120,Espresso Home,,,52.5253182,13.45192,02500726
4841047608,ewig freunde,Raumerstraße 9,10437,52.5428261,13.418085,03601347
4841361444,Muckel Cafe,Am Friedrichshain 7,10407,52.5294745,13.4338872,03701660
4852664721,St. Oberholz Zehdenicker,Zehdenicker Straße 1,10119,52.529775,13.4074888,03701554
4853758032,Einstein Kaffee,,,52.5050476,13.3214234,04300624
4855728623,Bronco Caffee,Kastanienallee 97,10435,52.5391997,13.4106316,03701554
4868088439,Zühli,,,52.5465942,13.5493907,10100210
4868088442,Cafe im Ärztehaus,,,52.5553107,13.5612126,10100208
4870092310,Exlusive Coffee,Brückenstraße 6,,52.513708,13.4180811,01100313
4870379004,hub:raum Café,,,52.4963075,13.3578795,07100103
4887801415,KulturCafe,Friedelstraße 28,,52.4924863,13.4282099,08100310
4894301676,Café MoKannTi,Lettestraße 9,10437,52.5437677,13.4183564,03601347
4897648137,Café Auenhof,,,52.6140078,13.3212405,12400723
4897919620,Monti,Simon-Dach-Straße 3,10245,52.5123173,13.4570932,02500833
4900462126,Sa Jour,Westfälische Straße 39,,52.4963325,13.294772,04500938
4906464456,die espressonisten,Zimmerstraße 90,10117,52.5076675,13.3879776,01100205
4908049918,Smoobar Cafe,Grünberger Straße 79,10245,52.5113167,13.4602606,02500833
4913646735,Café Zeitlos,Uhlandallee 55,15732,52.3724071,13.6265263,0
4917255821,The Cottage,,,52.5393727,13.573131,10100316
4918140021,Blixen Coffee Shop,Wilhelmsruher Damm 140,13439,52.5972853,13.3549199,12601134
4920890147,Rosa Parks Café,Soldiner Straße 13,13359,52.5577577,13.390261,01300732
4932293921,Luftschlößchen,Winsstraße 17,10405,52.5336025,13.4252749,03701659
4934767991,Cafè Bäckerei & Eis,Bornholmer Straße 14,10439,52.5544076,13.4085311,03601139
4936116180,Coco Bowl,,,52.5469571,13.5927011,10200417
4936116181,La Boom,Alte Hellersdorfer Straße 146,,52.5467225,13.5926139,10200417
4938816064,The Heinrichs,Kastanienallee 99b,10435,52.539388,13.4108883,03701554
4940613664,Bibliotheks-Café,,,52.5157744,13.4041102,01100207
4948137828,Süßfein,Brunnenstraße 156,10115,52.5354848,13.3974744,01100415
4948140226,Brot und Schokolade,,,52.5082522,13.2945832,04300416
4948143721,Nano Kaffee,,,52.5008383,13.4172249,02300314
4954659369,Petit Bijou,Monbijoustraße 1,10117,52.5226674,13.3934847,01100309
4955139082,Cafe Feysbuk,,,52.5613032,13.3815015,01300731
4957187583,Café CoCosh,Muthesiusstraße 8,12163,52.4591109,13.3207262,06100102
4962929345,Café zur Alten Zicke,Am Nußbaum 8,10178,52.5177268,13.4071636,01100310
4970047921,Le Cafe LACOSTE,Neue Schönhauser Straße 8,10178,52.5247328,13.4041136,01100309
4970394421,Ben Rahim,Sophienstraße 7A,10178,52.5249782,13.4018807,01100309
4976233223,Sora Cafe,Erich-Weinert-Straße 55,10439,52.5500125,13.4225968,03601244
4979634421,Café Engel,Prager Platz 1-3,10779,52.493568,13.3330477,04501152
4979653922,Cafe Kalwil,Motzstraße 30,10777,52.4977876,13.3476624,07100102
4992082200,Anzengruberin,Anzengruberstraße 3,12043,52.4801385,13.4380194,08100415
4992716421,Café Blaupause,Paul-Zobel-Straße 9,10367,52.5252771,13.483169,11300620
4994211666,M&M Back,Wilmersdorfer Straße 143-144,10585,52.5126327,13.3052776,04300621
4999166919,Hashtag Berlin,Krausenstraße 41,,52.509859,13.3992936,01100207
5000336777,wild caffè,Südwestkorso 63,12161,52.4730618,13.321831,07300515
5001796521,Aprilkind,Simon-Dach-Straße 15,10245,52.5096423,13.4558099,02500834
5001897234,Karanfil,Weisestraße 3,12049,52.4799239,13.4229832,08100102
5001897235,Mandolin Cafe,Mahlower Straße 7,12049,52.4798997,13.4227742,08100102
5008942947,Nah am Wasser Deli,Breisgauer Straße 2,14129,52.439546,13.2143132,06400737
5012404710,Modi,Ringbahnstraße 4,10711,52.4980587,13.2893891,04500937
5015139010,Endless Summer,,,52.4985132,13.370772,02200207
5018132446,Wiesenbaude,Buschsperlingweg 1,13129,52.5885513,13.4351679,03400725
5028871003,Kreuz Kaffee,,,52.4944972,13.4289711,02300417
5032732328,,Soldiner Straße 32,13359,52.5593061,13.3846108,01300731
5036098432,Dura,,,52.5018627,13.3886359,02100101
5039528621,Schimpause,Dunckerstraße 85,10437,52.5414252,13.4195481,03601347
5043397654,Konditorei Engelmann,Walther-Huth-Straße 4,12487,52.4383941,13.5094825,09100409
5053950406,Cafe Campus,Groß-Berliner Damm 138,12489,52.4356902,13.5293987,09200715
5056884634,Tee Stube,,,52.5244953,13.3296302,01200521
5062614777,,,,52.5221419,13.3634943,01200628
5065842471,mila,,,52.4929213,13.4214212,02200213
5075102636,Jacobi Kaffeebar,,,52.4855829,13.4252022,08100206
5075147517,Café Paradies,,,52.4852757,13.4290998,08100314
5078345122,Eiscafé Flavio Gustibus,,,52.5237558,13.6210804,10400938
5096173921,Daily by Dallmayr,Friedrichstraße 84,,52.5167176,13.3891536,01100206
5119724959,The Small Garden,,,52.5080178,13.3919864,01100207
5137029321,JUBEL feine pâtisserie,Hufelandstraße 10,10407,52.5323532,13.4305604,03701660
5137247752,Café Bio Company,,,52.4928017,13.3716141,02200207
5140817025,What do you fancy love?,Linienstraße 41,10119,52.5283396,13.4095797,01100310
5141153071,KLEiNES SONNTAG,Sonntagstraße 29,10245,52.5058246,13.4659577,02500834
5143734522,Eiscafé Eichis-Backstube,Seestraße 2,15537,52.3930156,13.7120777,0
5151283976,Piccolina,,,52.4965964,13.2920059,04500938
5163601745,Cafe Lounge,,,52.5588118,13.0901992,0
5171625294,Back-Café Arelya,Ziekowstraße 114,13509,52.589443,13.2930058,12500824
5171804582,Café Bernstein,Gärtnerstraße 15,10245,52.511267,13.4612726,02500833
5180183156,44 Brekkie,Böckhstraße 30,10967,52.4931988,13.4214068,02200213
5191542959,DADA-Künstlercafè,Kantstraße 87a,10627,52.5066402,13.2969945,04300416
5191728812,Kleines Café,,,52.5158579,13.1970971,05200630
5191728949,amon,,,52.5254125,13.1966725,05200630
5191728956,Cafe Klatsch,,,52.5328452,13.1976627,05200629
5191729407,Smyrna,,,52.5317465,13.1970259,05200629
5198128800,Kara-Mell,,,52.5240698,13.3517529,01200626
5198695390,KleinMein,Waldeyerstraße 9,10247,52.5149551,13.4714478,02500729
5208178034,Meine Mama,Franklinstraße 21,,52.5210544,13.3275814,04300620
5216026322,Cafe im Neuen Museum,,,52.5198075,13.3980659,01100206
5218164764,Mom‘s Kitchen by ZUKA,,,52.5060829,13.3145182,04300624
5222154376,Nonna,Greifswalder Straße 229,10405,52.5290266,13.4242482,03701659
5224049493,Na und,Prenzlauer Allee 193,10405,52.5399504,13.4242726,03601348
5240854955,A Never Ending Love Story,Kantstraße 25,,52.506233,13.3199223,04300624
5252959190,Kito Kaffee Eis Kuchen,,,52.5204269,13.2997629,04300412
5256465930,Vital – Coffee & Food,Neue Kantstraße 17,14057,52.5062632,13.2834293,04300415
5260240423,Junge,Landsberger Chaussee 17,,52.5489788,13.5983414,0
5289546925,Unser Café,Leberstraße 2,10829,52.4857179,13.3612874,07200413
5290293625,Familiencafé Zaunkönig,Lüderitzstraße 14,13351,52.5506983,13.3488695,01400938
5292513150,Monkey & Cock,Schreinerstraße 53,10247,52.517589,13.4647747,02500728
5299559822,DBolla,,,52.5002718,13.3387928,07100101
5299559823,La Piadina,,,52.5006244,13.337914,07100101
5299559826,Die Creme,,,52.5005741,13.3371955,04501045
5299559843,Vapori,,,52.5020279,13.3379256,04501042
5331604374,Healthy Bar,,,52.4999905,13.3094925,04501043
5335885121,The Boat Kaffee,Falckensteinstraße 33,10997,52.4979494,13.4419264,02300419
5336742122,The Digital Eatery,Unter den Linden 17,10117,52.5168089,13.3904178,01100206
5336750821,Luz 11,Rosa-Luxemburg-Straße 11-13,10178,52.5247036,13.4099587,01100310
5340492943,Freuden Grün,Chausseestraße 9,,52.5283359,13.386078,01100308
5352672780,Commune,Reichenberger Straße 157,10999,52.497797,13.4232699,02300417
5352672813,lêlê,,,52.4978419,13.4249523,02300417
5352673905,el Camba la che,,,52.4991763,13.4299627,02300417
5352826464,Mano Café,Skalitzer Straße 46a,10999,52.4989354,13.4305407,02300417
5354951057,Brocca Café,,,52.5474929,13.4094453,03601142
5354951068,Samer Café,,,52.5474023,13.4084651,03601142
5356347748,Baffels,Gartenstraße 92,,52.5319525,13.3892274,01100415
5368793412,Black Coffee,Schwartzkopffstraße 19,10115,52.5346652,13.3790445,01100414
5387089453,KaWi Café & Lunch,Wandlitzstraße 1-3,,52.4803978,13.5243537,11501341
5389538547,Imogti Café,,,52.5412189,13.4127493,03601142
5403969402,Ezzpresso,,,52.5533772,13.4045738,03601140
5404159223,Café Plume,Warthestraße 60,12051,52.4697903,13.4259061,08100104
5405885452,Ormado Kaffeehaus,Einbecker Straße 18,10317,52.5102156,13.5013705,11400929
5411911921,Café Smilie,Streitstraße 18,13587,52.5590203,13.2101949,05100104
5412597401,Coffee Pony,Richard-von-Weizsäcker-Platz 4,10827,52.4864674,13.3574466,07200410
5424554835,Daryas Spielcafé,Chausseestraße 55,,52.5358822,13.3767521,01100308
5433858378,Coffee For Coffee,Frankfurter Allee 70,10247,52.5142622,13.4670711,02500831
5435520822,Mugrabi,Planufer 92d,10967,52.4954879,13.4179787,02200213
5440526361,Cafe Sim,Tempelhofer Damm 123,12099,52.4688741,13.3859568,07400824
5456337638,Café Riviera,Jagowstraße 26,10555,52.52394,13.3338029,01200522
5457613817,Ca Doro,,,52.5287393,13.3838035,01100308
5465153211,bRICK,Körtestraße 32,,52.4899381,13.40836,02200212
5467487738,Cafe Friedrichs,Mierendorffplatz 2-4,10589,52.5248057,13.3041606,04300518
5471156337,Salzig & Süss,,,52.5549666,13.4219758,03400827
5472057926,Creperie im Nikolaiviertel,Propststraße 4,10178,52.5169452,13.4068574,01100310
5476711803,Reeham Coffee,Schlüterstraße 12,10625,52.5087887,13.3176613,04300624
5480181390,Answer,Kaiser-Friedrich-Straße 40,10627,52.5090532,13.3016539,04300416
5489586366,Gipfel,Görlitzer Straße 68,10997,52.4985297,13.4348417,02300419
5490189206,Café JO|JO,Nazarethkirchstraße 44,13347,52.5490158,13.3610483,01401048
5491405621,Brammibals Donuts,Danziger Straße 65,10435,52.5396174,13.4230138,03601348
5502910920,Mama Marias,Frankfurter Allee 33,10247,52.5152595,13.4613955,02500728
5503417521,Lieblings-Kaffee,,12524,52.4187796,13.5458205,09300920
5503456917,Bankert Vinyl Café,Proskauer Straße 5,10247,52.5160148,13.4608513,02500727
5503456920,Coffee Karros,,10247,52.5166257,13.4611782,02500727
5505598526,Charlot,Oderberger Straße 23,10435,52.5398383,13.4068458,03701554
5518569192,La Molisana,,,52.4885934,13.3625967,07200411
5528648738,Cinamood,Oranienburger Straße 8,10178,52.5237116,13.4002504,01100309
5528648746,Always Together,Große Hamburger Straße 24,10115,52.5239553,13.3996161,01100309
5533363915,Eiscafé Kibo,Transvaalstraße 13,13351,52.5520958,13.3414686,01400938
5534476062,The Barn,Neue Schönhauser Straße 12,10178,52.5245299,13.4041265,01100309
5558640890,JEspresso,Wiesbadener Straße 33,14197,52.4722951,13.3135147,04400834
5559462217,Der Keks,Sredzkistraße 52,10405,52.5379382,13.4204237,03701555
5574064596,Plan Café - Plan C,Planufer 92B,10967,52.4952775,13.4174367,02200213
5587550741,Truman Cafe Edeka Schäfers,,,52.4518489,13.2705479,06400842
5590788378,kaffee ingwer,Wühlischstraße 12,10245,52.508263,13.463615,02500833
5598889424,Lotte am Platz,Rüdesheimer Platz 1,14197,52.4733136,13.3170138,04400835
5611229251,Budde Kaffee,Buddestraße 31f,13507,52.5919925,13.2859161,12200515
5615415321,Bagelmann,Neue Bahnhofstraße 30,10245,52.5054593,13.4693533,02500834
5618113173,Concierge Coffee,Paul-Lincke-Ufer 39-40,,52.4961026,13.4224749,02300417
5619070387,ANNA`s ToGo,Reichsstraße 89,14052,52.5140478,13.2640212,04200310
5619908339,Mensa,,,52.5233639,13.3851786,01100308
5628609221,Kaffee 26,Jüdenstraße 26,,52.5381186,13.2030361,05100316
5633810234,Beth Café,,,52.5269237,13.3934136,01100309
5635827729,luuv,Dunckerstraße 72,10437,52.5442346,13.4220906,03601347
5636598781,BoboQ,Friedrichstraße 63,10117,52.5117349,13.3898335,01100207
5648008721,Spinner und Weber,Brüsseler Straße 37,13353,52.5462101,13.348835,01400942
5649582352,Akin Simit Frühstückshaus,Kottbusser Damm 24,,52.489902,13.4237183,02200213
5650154055,Zuckerstück,Schivelbeiner Straße 7,10439,52.5509686,13.4117623,03601141
5655310279,Orange Coffee,Prenzlauer Allee 171,10409,52.5473012,13.4280431,03601244
5661342170,21 Tassen,,,52.5245387,13.335152,01200522
5664563367,WonderWaffel,,,52.5101491,13.3805589,01100205
5664563375,Ormado Kaffeehaus,,,52.510477,13.3799433,01100205
5664563407,Café al teatro,,,52.5107231,13.3809266,01100205
5674154573,Garcia Kaffeebar,Waldstraße 59,10551,52.5277622,13.3304119,01200519
5675869250,Simply Sweet,,,52.4987064,13.3168378,04501043
5693170695,"togo – Hunde, Kids & Coffee",,,52.5491142,13.3473456,01400938
5693170698,,Togostraße 4,13351,52.5494377,13.3476957,01400938
5715768002,Monument,,,52.5139594,13.3812055,01100205
5730442372,Kaffeeschwestern,Friedrich-Wilhelm-Straße 83,12099,52.4579789,13.3847824,07400927
5741776292,Wilke,Boddinstraße 10-11,12053,52.4806947,13.4314047,08100206
5744378385,KiezHerz,Dohlenstraße 37,13505,52.586066,13.232496,12400616
5749818808,Mr. Moose,Südwestkorso 9,12161,52.47532,13.3237587,07300515
5753860540,Café Wolkenstein,Bundesplatz 1,10715,52.4802013,13.3279092,04501151
5758190721,Coffee lab,Unter den Linden 28,10117,52.5174493,13.3877424,01100206
5758790547,21 gramm,Hermannstraße 179,12049,52.4721789,13.4291542,08100208
5760441943,Caffèmania,,,52.4901302,13.3565728,07200409
5769112853,Café Rosarot,,,52.6289504,13.3667587,0
5773476267,Eis Café Cacao,Straßmannstraße 33,10249,52.5229164,13.4520852,02500726
5779323968,Cafe Erna & Else,,,52.4119608,13.3669026,07601237
5782596487,a modo tuo,,,52.5168054,13.2617468,04200308
5794297295,Cafeteria,,,52.5264835,13.3793031,01100308
5796120271,Café am Markt,Schöneicher Straße 9A,15566,52.4786573,13.7001654,0
5801718200,Hofcafé Mutter Fourage,Chausseestraße 15a,14109,52.4166617,13.1461285,06400735
5810876299,Café de Enrico,Fritz-Reuter-Straße 13,10827,52.4808391,13.3498768,07200308
5817114721,Cafe Riedinger Eck,,12305,52.3869008,13.4005464,07601544
5823385069,Mix & Match,,,52.5086568,13.3938575,01100207
5827057077,19grams Alex,Rochstraße 14,10178,52.5227551,13.4074446,01100310
5834155486,Korn & Karamell,,,52.4892197,13.3484217,07200409
5834297130,"Ich, du passt",,,52.5072917,13.299243,04300416
5838355086,Vivantes Bistro,,,52.4633298,13.345199,07300619
5839757276,Café µ,Libauer Straße 2,,52.5097682,13.4545025,02500834
5841367191,Cuccis,,,52.5219579,13.4147971,01100310
5841873607,,,,52.4726998,13.1448855,05400943
5861697570,Markt Pur,Westfälische Straße 27,10709,52.4954924,13.2986938,04500938
5863285413,Patogh,Kantstraße 70,10627,52.506944,13.3011382,04300416
5864981585,Schiller Deli,Inge-Beisheim-Platz 2,,52.5106481,13.3754535,01100102
5875283386,Cocina,,,52.5094322,13.4230961,01100313
5884940076,Comebuy,,,52.522321,13.4072244,01100310
5887756705,Café Emil,Prinzenallee 84,13357,52.5535393,13.3822298,01401045
5906994119,Cup&Cake,Schönfließer Straße 61,16540,52.6706606,13.2827492,0
5908584937,Zazza,Rheinstraße 42,12161,52.4655648,13.3294024,06100103
5921033162,Cafe Frida,Schlesische Straße 28,,52.4985369,13.4470896,02300419
5926525200,"Nachbarschaftshaus ""Vielfalt""",,,52.482169,13.4222106,08100101
5934239970,Flying Roasters,Hochstraße 34,13357,52.543818,13.3770773,01300836
5936986885,Coffee & Bagel House,Belziger Straße 21,10823,52.4871724,13.3541868,07200409
5938875150,Café Sterntal Galerie,Rheinstraße 10,12159,52.4702863,13.3336429,07300517
5942905631,Shoeshine,,,52.4948248,13.4334242,02300418
5943563590,The Barn,Friedelstraße 27,12047,52.4923996,13.4282383,08100310
5944293692,breakout Café,,,52.4889422,13.3937519,02200211
5957855388,What A Treat,Gneisenaustraße 94,10961,52.4920197,13.3937239,02200210
5957855389,Café Schön,Zossener Straße 20,10961,52.490499,13.3939175,02200211
5977696148,Stilbruch Kaffee,,,52.5082687,13.4534439,02500834
5986470676,Brettspielplatz,Waldstraße 50,10551,52.5292095,13.3307394,01200519
5990418181,Exclusive Coffee,Gontardstraße 10,10178,52.5209651,13.4111708,01100310
5992981706,Backery & Coffee,Kommandantenstraße 31-32,10969,52.5059889,13.4060963,02100104
6000099423,Coffee Station,Konrad-Wolf-Straße 87,13055,52.5398635,13.4847981,11200513
6004389701,Pikasso Café,Treptower Straße 97,12043,52.4775855,13.447222,08100415
6005972989,Lenôtre Paris,,,52.5019983,13.341323,07100101
6009831370,Toast Brothers,Kantstraße 109,10627,52.5065807,13.3055023,04300623
6019115389,Utopie Café,Jonasstraße 23,12053,52.4714836,13.4334646,08100208
6026684785,Boutique Patisserie,Clausewitzstraße 9,10629,52.5016953,13.3097864,04501040
6029583997,Cafe Berlin,Schierker Straße 25,,52.4701027,13.4311295,08100208
6031975232,Café Schatztruhe,Weststraße 8,13405,52.5644173,13.3168621,12200411
6032523119,Comebuy,,,52.5060106,13.4455995,02400625
6041595446,Café Evim,Richardstraße 109,,52.4783816,13.4390834,08100416
6048959095,Kantine N°1,Seestraße 65,13347,52.5540484,13.3597495,01401048
6058235413,Cafe Martha,,,52.5085731,13.4340325,02400623
6070390014,Cafe Lounge,Irenenstraße 25,10317,52.5097019,13.4984766,11400929
6071422170,Cafete,Takustraße 9,14195,52.4558493,13.296996,06400843
6085961140,Gretel,,,52.4916758,13.3830818,02200209
6106472481,Mensa Charité Zahnklinik,Aßmannshauser Straße 2-6,14197,52.4770012,13.3121425,04400834
6119368035,Mara Lou,Richardplatz 2A,12055,52.4746496,13.4465408,08100416
6123731658,Le Bretagne - Café Épicerie,,,52.4892186,13.3945263,02200211
6123731661,Café del Mercato,,,52.4892319,13.3943588,02200211
6123731662,Gizmo‘s Sweet Coffee,,,52.4893932,13.3947939,02200211
6124022025,Bagel & Friends,Wühlischstraße 58,10245,52.5069399,13.4680621,02500834
6124727196,Coffea,Lückstraße 56,10317,52.5014426,13.4911172,11400929
6132638173,Cafe Johann,,,52.5052531,13.4952684,11400929
6140668586,Yada Yada,,,52.5117232,13.4135327,01100312
6163950534,Schmaus & Plausch,Friedrich-Wilhelm-Straße 67,12103,52.4585819,13.3783212,07400825
6167488715,AllerMunde,,,52.4813124,13.5244692,11501341
6171061224,Co.me.in,,10318,52.4805799,13.525515,11501341
6190749887,Tirelli‘s,,,52.4896379,13.377794,02200209
6192424368,Cafe Efsane,,,52.4861034,13.3617521,07200414
6192424375,Daddy,,,52.4856881,13.3627814,07200414
6214673004,Superfoods & Organic Liquids,,,52.5021921,13.316642,04501041
6216154171,Koriat Kuchenmanufaktur,Brunhildstraße 3,,52.4863699,13.3626542,07200414
6220960666,FUN Café Bar,,,52.5976078,13.3555367,12601134
6228362811,Torten Träume,Residenzstraße 108,13409,52.5635819,13.3651864,12100101
6228364865,Kral Simit,Residenzstraße 108,13409,52.5636697,13.3650798,12100101
6250281632,nisk,,,52.492327,13.378074,02200207
6251908867,Cafe Beykoz,,,52.5529701,13.3805058,01401045
6251908868,X Café Bar,,,52.5572357,13.3772533,01300730
6254428437,The Visit,Goltzstraße 39,10781,52.4929032,13.3533462,07100204
6256648224,Kaffee Küche,Hansastraße 145,13088,52.5498861,13.474581,03501038
6261939658,% Arabica,Reichenberger Straße 36,10999,52.4970613,13.4234152,02300417
6268326586,Sönmez Baklava,,,52.5267496,13.3371816,01200520
6268406950,19grams Schlesi,Schlesische Straße 38,10997,52.4998466,13.4446784,02300419
6268406951,Zweitausend,Lobeckstraße 30-35,10969,52.5031274,13.4076703,02100104
6276676697,Cafeteria,,,52.3879872,13.1385941,0
6280785687,Café Lycke Lunch,Luckenwalder Straße 15,10963,52.5000702,13.376532,02200207
6282529804,Solide,,,52.5510599,13.4105748,03601141
6289073097,Café Lu,Wiener Straße 63,10999,52.4983149,13.4301104,02300417
6289101644,Coffeebar HU Mensa Nord,Hannoversche Straße 7,10115,52.5282425,13.3815953,01100308
6289101645,Coffeebar,Rudower Chaussee 25,12489,52.4294073,13.530074,09200715
6289101646,Coffeebar der Mensa HWR Badensche Straße,Badensche Straße 52,10825,52.4854566,13.3381977,07200308
6289101647,Coffeebar,Hardenbergstraße 34,10623,52.5100043,13.3259726,04300622
6291140254,Town Mouse,Marienburger Straße 5,10405,52.534948,13.4235264,03701659
6297557786,Haferkater,Eberswalder Straße 26,10437,52.5412546,13.4112914,03601142
6299003229,Bistro Hexenhaus,Brebacher Weg 15,12683,52.5145039,13.5668439,10300732
6316591600,Café Fairouz,Karl-Marx-Straße 196,12055,52.4727781,13.4408825,08100208
6322426329,Rabu,,,52.4548251,13.6280042,09501737
6322875025,betahaus Cafe,,,52.506653,13.3915625,02100102
6325006706,Wald Café,,,52.5280016,13.3309729,01200519
6325963105,my deli love,Lützowstraße 46,10785,52.5049281,13.3566973,01100103
6340183390,Kaffee Strudel,Konrad-Wolf-Straße 114,13055,52.5441223,13.4929394,11200513
6343240190,Holy Coffee,Sonnenallee 132,12059,52.4797702,13.4435529,08100415
6360044247,PEPs,Kirchstraße 1,12555,52.4469487,13.5761396,09401534
6360239076,Fräulein O,Grünstraße 13,12555,52.4450035,13.576966,09401534
6364887033,Eisbuben,Zehlendorfer Damm 121,14532,52.4057685,13.23441,0
6373530592,Cafe des Schicksals,Gerichtstraße 68,13347,52.5438105,13.3729322,01300836
6383316362,Café Le Vent,Köpenicker Straße 44,10179,52.5089644,13.4246022,01100313
6384174185,Jaliya,Kirchhofstraße 17,12051,52.4696705,13.4388724,08100208
6384283185,Mod Coffee,Brunnenstraße 193,10119,52.5306292,13.4003225,01100415
6392435819,Pepes Bistro,Goethestraße 9,15566,52.4693874,13.6924714,0
6418054530,Café Dream,,,52.52101,13.5884786,10200629
6422776108,Einstein Kaffee,,,52.5075445,13.3901143,02100102
6426071297,Chamelion Coffee,Torfstraße 25,13353,52.5406293,13.3511496,01401046
6428294267,Röstwerk,Seelingstraße 32,14059,52.5155479,13.2918727,04300413
6433846648,Café & Bäckerei Sahnebaiser,,,52.5402584,13.5687006,10100315
6449262006,al teatro,,,52.5213789,13.4117396,01100310
6458744289,Relax II,Schildhornstraße 71,12163,52.4641376,13.3165393,06100102
6470345311,Transfair,Neue Bahnhofstraße 1A,10245,52.5047784,13.4691969,02500834
6472142086,Grüngut,Köpenicker Straße 53,10179,52.5093679,13.4232634,01100313
6472969308,Café Lama,Hohenzollerndamm 7,10717,52.4953001,13.3279119,04501045
6473150811,The Alley Wilmersdorf,Wilmersdorfer Straße 115,10627,52.5074146,13.3066573,04300623
6484424844,Dialogue Coffee,Kantstraße 39,10625,52.5064815,13.3134984,04300623
6491350897,Lukas Café,Karl-Liebknecht-Straße 20,14482,52.3938571,13.0928764,0
6500853481,Tudo,Hardenbergplatz 2,10623,52.5062544,13.3333169,04501042
6513417589,Malu,Friedrichstraße 41,10969,52.5064762,13.390707,02100102
6520267688,Segafredo,Zum Kirchsteigfeld 4,14480,52.3699458,13.1300549,0
6522579859,Haßelbach,,,52.5106529,13.4375313,02400625
6530432185,Ormado Kaffeehaus,Leipziger Platz 12,10117,52.5106006,13.3824788,01100205
6541827328,Willis,Prenzlauer Allee 183,10405,52.5428064,13.4259392,03601348
6564734372,Bruschetta Bar Berlin,,,52.4931942,13.4653227,09100101
6569710889,Anadolu,,,52.5313994,13.3440678,01200625
6570673375,Café Lotte,Hauptstraße 9,16548,52.630529,13.3138436,0
6573839963,Café Babette,Am Sudhaus 3,12053,52.4793139,13.4309744,08100206
6588859242,Starbucks,Joachimsthaler Straße 1-4,10623,52.5057007,13.3316262,04501042
6589480951,Exclusive Coffee,,,52.4778193,13.2810727,04400728
6589636628,Tous les jours,Regattastraße 35,12527,52.4249221,13.5751213,09301126
6596706590,Von morgens bis Späti,,,52.5459278,13.3448983,01400942
6596977800,chokkolatta,,,52.5500251,13.3523071,01400942
6612961274,Agora,Mainzer Straße 3,12053,52.484471,13.4272863,08100206
6632057585,Ein Blick,,,52.5315647,13.3618789,01200624
6649035185,Our Authentic Kitchen,Weichselstraße 66,12043,52.4837555,13.432072,08100314
6652933076,Codos,Invalidenstraße 1,10115,52.5326604,13.3985793,01100415
6653396110,Cafe Simbur,Karl-Marx-Straße 124,12043,52.4779354,13.4380426,08100207
6655311489,Dosha,Boxhagener Straße 65,10245,52.5059494,13.4707801,02500832
6656463727,Duo Chá,Muthesiusstraße 17,12163,52.4591597,13.3198003,06100102
6679597653,Café Kirsche,Kastanienallee 59,10119,52.5338305,13.4052276,01100416
6687804305,Suō Noodle House,Novalisstraße 16,,52.5277484,13.3888247,01100415
6688326490,Café Exner,Königstraße 15,14109,52.4197312,13.1587855,06400735
6698553797,Das Café-Haus,Müllerstraße 135,13349,52.550776,13.3509834,01400938
6700509921,Lucys,Brunnenstraße 24,10119,52.5334592,13.3988575,01100416
6700717678,Breadleys,Clayallee 225,14195,52.4495839,13.2692543,06400842
6707387950,Abteilung K,,,52.5129491,13.3866473,01100206
6714794979,Einstein Kaffee,Friedrichstraße 71,,52.5134769,13.3896088,01100206
6721933782,The blnd,,,52.5153721,13.396898,01100206
6723408551,Cafe Seven,,,52.48633,13.3595091,07200410
6723408556,Café Star,,,52.4865699,13.3591343,07200411
6726277881,Zucka,,,52.5174031,13.3096114,04300619
6735275979,Tante Klara,Esplanade 26,10439,52.5573836,13.4049418,03601139
6740249580,Café ohne Titel,Treptower Straße 91,12059,52.4789438,13.4490306,08100418
6743618885,Café Gold Stück,Erich-Weinert-Straße 128,10409,52.5447118,13.4372178,03601245
6764078993,2 Schwestern,Danziger Straße 59,10435,52.5397199,13.4223031,03601348
6766853189,Brooclyn,,,52.5521845,13.3647891,01401049
6769219613,Café Istanbul,,,52.4797502,13.421463,08100102
6772466198,Café am Kutschi,,,52.5641296,13.32858,12100205
6793842997,New Yorck Coffee,Bautzener Straße 40,10829,52.4923296,13.3711516,07100206
6813921789,Tucano Coffee,Rahel-Hirsch-Straße 10,10557,52.5225403,13.3680214,01200628
6825777498,Einstein Kaffee,,,52.5030077,13.330725,04501042
6832915881,Cafe Bar Italia,Wilhelmstraße 86,10117,52.5133051,13.3819381,01100205
6833361555,Cafe Gediz,,,52.4814667,13.4315242,08100206
6833361556,Maulana,,,52.4815109,13.4318865,08100206
6835710243,WonderWaffel,,,52.4804596,13.435196,08100206
6848436877,Coffee & Greek Bakery,Kurfürstendamm 21,,52.5039266,13.3299169,04501042
6851358195,Monkey Mind Cafe,Bredowstraße 14,10551,52.5298692,13.3401827,01200520
6855165592,Tims,Blücherplatz 1,10961,52.4966527,13.3928346,02200210
6857427415,Cafe Red & Blue,,,52.4389401,13.3890708,07501134
6863412625,Mos Coffee,Stargarder Straße 45,10437,52.5435557,13.4254047,03601348
6863421169,Prenzalexandr,Prenzlauer Allee 182,10405,52.5432369,13.4262024,03701657
6868834338,Pao Pao,Rosenthaler Straße 66,10119,52.5284432,13.4024425,01100309
6908729685,Exclusive Coffee,,,52.5264661,13.344438,01200625
6913471103,Pauls Deli,,,52.4912816,13.2911986,04400727
6913930085,Meana,Kreuzstraße 19,13187,52.5698177,13.3987195,03400721
6915842985,Unicorn Village,Richardstraße 86,12043,52.4758574,13.4435157,08100416
6919102842,Coffee Circle Café,Bergmannstraße 10,10961,52.4895509,13.389763,02200211
6932885257,,,,52.5015605,13.3646733,01100104
6942567346,Annelies,Görlitzer Straße 68,10997,52.4985073,13.434937,02300419
6948758189,The Hummus Guys,Hohenstaufenstraße 39,10779,52.4941918,13.3377527,07200307
6981216483,Asbury Park Coffee,Donaustraße 94,12043,52.4806971,13.4389327,08100415
6982103606,BioBackHaus,Königin-Luise-Straße 43,14195,52.4582142,13.2909032,06400844
6983349351,Coffee Fellows,Hilda-Geiringer-Weg 8,10557,52.5266873,13.371948,01200628
6984432011,Remvi,Güntzelstraße 10,10717,52.4909582,13.3315417,04501152
6984780038,Baguette & Buch,,,52.4440893,13.5689133,09200819
6986359516,Bonjour,Hasenheide 10,10967,52.4872604,13.4220944,02200212
6987208792,HOA,Stallschreiberstraße 15,10969,52.5064041,13.40798,01100312
7008420713,Private View,Schlüterstraße 33,10629,52.503301,13.3168241,04501041
7025879071,Café Coconut,Danziger Straße 144,10407,52.5344101,13.436069,03701660
7025879084,Café Danziger,Danziger Straße 122,10407,52.5357239,13.4333335,03701660
7025879189,Cafè / Bar MM,Danziger Straße 119,10407,52.5362005,13.4336993,03601451
7054504783,TRIIIO,Alt-Moabit 104,10559,52.524597,13.3479459,01200626
7055629498,Humboldt-Café,,,52.5273031,13.3728895,01200628
7058016109,Geschmackssache,Motzstraße 34,10777,52.4974091,13.3465002,07100102
7061308397,Bavul Kunst & Kultur Café,Annenstraße 13,10179,52.509379,13.4121691,01100312
7069825852,MaRue Café,Hufelandstraße 21,10407,52.5318263,13.4325335,03701660
7069825856,SantAmbroeus da Marco,Hufelandstraße 17,10407,52.5319691,13.4322073,03701660
7069825859,Bronco,Hufelandstraße 13,10407,52.5323376,13.4313754,03701660
7080484500,ama,Dorotheenstraße 83,10117,52.5183026,13.3841452,01100206
7084015705,Mezem,Schlüterstraße 19,,52.506946,13.3174066,04300624
7093312886,Leckerback Café,Karl-Marx-Straße 100,12043,52.4793991,13.4369849,08100206
7098138245,Eiscafe Klatsch,Bölschestraße 25,,52.4499782,13.6249212,09501737
7104496146,Tiffanys,,,52.5044452,13.338384,04501042
7106771743,Zwei Kraniche,Heinsestraße 42,13467,52.6182133,13.3066273,12400723
7114134079,Coffee Island,Knesebeckstraße 15,10623,52.5082563,13.3224983,04300624
7118201696,TiramiGiu,Düsseldorfer Straße 68,10719,52.4956938,13.3211749,04501044
7124425863,Delizie & Sapori,Bornstraße 16,12163,52.4668493,13.321987,07300516
7129246761,Evra,Reinickendorfer Straße 120,13347,52.5422478,13.3695611,01300836
7132010681,Starbucks,,,52.5063819,13.4497985,02500835
7142525701,Roj Cafe Bar,,,52.5167174,13.461201,02500728
7148985179,Mr. Box Planet,Tauentzienstraße 9-12,10789,52.5048157,13.3379504,04501042
7159044717,Coffee Circle,Lindower Straße 18,13347,52.5437931,13.3677735,01300836
7166724117,Stil Cafe,,,52.3868199,13.3956659,07601546
7167351575,Dombili - Back&Snack,Charlottenbrunner Straße 12,14193,52.4887575,13.2936823,04400727
7171914485,Maxway Coffee,,,52.5226169,13.3674466,01200628
7176732164,Fantasia del Gelato,Stern-Center 1-10,14480,52.3696965,13.1345188,0
7184234441,Co-workingspace,,,52.5280239,13.3417232,01200520
7196929693,Lotte am Stern,Nuthestraße 1-10,14480,52.3712806,13.1331535,0
7211080883,Café á Gogo,Greifswalder Straße 198,10405,52.5342806,13.430367,03701660
7220634429,Drei Käsehoch,,,52.4008611,13.2683113,0
7228517906,welcome to the jungle,,,52.4910499,13.4240367,08100311
7233554320,Lynn Tea & Coffee,Greifswalder Straße 158,10409,52.543108,13.4406366,03601245
7233815673,Go to Coffee,,,52.484869,13.3824553,07400720
7237267914,P-Berg Coffee,Schönhauser Allee 89,10439,52.5529072,13.414745,03601141
7239464453,La Femme Quality,Winterfeldtstraße 39,10781,52.4969206,13.3549269,07100103
7253124489,Café 27 M.K,,,52.473758,13.4276876,08100103
7255291485,eishaus,Dorfstraße 14,15738,52.3397333,13.6085049,0
7255812894,Quartier 1907,Markgraf-Albrecht-Straße 8,10711,52.5005259,13.2989784,04500937
7257482323,Diggi Eiscafé,,,52.4794491,13.4252766,08100102
7261140334,Cafe Deniz,,,52.4738595,13.427632,08100103
7261208964,Oker Café,,,52.474134,13.4270259,08100103
7272856131,Matanga,Dunckerstraße 12,10437,52.5426392,13.4211448,03601348
7274447383,Kajumi,Dunckerstraße 73,10437,52.5441717,13.4220194,03601348
7276736007,Monet,Thomasstraße 17,12053,52.4734105,13.4385833,08100208
7277454704,Cafe Metrom,,,52.4758642,13.4257708,08100103
7281050044,Eat Manti,Lychener Straße 4,10437,52.5411345,13.4148689,03601347
7289061027,Cookies & Co.,Senefelderstraße 4,10437,52.5403596,13.422385,03601348
7289650000,"Schloss Café, Restaurant & Cocktailbar",Sophie-Charlotten-Straße 107,14059,52.5202188,13.2865155,04300412
7292317454,Moloko,Lettestraße 6,10437,52.5434839,13.4190738,03601347
7292325636,La Petite Boulangerie,Lettestraße 1,10437,52.5428502,13.4205748,03601347
7308437146,Tilda,Raumerstraße 7,10437,52.5429404,13.4178048,03601347
7308486527,LAP Coffee,Raumerstraße 35,10437,52.5419339,13.4214084,03601348
7310697847,Hoffels,Danziger Straße 53,10435,52.5399624,13.4207829,03601348
7345442914,Berliner Sammelsurium,Suarezstraße 47,14057,52.5071477,13.2955706,04300416
7376832490,Café Madrido,Bergmannstraße 101,10961,52.4898511,13.3896478,02200211
7382754552,Fritz Erler Treff,,,52.4342927,13.4547033,08300934
7388634885,Lumoss,Badstraße 14,,52.55088,13.3846478,01300733
7389038823,Hermanos,Goebenstraße 10,10783,52.4935672,13.3644441,07100206
7392103175,Prince Peach,Prenzlauer Allee 208,10405,52.5368642,13.4224481,03701555
7428910087,Cafe Bar eko,Müllerstraße 66,13349,52.556514,13.3417455,01400937
7441490915,Cafeteria KEH,,,52.5271617,13.5060609,11300721
7446841170,Café Jasmino,,,52.5656447,13.4128476,03400826
7497952456,SnackCafé On4,Sonnenallee 218,12059,52.4739017,13.4554001,08100417
7497997586,,Sonnenallee 212,12059,52.4742269,13.4547262,08100417
7515205017,Yacht Cafe,Saalestraße 39B,12055,52.473234,13.454972,08100417
7517427994,Venue,Grunewaldstraße 6a,12165,52.4581395,13.3177773,06100102
7528907474,Café Konditorei Glienicke,Hauptstraße 66,,52.6313091,13.317331,0
7531805359,Joli Cafe,Heubnerweg 3,14059,52.5230488,13.2883146,04300412
7541757196,Brammibals Donuts,Warschauer Straße 76,10243,52.5129209,13.4531863,02500833
7541757197,Frau Honig,Dolziger Straße 1,10247,52.5196928,13.4627065,02500728
7560353406,,Detmolder Straße 65,10715,52.4785576,13.3270078,04501151
7573227528,Café Flower Invavu,Kurfürstendamm 115b,10711,52.4977101,13.2905094,04500937
7589526279,Coffee Fellows,,,52.5199903,13.3887842,01100206
7597560505,Cafe Bread,Mengerzeile 14,12435,52.4882917,13.4428714,08100313
7616134547,Cafe Kudamm 1♡4,Kurfürstendamm 104,10711,52.4980288,13.2950912,04500937
7617569039,KAFFEE!,,,52.4555704,13.2935432,06400843
7620604047,Witty Stories,Perelsplatz 1,12159,52.4759613,13.3350157,07300517
7623775574,Cafe Favorite,Transvaalstraße 13,13351,52.5520244,13.3413658,01400937
7664110126,Piniks,,,52.4973791,13.380832,02200208
7668979479,90 °C,Novalisstraße 1,,52.5277283,13.3892738,01100309
7682213885,Bubble Bär,,,52.5208444,13.4113176,01100310
7684780822,Mona Lisa Classique,Wildenbruchstraße 7,12045,52.4829574,13.4420224,08100418
7685796319,Cup Cafe,Berliner Straße 116,10713,52.4863837,13.3170977,04501146
7688108908,Die Idylle,Wilhelminenhofstraße 53,12459,52.4588362,13.5261728,09200511
7700452323,Café Streusel,Blissestraße 20,10713,52.4845379,13.3199576,04501146
7700544481,Love to sweet you,Goethestraße 4,10623,52.5088626,13.3233144,04300624
7710976595,Café Kalliya,Koloniestraße 21,13359,52.5579484,13.3787933,01300730
7724065963,Schlosscafe,,,52.5047337,13.5235834,11401034
7737895317,Boxi Espresso,Boxhagener Straße 12,10245,52.5138698,13.4540678,02500833
7744836616,Gutes von Busch,Matterhornstraße 54,14129,52.4387139,13.2165412,06400838
7746191685,Kiez-Café,Hauptstraße 12,13158,52.5850623,13.3661712,03400619
7770548242,The Lĕv,Gneisenaustraße 91,10961,52.4917978,13.3948223,02200210
7771003741,Cozy Corner,Emser Straße 48,12051,52.4682272,13.4277303,08100104
7775213790,Café Marie Luise,Friesenstraße 25,10965,52.4885765,13.3946254,02200211
7779451176,Ripieno,Monumentenstraße 21,10965,52.4875928,13.3761443,02200209
7781499699,The Greens,Am Krögel 2,10179,52.5152631,13.4090693,01100310
7798400777,Mauritius Eis Café Tee,,,52.486186,13.3228707,04501150
7798817385,Bar Oro Nero,Akazienstraße 10,10823,52.4882295,13.3542986,07200409
7802654692,Stern Café,Silbersteinstraße 140,12051,52.4654677,13.4229404,08100105
7803196080,Jules,Luckenwalder Straße 6b,10963,52.4990847,13.3733055,02200207
7804846344,Maracay Coffee,Berliner Straße 137,10715,52.4863027,13.3232566,04501150
7813547006,Aperitivo Café,Stubenrauchstraße 57,12161,52.4718768,13.3237568,07300515
7820738523,ostPost,Reginhardstraße 55,13409,52.562148,13.3728018,12100101
7821126097,Dal Bhat,Mainzer Straße 8,10715,52.4797189,13.325094,04501151
7823664075,Marv,Chausseestraße 52,10115,52.5355699,13.3771493,01100308
7826209175,Kieselstein,,,52.4434594,13.4523701,08200727
7835643849,Clavé,,,52.5013439,13.3353049,04501042
7836880350,Natas Berlin,Pistoriusstraße 25,13086,52.5524769,13.4508736,03500933
7839124566,Britzer Stübchen,,,52.4548564,13.4374445,08200624
7850876158,Bites,,,52.4928559,13.3798524,02200208
7853722744,Caras,Friedrichstraße 70,10117,52.5128592,13.3897282,01100206
7864807685,Jules,Geisbergstraße 9,10777,52.4974429,13.3421028,07100101
7867810050,Cafelix,Winsstraße 47,10405,52.5355282,13.4266165,03701658
7887536006,Brotgarten Bistro,Seelingstraße 28,14059,52.5155826,13.2925224,04300413
7902877159,all about,Rigaer Straße 75,10247,52.516451,13.4653612,02500728
7902894774,Café Reichelt,,,52.4164273,13.4967336,08401243
7906370932,Comebuy Tea,Joachimsthaler Straße 43,10623,52.5054736,13.3320635,04501042
7907933564,Zazza,Lehrter Straße 24e,10557,52.5315976,13.3615396,01200624
7910232822,Nellies Cafe,Gardeschützenweg 68,12203,52.4468362,13.3063874,06300633
7920003931,Gönül Kahvesi,Heinrich-Heine-Straße 38,10179,52.5052653,13.4116776,01100312
7924890022,Arket Café,Kurfürstendamm 19-24,10719,52.5037918,13.3300029,04501042
7947979809,fritz & friedrich,Romain-Rolland-Straße 62,13089,52.5677099,13.4402031,03300516
7966667618,Café Geschmackssache,Schlesische Straße 31,10997,52.4988581,13.4465244,02300419
7966718455,Zimmer3,Zimmermannstraße 3,12163,52.4597227,13.3223633,06100102
7976386006,La Maison,Paul-Lincke-Ufer 17,10999,52.4933018,13.4311,02300418
7978440748,Café 21,,,52.5708141,13.3609662,12100103
7998010522,Nostoni,Eisenacher Straße 63,10823,52.485115,13.3526845,07200409
8043741821,Bäckerei Café,,,52.3389726,13.3534454,0
8065800330,Safé,Reuterstraße 13,12053,52.4832047,13.4290994,08100206
8075137842,Little MARS,Gerichtstraße 35,,52.5449926,13.3664482,01300836
8082877763,Café Date,Wilhelminenhofstraße 31,12459,52.4616727,13.5180059,09200511
8119481804,Café Schwartzsche Villa,Grunewaldstraße 55,12165,52.4569373,13.3192761,06100101
8120989366,al teatro,,,52.4578761,13.3203204,06100102
8120989392,Meyerbeer Coffee,,,52.4574937,13.3202234,06100102
8147270778,Café Dominicus,Dominicusstraße 41,10827,52.480708,13.3514527,07200410
8169541139,Grünes Cafe,,,52.4411108,13.424127,08200729
8177206745,coffreez,Schloßstraße 118,12163,52.4625511,13.3264692,06100103
8223127025,Vivero,Hauptstraße 130,10827,52.4843265,13.3533019,07200410
8223127027,Bunter Panda,Hauptstraße 136,10827,52.4850131,13.3546164,07200410
8223127029,Velvet Coffee,Hauptstraße 134,10827,52.4848495,13.3543044,07200410
8223127044,Cafe Domino,,,52.4815324,13.3494947,07200308
8227823435,Aurelia,Kurfürstendamm 199,,52.5014792,13.3202829,04501041
8237740647,soulbay Berlin,,,52.4999601,13.4754252,11501238
8262111146,Radikalecker,Weserstraße 212,12047,52.488411,13.4271741,08100311
8264913105,Cafe&more Europa,Lietzenburger Straße 28,10789,52.4996493,13.3349673,04501045
8264923017,Café Flair,Nachodstraße 5,10779,52.4954023,13.3349004,04501045
8284410725,Moabogen,,,52.5317483,13.3443355,01200623
8285124434,Exclusive Coffee,Heidestraße 11,,52.5309447,13.3681831,01200624
8286083413,coffee ela,Turmstraße 24,10559,52.526449,13.3450833,01200625
8318800266,North Andes Coffee,Czarnikauer Straße 22,10439,52.553163,13.4077642,03601141
8330247317,Kaffeehaus am Platz,Rüdesheimer Platz 7,14197,52.4727419,13.3147039,04400835
8330505680,Café Züri,Senftenberger Ring 51,13435,52.6048197,13.3553107,12601134
8413213032,Junge,Schnellerstraße 18,12439,52.4608457,13.5023798,09200613
8422865846,Miss Minty,Berliner Straße 7,10715,52.4879029,13.333551,04501152
8423129512,Magic Bitte,Kufsteiner Straße 1,10825,52.4880505,13.337268,07200307
8423617306,Café Olea,Martin-Luther-Straße 95,10825,52.4860778,13.3454146,07200409
8459440163,San Remo,Landsberger Allee 277,13055,52.5351031,13.4962271,11200514
8510656515,Chito Coffee,Savignyplatz 3,10623,52.506078,13.3233654,04300624
8564372025,Eis Café La Piazzetta,,,52.564439,13.3276093,12200309
8603169789,Bistro Grundschlag,Flinsberger Platz 8,14193,52.4835329,13.2900564,04400727
8618548372,Akis Cafe & Bar,Jan-Petersen-Straße 20,12679,52.5498589,13.563447,10100209
8622320253,Saigon Baguette,,,52.5109387,13.2928857,04300414
8622790479,La Rue de Shi Shi,Lewishamstraße 14,10629,52.5039298,13.3044059,04500936
8625793647,Tricolore – Bistro und Eiscafé,,14169,52.4495535,13.2525068,06400840
8637878912,Tumabé,Belziger Straße 26,10823,52.4871582,13.3533281,07200409
8637878915,Laax,Fritz-Elsas-Straße 30,10825,52.4828798,13.3438141,07200308
8647316810,Airport Café,,,52.4770977,13.4211655,08100102
8658121118,Fuchs Curtis,Curtiusstraße 27,12205,52.4413787,13.2926792,06300634
8662635815,Bob Murphy,Straßmannstraße 29,10249,52.5227745,13.4516255,02500726
8668888717,Nino,Möllhausenufer 30,12557,52.4152491,13.5996059,09401330
8696728216,Dana Cafe & Pizza,Sewanstraße 178,10319,52.4959716,13.5108063,11401135
8704670910,KURHAUS BERLIN,Schwedter Straße 78,,52.5474213,13.4012056,03601142
8733485918,Portier,,,52.486643,13.3526263,07200409
8740046964,Eismanufaktur Don Fra,Bahnhofstraße 40,14612,52.5633423,13.0967458,0
8755125357,Sfera,Schudomastraße 42/44,12055,52.473928,13.4503746,08100417
8812122886,Espresso Bar,,,52.4788438,13.4272504,08100206
8812635548,MoaMoa,Hauptstraße 81,12159,52.4723328,13.3365463,07300618
8839649642,Café Perlmutt,Joachim-Friedrich-Straße 42,10711,52.4988108,13.2960555,04500937
8861496960,Caffee Hamatt,,,52.483976,13.4286457,08100206
8864146716,WonderWaffel,Kantstraße 117,10627,52.5064079,13.3084903,04300623
8865703416,Hollands Pannekoekhuis,Spreestraße 22,12559,52.4237955,13.704966,09401635
8865733765,Blunck Pâtisserie,,,52.4991837,13.3040886,04500938
8906750629,TOASTcu,Adalbertstraße 96,,52.5001529,13.4181752,02300314
8909368571,PuntaTime,Pappelallee 3,,52.5414125,13.4129863,03601142
8913103184,Habibi Taal,Boddinstraße 59,12053,52.4806579,13.4327743,08100206
8917540608,Laila,,,52.5638698,13.2147925,05100103
8930497566,Sampor-Kaffee-Berlin,Ruppiner Chaussee 289,13503,52.618031,13.2409366,12400618
8972510641,Paus,Manfred-von-Richthofen-Straße 6,12101,52.4842413,13.3841629,07400720
8986452951,Chimneys,Brunnenstraße 173,10119,52.532919,13.3984528,01100415
8988223636,Bubble Tea Bar,Rheinstraße 40,12161,52.4650358,13.3289005,06100103
8989819200,Bolinas,Manfred-von-Richthofen-Straße 16,12101,52.4832915,13.3820845,07400720
8994165512,La Kentour,Manfred-von-Richthofen-Straße 13,12101,52.4834505,13.383267,07400720
8996370133,Coffee Fellows,Washingtonplatz 3,,52.5237386,13.3692951,01200628
8999045067,Someone loves you,,,52.4901789,13.3533803,07100204
8999104602,Café Apostel,Wilhelmsruher Damm 159,13439,52.5962068,13.3531318,12601235
9006699817,Concierge Coffee,,,52.5028072,13.3662512,01100104
9006934263,Cafe Dreizehn,Grüntaler Straße 13,,52.5523695,13.3872908,01300733
9018344814,Coffee Circle,Rosa-Luxemburg-Straße 19,10178,52.5253298,13.4104329,01100310
9029174217,44 Brekkie,Rykestraße 44,10405,52.5367612,13.4204938,03701555
9037086310,Einstein Kaffee,,,52.5061906,13.333231,04501042
9043430528,Guo Tea,,,52.5008091,13.4398603,02300316
9046285206,Kado,Gerichtstraße 45,,52.5450518,13.3624594,01300836
9066101185,Johannes Garten,,,52.6342495,13.2917134,12400721
9073826793,Rocky Blue,Brennerstraße 92,,52.5585726,13.4126898,03400826
9073875617,Coffee House 168,Berliner Allee 168,13088,52.5529588,13.4673241,03501038
9083998942,Espresso House,Gartenstraße 85,10115,52.5330313,13.3876194,01100415
9092377879,Mon Chéri,Köpenicker Straße 183,,52.5030302,13.4378721,02300316
9122275031,Café Zuckersüss,,10557,52.5333515,13.3658647,01200624
9138888336,Land Markt,,,52.5527448,13.4077455,03601141
9140504017,Snaubar,Sonnenallee 96,,52.4822211,13.4385242,08100314
9155779778,Velvet 52,,,52.5259607,13.3881315,01100309
9161995041,Hasty Pastry,,,52.5032276,13.3440615,07100101
9164861867,Good Morning Kosher Café,Brandenburgische Straße 22,10707,52.4960535,13.3086063,04501043
9173277641,Kaiser Café,,,52.5018014,13.3171608,04501041
9180014319,Daluma,Tauentzienstraße 21-24,10789,52.5015478,13.3412126,07100101
9183226479,Mikro Café,,,52.4592866,13.3232948,06100102
9187332407,Theke,,,52.5452644,13.3435694,01400938
9187753963,Gartencafé,,,52.4694594,13.429497,08100104
9215132935,Backstube Zuckersüß,,,52.4786255,13.2968823,04400830
9235745703,The Meet Coffee,Dudenstraße 22,10965,52.4851463,13.3822687,02200209
9237900836,,,,52.5148066,13.4633468,02500728
9251158519,Konditush,Wühlischstraße 39A,10245,52.5089263,13.4596629,02500834
9252938317,YUNA,Oranienburger Straße 22,,52.5243024,13.3960858,01100309
9261437462,Lories,Fennstraße 24,12439,52.4543658,13.5169589,09200613
9271906587,Café Papa Nini,Alt-Tegel 6,13507,52.5896338,13.2819201,12200515
9286971099,Kap Frida,Alt-Stralau 61,10245,52.4959189,13.4677677,02500836
9293817161,The Alley Mitte,Neue Schönhauser Straße 1,10178,52.5248449,13.4055296,01100309
9293885243,BoboQ,,10365,52.5300625,13.4902651,11300721
9309752752,Kahve Mavi Deniz,Koloniestraße 33,13359,52.5597924,13.379896,01300730
9335466248,Alte Rösterei,,,52.3918866,13.0916457,0
9346551332,Tee Tea Thé,Limastraße 2,14163,52.4380855,13.2314816,06400838
9371078317,Mataró,Wörther Straße 25,,52.5358889,13.4215137,03701555
9389606069,Daimi Bäckerei & Café,Florastraße 31,13187,52.5652937,13.4044958,03400721
9395437338,KuchenZeit,Kaiser-Friedrich-Straße 1,10585,52.5191372,13.299412,04300414
9395439117,MarcAnns,Invalidenstraße 114,10115,52.5307291,13.3842003,01100415
9402061582,Möge Tee,Bergmannstraße 110,10961,52.4901333,13.387649,02200211
9428068764,Familiencafé Bunter Elefant,,,52.5665208,13.4140069,03400830
9429184185,Dong Nam Coffee Lab,Kurfürstendamm 105,10711,52.4979914,13.2946912,04500937
9439287621,Sönmez Baklava,,,52.5311625,13.1971277,05200629
9441951387,Blumenfisch,,,52.4716407,13.3660226,07400822
9451203428,Exclusive Coffee,,,52.5015683,13.320873,04501041
9458740129,Son Durak Endstation,Ebersstraße 81,10827,52.481241,13.3539065,07200410
9460741693,Babka & Krantz,Hackerstraße 1,,52.4670779,13.3253375,07300516
9481001852,Cafe Belucci Bar,Kurfürstendamm 63,10707,52.5006574,13.3110425,04501040
9495360250,Cadôh,,,52.497078,13.3123882,04501043
9500044233,Okka,,,52.4866589,13.3212869,04501150
9502948634,Soul of coffee,,,52.5529059,13.3662822,01401049
9507916333,Starbucks,,,52.5031701,13.3296065,04501042
9516157594,Restaurant Cafè Havelblick,Havelschanze 9,13587,52.5540713,13.2104431,05100313
9516304097,Cafe im Familienzentrum,Mahlerstraße 4,13088,52.548235,13.4526674,03500936
9532550380,Cafe Dix,Alte Jakobstraße 124-128,10969,52.5035428,13.3984937,02100103
9543735487,hoshi,Deitmerstraße 14,12163,52.4596524,13.3242366,06100102
9562206141,,,,52.5087446,13.3081233,04300623
9583641283,Levant,Gotzkowskystraße 34,10555,52.526365,13.3305908,01200521
9592062230,Cafe Josef,Bahnhofstraße 10,15732,52.3735082,13.6193319,0
9609273012,Guard Coffee,,,52.4242974,13.5754816,09301126
9620186718,Starbucks,,,52.5070444,13.3325663,04501042
9633555361,Junge,Schönhauser Allee 10-11,10119,52.5305899,13.4115883,03701556
9633744539,someday in HaNoi,Prenzlauer Allee 37,10405,52.5349522,13.4221493,03701659
9656079781,Forum Café,Schloßplatz 1,10178,52.5172015,13.4011771,01100206
9656212596,Mon Amour bei Synopidis – Griechische Konditorei,Albrechtstraße 97,12167,52.4527257,13.3326451,06100206
9667999777,Annis Café,,,52.5491071,13.6353561,0
9681190210,Redcard cafe,,,52.5535933,13.3657374,01401049
9683154604,Its a long story,Hermannstraße 178,12051,52.4718353,13.4292145,08100208
9697984817,voo deli,,,52.5012317,13.4211675,02300314
9703079917,Exclusive Coffee,Kurfürstenstraße 137,,52.5010234,13.3575351,07100103
9704341066,Café Palu,,,52.4476451,13.3413796,06100206
9709063834,Vakorama,Hindenburgdamm 95B,12203,52.4406987,13.3158925,06300633
9711534862,Nikis Soul,Südwestkorso 59,14197,52.4714651,13.3198038,04400835
9721099214,Zuckerguss,Bellermannstraße 79,,52.5524486,13.3881865,01300733
9724375217,Gorilla Bakery,EUREF Campus 1,10829,52.4801131,13.3538766,07200413
9733511949,Café Nokata,Wundtstraße 20,14059,52.5114808,13.2927124,04300414
9737008958,Voila Boutique,Kaiserdamm 20,14057,52.5105432,13.2866252,04300414
9743275514,Oshione,Katzbachstraße 25,10965,52.4860242,13.3763819,02200209
9746943258,Lia Ppang,Choriner Straße 45,10435,52.5370574,13.4107375,03701554
9748408584,Goldmohn,,,52.4972931,13.3239797,04501044
9749382416,Pretty Hill,Naumannstraße 54,10829,52.4809579,13.3632491,07200413
9762236058,Bubble Tree,Breite Straße 23,14199,52.4753597,13.2914255,04400832
9781203165,Café Paule,Schönwalder Straße 23,13585,52.5468666,13.2024933,05100314
9793638719,Bonanza Coffee Roasters Gendarmenmarkt,Jägerstraße 58,10117,52.5140705,13.3907784,01100206
9793656618,Zacharias,Kollwitzstraße 44,10405,52.5341225,13.4159606,03701556
9793667517,Büro,Stargarder Straße 72,10437,52.5468857,13.417617,03601346
9793792717,Kitten Deli,Friedelstraße 30,12047,52.4928999,13.4282831,08100310
9798306521,Nur Coffee,Friedrichstraße 180,10117,52.512351,13.3893588,01100206
9806289453,Hogarts Circus Caffee,Rennbahnallee 123,15366,52.5017155,13.6599721,0
9812019597,Puzzle Coffee,Prinzregentenstraße 53a,10715,52.4790967,13.3330515,04501153
9815364440,Kaiserhütte,Kaiserstraße 112,12105,52.4456835,13.3841364,07501030
9822691034,Vivantes Bistro,,,52.550052,13.2075037,05100314
9846857724,Orjin,,,52.5001119,13.3063423,04500936
9846863893,Geicha,,,52.499802,13.4170095,02300314
9853451895,Lisa`s,Goethestraße 2,14532,52.4041514,13.2143203,0
9862135619,Café im Bode-Museum,,,52.5216583,13.3945684,01100206
9862655130,Urbayn,Glasbläserallee 25,,52.4987096,13.469097,02500836
9870917114,Museumscafé,Spandauer Damm 22,,52.519892,13.2937447,04300412
9871181178,Waffle Brothers,Klosterstraße 12,13581,52.5311437,13.1965164,05200629
9887705717,Mansfield Park,Kiautschoustraße 1,13353,52.5410634,13.3570965,01401046
9888789494,Tucano Eis Cafe&Bar,Landsberger Allee 171,10369,52.5326157,13.4694019,11300616
9892264509,Waffel Kingz,Friedenstraße 7,12107,52.4381972,13.383436,07501133
9933325834,Café im Fenster,,,52.5267746,13.4526252,02500726
9946027160,Balu Coffee,Otto-Weidt-Platz 5,10557,52.533515,13.3663705,01200624
9954706571,Soul Food & Coffee,Großbeerenstraße 27A,10965,52.4940718,13.3831502,02200208
9974869750,Susam Café & Frühstückshaus,Theodor-Loos-Weg 31,12353,52.4206203,13.477264,08301037
9974915603,Café Bergholz,Bergholzstraße 2,12099,52.4581212,13.4200596,07400928
9976849318,lets talk about juice!,Zimmerstraße 23,10969,52.5076118,13.3915098,02100102
9983950190,Pinch,Gabriele-Tergit-Promenade 21,10963,52.5035919,13.3750823,01100102
9991258485,"Melody ""dein Spätcafe""",Nollendorfstraße 10,10777,52.4981381,13.3532327,07100102
9991400849,Kugelbahn Cafe,Pistoriusplatz 3,13086,52.5511149,13.4500668,03500935
10001315678,LIEBO,,,52.512455,13.2655453,04200310
10002231081,LAP Coffee,,,52.4998982,13.3126875,04501043
10003807500,Cafe Feyza,Knobelsdorffstraße 52,,52.513185,13.2887364,04300414
10016225165,Shakko Makko,Bachstraße 1,,52.5188277,13.3394219,01200629
10035697094,179 Coffee Bar,Schönhauser Allee 69,10437,52.5468381,13.4135675,03601142
10035859800,Spro,Schönhauser Allee 50A,10437,52.5426908,13.4126569,03601142
10046858842,deli im Markt,Großbeerenstraße 62-64,12107,52.4342989,13.3773049,07501133
10057200172,Bunter Panda,Schloßstraße 1,12163,52.4644791,13.3267209,06100103
10057200173,Eiscafé Di Russillo,,,52.4644636,13.3271941,06100103
10080485096,La Tienda,,,52.4928591,13.4342743,02300418
10092355835,Café Melon,Greifswalder Straße 228,10405,52.5295388,13.4248375,03701659
10098812510,Cup & Kaffee,Bundesallee 107,12161,52.4661512,13.3285802,07300516
10100699116,Café Gentil,Heinrich-Roller-Straße 27,10405,52.5316265,13.4207073,03701659
10101327812,N25,Stargarder Straße 22,10437,52.5453174,13.420613,03601347
10103287168,La Bohème,Winsstraße 12,10405,52.5328944,13.4246738,03701659
10108299146,Bistro FreiFläche,Bülowstraße 90,10783,52.498435,13.3602987,07100103
10111578841,Bakery & Bistro by Schicksal,Lindenstraße 16,10969,52.5028454,13.3955066,02100103
10117030454,Berliner Kaffeerösterei,,,52.4712056,13.3322388,07300517
10130124873,Anka,Chausseestraße 85,,52.5375909,13.373612,01100308
10132597656,Seven Café und Lounge,Triftstraße 7,,52.5442854,13.359522,01401047
10139140236,,,,52.5402645,13.2125768,05300736
10154127029,Bonanza Coffee Roasters,Alte Schönhauser Straße 15,,52.5266022,13.4075153,01100309
10160853565,Maries,,,52.4306295,13.2592178,06300526
10161767633,Bonpland,Proskauer Straße 34,,52.5163893,13.460466,02500727
10168877009,La Petite,Carmerstraße 8,10623,52.5067371,13.3233102,04300624
10180638417,Supercoff,Weinbergsweg 24,,52.5307781,13.4018796,01100416
10180980032,Fechner Café,Fechnerstraße 6A,10717,52.4872984,13.3238099,04501149
10184428364,Les Baguettes,,,52.4866531,13.3262922,04501149
10202743917,LA FÈVE,Karl-Kunger-Straße 58,12435,52.4911737,13.4477018,09100101
10223983255,Einstein Kaffee,Potsdamer Straße 125,10783,52.4980339,13.3625637,07100205
10249332783,The Barn,Weinbergsweg 1,,52.5300472,13.4017743,01100416
10262280005,Baraka,,,52.5458432,13.3696629,01401044
10308747445,Öz Antep Baklavaria,Müllerstraße 144,,52.5480787,13.3556579,01400942
10309449688,Happy Tea,,,52.5206963,13.4043897,01100310
10313585322,Café Holzmarktperle,Holzmarktstraße 25,10243,52.511438,13.4268672,02400623
10314816007,Lookma,Hauptstraße 155,10827,52.4892261,13.3595551,07200411
10314838611,Macchiato Rosen Cafe,Grüntaler Straße 14,,52.5527024,13.3877771,01300733
10559328373,KAWA Roastery,Triftstraße 2,,52.5447216,13.3608387,01401047
10567940335,Café Kunst & Krümel,,,52.5102635,13.6126118,10400939
10573015200,Porta Café,,,52.501218,13.6219796,10400941
10574782154,CAFÉ IM KUNSTHAUS DAHLEM,Käuzchensteig 12,14195,52.4664202,13.2739757,06400842
10594722937,Mahlwerk,Karl-Heinrich-Ulrichs-Straße 2,,52.5003431,13.3542799,07100103
10600017438,Monkey D. Coffee,Mariendorfer Damm 77,12109,52.4457928,13.3859679,07501030
10601112238,Café Leo,Nazarethkirchstraße 53,,52.547204,13.3588463,01401048
10603797041,Bistro 125,,,52.5350605,13.4536794,03601450
10608118503,Cafeteria Pekka,Budapester Straße 32,10787,52.5061499,13.3413148,01100102
10612720105,Unter den Birken,Birkenstraße 57,10559,52.5311222,13.3451287,01200625
10648363525,La Piadina,Leonhardtstraße 7,14057,52.5054161,13.2973148,04300416
10675984522,Café No.1528,Forckenbeckstraße 67,14199,52.4805618,13.2987573,04400830
10678344201,good q,,,52.5271198,13.3929721,01100309
10678661784,Coffee Bar by Chon Thong,,,52.50673,13.3087699,04300623
10693118843,Waffle Brothers,,,52.5081632,13.3746722,01100102
10693118853,Comebuy,,,52.5083198,13.375049,01100102
10704808953,Bellas Café,,,52.5277467,13.3893628,01100309
10710895028,,,,52.5841254,13.2867206,12200515
10710987905,LUDWIG,Tieckstraße 8,10115,52.5293496,13.3884332,01100415
10739627444,Lucca,Brunnenstraße 98,,52.5462254,13.3902257,01300834
10743283298,Moon Lounge,Schwester Straße 36a,,52.535787,13.4064406,01100416
10746789195,Cafe San,,,52.5514327,13.3821642,01300836
10756051191,Café Weit.Blick,Archenholdstraße 25,10315,52.5072061,13.5037492,11400930
10760911449,BSTW Kiezcafé,,,52.5450276,13.3767463,01300836
10774865324,Café Delicias,Hasselwerderstraße 14,,52.4566064,13.518611,09200613
10780033145,Moka Muli,Weimarer Straße 35,10625,52.5092264,13.3116558,04300623
10800211947,Starbucks,,,52.5208209,13.4142012,01100310
10819776430,Wagashi ejima,Gardeschützenweg 90,12203,52.4457722,13.3039661,06300633
10820248679,Back & Snack,Guineastraße 40,13351,52.5478352,13.3458517,01400938
10821131635,Wachmacher,Seestraße 108,13353,52.548426,13.3472882,01400938
10834060636,Café Lilly,,,52.4641941,13.3307223,06100209
10862201417,JoCaffè Kaffeehaus,Reichenhaller Straße 1,14199,52.4772208,13.2892218,04400830
10867086634,Streuselbar,Leipziger Platz 12,10117,52.5102162,13.3797106,01100205
10885842627,BioBackHaus,,,52.5031948,13.3084634,04501040
10911174397,Klee Back,,,52.5501583,13.35842,01401048
10913921509,Café Hanjan,Budapester Straße 41,10787,52.5050586,13.3401526,04501042
10916095622,Chapeau,,,52.4999526,13.3053468,04500936
10926110294,rock-paper,Prinzenstraße 85,10969,52.5034467,13.4099958,02100104
10942810706,Cafe & Bistro Herthasee,,,52.661596,13.307158,0
10956460957,Louis Cafe,,,52.5371765,13.6204092,10200524
10958626998,Goodman & Filippo,,,52.3667649,13.5082649,0
10967992205,3st Coffee Roasters,Gabriele-Tergit-Promenade 21,10963,52.503865,13.374432,01100102
10967993605,Smoozery Berlin,Krumme Straße 52-53,10627,52.5061205,13.3092548,04300623
10971509337,Shanti Lounge,,,52.5063463,13.302098,04300416
10973226344,Frozen Eats,Brandenburgische Straße 23,10707,52.4963598,13.3084874,04501043
10977483099,Calypso,,,52.4935419,13.3646314,07100206
10992900905,Hearts Fear,Wildenbruchstraße 24,,52.4865877,13.4468568,08100419
11003043005,Hafencafé,Tunnelstraße 36,10245,52.4911843,13.4830802,02500836
11011811034,Express,,,52.4241823,13.4849339,08301037
11016468063,Café am Antonplatz,Berliner Allee 36,13088,52.547871,13.4517117,03500936
11034086602,Cafe Praxis,Rollbergstraße 30,12053,52.4797376,13.4316135,08100206
11035783627,Schmuckcafé,,,52.4938172,13.3539615,07100204
11041970148,Cafe am Mühlendorf-See,Ontario-Straße 1,14513,52.3926016,13.2708867,0
11042634325,# du-hier,Hauptstraße 12,13158,52.5851003,13.3662299,03400619
11046687305,Jäätelö,Zwieseler Straße 44,10318,52.4880044,13.5393299,11501340
11048612532,Brühgruppe,Rathenower Straße 34,,52.5339651,13.3502255,01200623
11052496534,Pia Kaffee,,,52.4927942,13.4219323,02200213
11056239023,Nanas Pasta,,,52.5102541,13.2977027,04300416
11060082861,Café Vildan,,,52.549315,13.364251,01401043
11063047756,Mosubi,,,52.5899941,13.4013931,03200205
11064324705,Steel Bean,,,52.4994328,13.4275715,02300315
11077550173,Coffee Circle,Torstraße 49,10119,52.5290567,13.4100352,03701556
11079304440,Rote Lilly,Emser Straße 114,,52.4687052,13.4333242,08100208
11090522920,Kaffeehaus9,Kladower Damm 289,14089,52.4601509,13.1552845,05400942
11112178238,Cebe Coffee Roasters,Boxhagener Straße 82,,52.5083944,13.4668616,02500832
11112693145,Brezelbar,,,52.4881871,13.3939057,02200211
11119222516,KUKUMU,,,52.5279346,13.3451727,01200625
11130931005,Kiosk,,,52.5281035,13.4336186,02400520
11132216482,Mav Blueberry Cafe,Kruppstraße 11,10559,52.5309029,13.3510972,01200623
11141729205,Pretty Café Deli,Karl-Marx-Allee 110,,52.5163455,13.445982,02400624
11145895905,kyo coffee,Pettenkoferstraße 4C,10247,52.5161485,13.4726696,02500729
11146585271,Heimaten,,,52.5598647,13.2203791,05100104
11148685943,Royals Tea,Torstraße 139,10119,52.5296518,13.398976,01100309
11162476132,Blumentischlerei,Bremer Straße 41,10551,52.5327225,13.3389748,01200520
11162849310,Chai Thai Bubble Tea,,,52.3650758,13.0934835,0
11162885647,Café Liha - Familiencafé,,,52.5231193,13.3358436,01200522
11165712771,Family club,,,52.542898,13.5951036,10200418
11177273536,Café der Stille,,,52.5167505,13.5702024,10300732
11187196683,Café Dreifünf,Sonnenallee 35,,52.4861167,13.4307223,08100312
11196172822,Latti Matti,Plantagenstraße 21,,52.4546441,13.3291226,06100208
11197779294,Ständige Vertretung,,12529,52.3646873,13.5069926,0
11202111534,Catnip Coffee,Warschauer Straße 69,,52.5114562,13.4525288,02500833
11207891154,Blue Nordic Coffee,,,52.5085894,13.3510084,01100101
11224713383,Lisbeth,Bergstraße 29,10115,52.5323504,13.3938887,01100415
11237734829,Einstein Kaffee,,,52.504353,13.4425865,02400625
11240947425,Muschkebart,Blockdammweg 1,10317,52.4834967,13.5013668,11501238
11245285737,&Coffee,Nehringstraße 6,14059,52.5158672,13.293811,04300413
11245575377,allabout,Invalidenstraße 153,10115,52.5322735,13.3958096,01100415
11253337889,Refugio,Lenaustraße 4,,52.4899283,13.4252308,08100311
11254826275,M3,,,52.5395676,13.3713475,01300836
11257477734,Malzcafé Alte Mälzerei,Steinstraße 41,12307,52.3878289,13.397521,07601544
11264494273,Starbucks,Schönhauser Allee 75,10439,52.5496387,13.4142481,03601243
11264656069,Café September Berlin,Haeselerstraße 20,14050,52.5138066,13.2787407,04200311
11273812609,The Coffee Man,,,52.5467572,13.3590289,01400942
11288307631,Generator,,,52.5251165,13.3914943,01100309
11290917325,Croissant Couture,Weinbergsweg 4,10119,52.5306232,13.4022462,01100416
11300921351,Rheinstein,Rheinstraße 28,12161,52.4672371,13.3304427,07300516
11301877232,Berlin Pub,,,52.3666687,13.5054096,0
11302548737,doppio,Körtestraße 2,,52.4916157,13.411858,02200212
11309276604,Cafe A,,,52.514108,13.3231469,04300622
11329195453,VVE,,,52.5172414,13.3051371,04300621
11350408810,L’oui,,,52.5246872,13.3932556,01100309
11376045613,Sironi Café,Goltzstraße 36,10781,52.4936927,13.35354,07100204
11380847469,Cafe SulReal,Berliner Allee 115,13088,52.5505059,13.4602191,03500933
11385082936,Café Nea,,,52.5044173,13.3965787,02100102
11385540731,Art.City.People,Oranienburger Straße 32,10117,52.5257118,13.3943331,01100309
11405674877,Cafeteria OSZ-IMT,,,52.458068,13.4527612,08200623
11407140470,Auntie,,,52.537593,13.4116601,03701554
11452201269,Sengüloglu,Kottbusser Damm 32,,52.4890368,13.42424,02200213
11486568189,Kaffeeladen Loro,Kottbusser Straße 11,10999,52.4969687,13.4190742,02100106
11492276436,Kupferkanne,Frankfurter Allee 67,10247,52.5146766,13.46718,02500728
11514288411,ADAC Café,,,52.4910229,13.3301239,04501149
11525057772,Fesi Coffee,Schaperstraße 12,10719,52.4996933,13.3314218,04501045
11543758158,Bakery Cult Coffee,,,52.4925239,13.4582683,09100101
11556295688,Café Macaron,,10719,52.4916436,13.3195086,04501147
11577101371,GalileA,,,52.4526093,13.2879703,06400843
11578315925,44Brekkie,Schlüterstraße 54,10629,52.504067,13.317522,04501041
11589887197,LAP Coffee,Schönhauser Allee 75,10439,52.549382,13.4137007,03601142
11593038693,Rudi,Dörpfeldstraße 37,,52.4378757,13.5482723,09200716
11598157313,deli am Markt,Weitlingstraße 59-60,10317,52.5052807,13.4959202,11400929
11601387327,North Andes Coffee,Roelckestraße 9A,13086,52.5513104,13.4430814,03500934
11626045299,Tortuga Cycles & Café,Prenzlauer Promenade 180,13189,52.5542801,13.4293863,03400828
11630220194,Starbucks,,,52.3642658,13.5091393,0
11631002038,Kids Fun Palace,,,52.4974519,13.3323449,04501045
11638237067,Gündem,,,52.4607145,13.4348775,08200624
11638237809,Café Britz,,,52.4606517,13.4343378,08200624
11639056688,738 Krema,Auguststraße 47A,,52.5279709,13.4015522,01100309
11648549436,Café Esto,Fuldastraße 7,,52.4830854,13.4351486,08100314
11648563778,Madame Paloma,,,52.5141696,13.4646822,02500831
11649546802,Nutela Rosé,Karl-Marx-Straße 65,,52.4826307,13.4328823,08100314
11668641553,Coffee Yard,Köpenicker Straße 40B,,52.5090411,13.4259386,01100313
11672160217,BoBoQ,Karl-Marx-Straße 66,,52.4819612,13.4330314,08100206
11676759269,Zeugma Tatli Dünyasi,Hermannstraße 145,12051,52.4641571,13.4335122,08100209
11677593829,The Visit Coffee & Eatery,Knesebeckstraße 35,,52.5024155,13.3216429,04501041
11687371074,Café at Marla,Gneisenaustraße 9,10961,52.4920526,13.3904254,02200211
11690717086,Cicala Caffetteria Italiana,Schönhauser Allee 185,,52.5295818,13.4098626,03701554
11690790054,Cafeterie,Wilmersdorfer Straße 96,,52.5017281,13.3079397,04501040
11699970707,Smart Kids,,,52.5071959,13.457382,02500834
11717339483,Starbucks,,,52.5250223,13.3877971,01100308
11717554372,Seven Coffee,,,52.5265406,13.3869617,01100308
11745087444,Cafe Baobab,,,52.5114654,13.4148762,01100312
11750210966,Einstein Kaffee,,,52.5062308,13.3118115,04300623
11793730487,Miss Green Bean,,,52.3915622,13.0909087,0
11800106649,Viyana Café,Kottbusser Straße 4,,52.498094,13.418481,02100106
11800119682,Cafe Beylerbeyi,Kottbusser Straße 6,,52.4979275,13.418561,02100106
11805189912,Café Ilser,,,52.4692448,13.4358233,08100208
11809667892,Sonne,,,52.5056205,13.2999002,04300416
11809897044,Manstein,,,52.5088223,13.2941727,04300416
11813552551,House of Healing Café,Englische Straße 21,,52.516616,13.3320442,04300620
11813937446,Naturgarten-Café,,,52.5023347,13.4671677,02500835
11815606070,Coffee Circle,Meinekestraße 25,,52.5023967,13.3293281,04501042
11834663679,Du & Ich,,,52.4698797,13.4323085,08100208
11842937700,Familienprojekt Sonnenkinder,Flutstraße 1,12439,52.4556951,13.5131987,09200613
11847301875,Kaffee Kirsche,Tempelhofer Damm 160,12099,52.4637302,13.3852573,07400824
11853839469,Kaffeemomente Berlin,,,52.530945,13.432955,03701660
11881287672,Café im Haus am Waldsee,,,52.4421151,13.2385894,06400838
11881820439,Korn Konzept,Apostel-Paulus-Straße 40,10823,52.488503,13.3531624,07200409
11888309450,Osiris,,,52.5122888,13.4520933,02400624
11888971188,Kaffee Kurbel,Feurigstraße 55,,52.4839552,13.3553759,07200410
11892812624,Symple,Sredzkistraße 45,10435,52.5383781,13.4192581,03701555
11896954523,InPiazza Café,,,52.538522,13.2059401,05100316
11918100569,Cafe Schroeder,Schröderstraße 15,,52.5302706,13.3922824,01100415
11919922614,Caras Gourmet,Potsdamer Straße 2,10785,52.5095824,13.3732561,01100102
11920383298,Eisfred,,,52.5035737,13.4863176,11400929
11924748591,Cinnamon Waffel,,,52.5112915,13.4566158,02500833
11933375713,Bubble & Bubble,,,52.4856355,13.3569556,07200410
11942913081,Yum Cha - Teecafé,Wundtstraße 24,14059,52.5111559,13.2922707,04300414
11949873069,Anima,,,52.5053691,13.4386108,02400625
11950187369,DYYD,Quitzowstraße 3,10559,52.5356875,13.3562212,01200623
11957768722,Ella,,,52.5135573,13.4550909,02500833
11973878376,Flamingo - Tealicious,Wichertstraße 18,10439,52.548885,13.4197333,03601243
11989948964,soulcafé,Okerstraße 3,,52.474281,13.4265991,08100103
11994533291,Kolo Coffee,Brunnenstraße 158,,52.5352483,13.3976274,01100415
12014614219,Chroma,,,52.5306142,13.362274,01200624
12020388604,Studio Natura,,,52.5301777,13.3969698,01100415
12022744463,Café Freiraum,Paul-Schwenk-Straße 3,12685,52.5376083,13.5394995,10100313
12029122937,Pankiez,Pannierstraße 64,,52.4855003,13.4294381,08100314
12037736884,westberlin,Alexandrinenstraße 118-121,10969,52.5005335,13.4009153,02100105
12043815538,Yöre Bake & Food,Müllerstraße 12,,52.5427582,13.3661614,01300836
12049720068,Caffé Venera Backshop,,,52.5247978,13.5177908,11300721
12057062543,DeBatchi,,12161,52.4726934,13.3213395,07300515
12060857466,Cerebra Cafe,Ritterstraße 127,10969,52.5002859,13.4136451,02100105
12075643399,Einstein Kaffee,,,52.5697784,13.403873,03400723
12078582249,Cafe Bar Cosmos,,,52.44313,13.3860207,07501030
12088821992,velicious,Bundesallee 118,12161,52.4683258,13.3286046,07300516
12091697269,SEVEN COFFEE Stay Green,Friedrichstraße 120,10117,52.5265855,13.3869696,01100308
12091767473,Abelos,,,52.6211158,13.3129704,12400723
12094161962,Cafe Lounge,,,52.5324434,13.1976341,05200629
12098457001,Open House,Christburger Straße 13,,52.5353486,13.4279457,03701658
12101397735,Dom Café,Am Lustgarten 1,,52.5191242,13.4015539,01100206
12115629242,2RadCafe,,,52.4531866,13.1426473,05400943
12118950891,Le Petit,,,52.4876129,13.4209482,02200212
12133394672,Aroma,,,52.5242056,13.3295803,01200521
12138444601,Minoa,Rykestraße 52,,52.5352488,13.4192525,03701556
12147663074,LAP Coffee,Uhlandstraße 30,10719,52.5006436,13.3247914,04501041
12154803020,Uhlands Café,,,52.4931152,13.3237665,04501149
12155952027,Café Felix,,,52.5178761,13.3917981,01100206
12161696601,LAP Coffee,,,52.4867308,13.3555363,07200409
12161920001,Yasu,,,52.4379006,13.302633,06300633
12175194448,Coffee Fellows,,,52.5216737,13.4099982,01100310
12183424941,Sonntage,,,52.5146255,13.463716,02500831
12192600515,Kiwi Lounge,,,52.4520583,13.438729,08200726
12198567781,42 Inspiring Coffee,,,52.4918894,13.3765009,02200207
12205138433,Thron,,,52.4904084,13.4233,02200213
12211856178,The Barn,Bellevuestraße 1,10785,52.5100523,13.3744478,01100102
12224042630,Kaffeezeit,,,52.5806837,13.3184988,12500930
12231379960,Pigeon,Reichenberger Straße 27,10999,52.4979323,13.4215219,02300417
12233179032,Starbucks,,,52.364596,13.5071212,0
12245833355,Unkompress,Fichtestraße 23,10967,52.4894552,13.4136716,02200212
12248512905,Alchemist,Puderstraße 22,,52.4859159,13.464701,09100202
12254992806,Lumia Gelato e Caffé,,,52.5549094,13.4113869,03601139
12258271201,Kaffeebude,,,52.5405637,13.4032678,03601142
12264464958,Schell Bistro,Heilbronner Straße 12,10711,52.5023375,13.2957874,04500937
12288027258,Meiers,,,52.529121,13.4054982,01100309
12290061476,Starbucks,Albrechtstraße 132,12165,52.4573267,13.3217156,06100102
12291397426,Tommys Café,Blankenfelder Chaussee 5,13159,52.6038749,13.3974386,03200204
12292436532,Lotta Tagesbar,Pestalozzistraße 56,10627,52.5078991,13.2973375,04300416
12297672461,Madlen Kaffee-Haus,,,52.6371462,13.2047148,0
12302094902,Exclusive Coffee,Leipziger Platz 18,10117,52.5099666,13.3771889,01100205
12306666830,Steinecke,,,52.5175558,13.3885463,01100206
12306736130,Exclusive Coffee,,,52.5142048,13.3890341,01100206
12323593976,Morgenstern,Regina-Jonas-Straße 13,,52.4973934,13.4162348,02100106
12323846550,COMEDRINK,,,52.5509965,13.4433932,03500935
12323869355,Tanzschule,,,52.54884,13.4502627,03500935
12329400639,Café am Kulturforum,,,52.5086351,13.3658488,01100102
12345841462,Café Loup,Schönwalder Straße 39,,52.5500959,13.2006304,05100312
12359974127,Barista & Friends,,,52.3928652,13.0916483,0
12361221853,Back Back,,,52.4915415,13.4015616,02200210
12367635831,Five Elephant,Kollwitzstraße 98,,52.538892,13.4212598,03701555
12367864041,Coffee Fellows,,,52.5015639,13.3454538,07100101
12377015303,Fotografiska Café Bar,Oranienburger Straße 54,10117,52.5257124,13.3890139,01100309
12388336901,soi & co.,,,52.5289026,13.4024449,01100309
12388448484,Maxim,,,52.5252232,13.3909973,01100309
12404687623,Cafe Patras,,,52.4108747,13.4035369,07601442
12420583454,Kaiser,,,52.5005528,13.3247721,04501041
12430810352,Times Bistro,Blissestraße 44,10713,52.4809949,13.3201339,04501148
12438618134,das Bistro,,,52.5209163,13.7000595,0
12439666665,SmooCaSa Salatbar und Café,Bredowstraße 8a,10551,52.5285307,13.340119,01200520
12471096323,Café Odor,Kurfürstenstraße 21-22,,52.4995699,13.3651496,01100104
12486012875,Heides,Rykestraße 52,,52.5351361,13.419174,03701556
12492511401,Rudolf Eissalon,Simplonstraße 59,10245,52.5053909,13.4647233,02500834
12495902393,Les Frères,,,52.5200925,13.3467375,01200629
12497856042,Traiteur,Melli-Beese-Ring 1,12529,52.3631004,13.508062,0
12504464244,Twist Café,,,52.5107296,13.3808779,01100205
12514116116,Café Lucré,,,52.5101672,13.3797103,01100205
12514141512,Keyu,Aaron-Bernstein-Platz 7,,52.5251991,13.3893013,01100309
12514173952,BoboQ & Lymy,,,52.5106624,13.380143,01100205
12514173953,Fancy Donuts,,,52.5106533,13.3800122,01100205
12514230423,Café am Wasser,,,52.5012817,13.4739759,11501238
12529215652,Café Sehnsucht,Skalitzer Straße 133,,52.4994683,13.4198845,02300314
12535295172,Café Drop,Kastanienallee 38,10119,52.5355329,13.4062995,01100416
12536030265,Cafe Night & Day,,,52.5347303,13.4953268,11200514
12537163503,Material,,,52.5373669,13.4118821,03701554
12537466528,Kiez Kaffee Kraft,Stendaler Straße 1,,52.5327986,13.3499718,01200623
12539866102,Cafe Jungfernheide,Schweiggerweg 8,13627,52.5389811,13.2827408,04100101
12543898976,Levent Börek,Hermannstraße 65,12049,52.4753949,13.4268298,08100103
12551346891,Giri,Hermannstraße 14,,52.4842037,13.4243857,08100101
12552257400,Barcomis,Sophienstraße 21,10178,52.5262906,13.4009462,01100309
12563463266,Perfect Timing,Sewanstraße 258,,52.4940675,13.5181533,11401137
12563785675,The Barn,,,52.5040095,13.3299337,04501042
12568269136,Coffee Fellows,,,52.5203883,13.4109964,01100310
12568491621,3st Coffee Roasters,,,52.5033898,13.3316069,04501042
12571368502,Little Ones Cafe,Karl-Marx-Allee 92,10243,52.5163866,13.4417307,02400624
12584711819,Olivo Café & Bistro,Rudower Chaussee 4,12489,52.4344515,13.5381239,09200715
12587055701,La Coffeina CafeBar,Bundesallee 208-210,10719,52.4955824,13.3315011,04501045
12594333296,Akka,Gabriele-Tergit-Promenade 17,,52.5056211,13.3754253,01100102
12600045729,Café Schwarzer Freitag,Garystraße 21,14195,52.4467527,13.281973,06400843
12600955552,Maxim,,,52.5088666,13.3757594,01100102
12601250398,Starbucks,,,52.5036693,13.3386501,04501042
12603539499,San Sebastian,,,52.4996162,13.4295269,02300315
12615327301,Einstein Kaffee,,,52.5032831,13.3251554,04501041
12629144675,She said,Kottbusser Damm 79,,52.4915595,13.4233532,08100310
12629179793,ocelot,Brunnenstraße 181,,52.5317378,13.3992762,01100415
12630246701,BICED,Rennbahnstraße 21,,52.5602357,13.4593536,03501037
12633167797,nuaRasa,Greifenhagener Str. 64,10437,52.5454302,13.4146362,03601346
12641684801,SammyS Berliner Donuts,Rosenthaler Straße 4,10119,52.5286704,13.4019004,01100309
12645227438,Café Aroma,Tassostraße 22,13086,52.5489546,13.4525074,03500935
12645513615,EEE Concept Store,,,52.5023048,13.4296171,02300315
12656556701,ck lords café,Seelingstraße 14,14059,52.5156474,13.2942383,04300413
12656557401,Café Komorebi,Nehringstraße 17,14059,52.513975,13.2945629,04300413
12656788301,Café & Eis Manufaktur,Danckelmannstraße 16,14059,52.514579,13.290743,04300413
12658285942,Alirezas Patisserie,Hufelandstraße 4,10407,52.5325969,13.4299564,03701660
12662734801,Cocoon,Exerzierstraße 14,13357,52.5540255,13.3746131,01401045
12691745034,Der geheimnisvolle Garten,,,52.481506,13.123818,0
12692640954,Le Bateau Ivre,,,52.4850162,13.3616332,07200413
12708084649,Cafe Manna,,,52.5072594,13.2929748,04300416
12709878988,Levant Caféhaus,,,52.493372,13.3298711,04501149
12710008779,BC Lounge,,,52.4691932,13.4354664,08100208
12710040485,Café Answer,,,52.4687163,13.4334138,08100208
12710051624,Café Saray,,,52.4688481,13.4344826,08100208
12710326862,AstroBistro,,,52.4039005,13.1029855,0
12716550004,Bacys Coffee,,,52.589566,13.2840227,12200515
12721942101,Moii Café,Fasanenstraße 46,10719,52.4967658,13.3266441,04501045
12732530873,Goodlyfe,Mühlenstraße 61,10243,52.5055825,13.4381323,02400625
12734423451,Café Klick,Alt-Moabit 46,10555,52.5242538,13.331528,01200522
12748036946,Antakya,,,52.506678,13.3881593,02100102
12753676306,Café Büxenstein,Regattastraße 160,12527,52.415199,13.5821007,09301126
12757833832,Augenblick,,,52.5144278,13.5674099,10300732
12758505970,Yado,Schnellerstraße 122,12439,52.4559205,13.5123821,09200613
12759089101,Frames Cafe,Anzengruberstraße 21,,52.4804446,13.4385084,08100415
12768992084,THE DROP,Waldstraße 55,10551,52.5284891,13.3305924,01200519
12770066042,CaféCasa,,,52.3650799,13.5088327,0
12770082492,marché mövenpick,,,52.3638548,13.5098701,0
12771725300,Lesecafé Babett,,,52.5130021,13.4404727,02400625
12791229340,Bonsoir Frühstückscafé,,,52.5213239,13.4462479,02400522
12802486843,Friends Cafe,Friedenauer Höhe 6,12159,52.4776996,13.3403864,07300517
12815173217,Midori,,,52.51382,13.4783449,11300722
12830932821,Onkel Café,,,52.5529892,13.3479486,01400938
12834924618,Bistro Cleopatra,,,52.5042499,13.3893967,02100102
12840139401,Nook,Hans-Otto-Straße 6,,52.529962,13.4348917,03701660
12866468883,zehn vor acht,Dieffenbachstraße 13,,52.4927763,13.4151823,02200213
12871557601,Varuna Steg Café,,,52.6346212,13.2131346,0
12878086787,Aida,,,52.5250632,13.3689117,01200628
12896975968,Arakil,,,52.4716847,13.4286319,08100104
12899177924,Ponterosa Café,Reichenberger Straße 136,,52.4962901,13.4284494,02300417
12899885031,Exclusive Coffee,Hildegard-Knef-Platz 3,10829,52.4758317,13.3632948,07200412
12901723314,Unser Hundecafé,,,52.5864654,13.4066939,03200207
12909482862,FLINTA*-Cafe,Einsteinufer 19,10587,52.5144543,13.325771,04300622
12914401540,Coco Senol,,,52.4658757,13.4369315,08100209
12945410942,Cafe Sapphire,Chausseestraße 43,,52.5342707,13.3786969,01100308
12952208601,Café Dix,Alte Jakobstraße 124-128,10969,52.503546,13.3984908,02100103
12956106263,Ooft,Pankstraße 92,,52.5454559,13.3702808,01401044
12957639106,Kaffee Bohnenamt Bakery,Daimlerstraße 91,12277,52.4218784,13.3845938,07601238
12959534558,Pinke-Panke,,,52.5689351,13.3883872,03400620
12964239861,Café 4 elements,,,52.4516862,13.3353424,06100206
12965184363,Sirene,Knaackstraße 20A,,52.5347061,13.4193916,03701556
12965192060,Akkurat,Besselstraße 13,10969,52.5048479,13.394174,02100102
12985025944,Mövenpick Café,,,52.3608987,13.5094061,0
12985555747,Dandana,,,52.4888755,13.4113018,02200212
12992824568,Casa Nila,,,52.5308362,13.3479684,01200623
12997953059,Acid,,,52.5322144,13.4102909,03701554
13001916654,MK Café,Müllerstraße 162A,,52.5437879,13.3632486,01401047
13002075668,T`aroma,,,52.5070478,13.5121363,11400931
13003929435,Coffee Circle Maybachufer,,,52.4936749,13.4271516,08100310
13008956153,Loz,,,52.4935403,13.4252611,08100310
13014016920,Sane,,,52.4841217,13.5119241,11501341
13026970162,Il Focacciaio,Torellstraße 6,,52.5111569,13.4485648,02400624
13028582701,Agiori Eis Café,Hallesches Ufer 40,,52.5000461,13.384588,02100101
13035540179,Metis,Gleimstraße 21,,52.5472842,13.4104194,03601142
13038381701,Insel Cafe,,,52.4955346,13.468347,02500836
13041273100,Felino,Landsberger Allee 48,,52.5239443,13.4414987,02400521
13043426722,Pinoli,Nieberstraße 12,12487,52.4491183,13.5126143,09100408
13061519901,Café Tiergarten,Altonaer Straße 3,,52.5168241,13.3439942,01200629
13061630301,Frau Honig,,,52.5196863,13.4627258,02500728
13061757152,Leos,,,52.528507,13.4246052,03701660
13061785953,Café Ida,,,52.5180619,13.3005632,04300414
13065136405,Barber Coffee Bar,,,52.4925151,13.4211424,02200213
13070437801,Du Und Ich,Altenbraker Straße 22,12053,52.4698633,13.4323046,08100208
13070823570,La Créperie,,,52.4934032,13.4646747,09100101
13070823571,Caffé Degli Angeli,,,52.4934204,13.4646276,09100101
13070823572,,,,52.49345,13.4645413,09100101
13070823573,,,,52.4934691,13.4644958,09100101
13070823574,Hafensüss,,,52.4935054,13.464411,09100101
13075778901,"monu - coffee, wine & snacks",Monumentenstraße 27,10965,52.4879137,13.3748806,02200209
13076209736,Tonys Café,,,52.448598,13.3388217,06100206
13077571101,Warawul Coffee,Karl-Marx-Straße 162,12043,52.4753703,13.4395293,08100207
13081389195,Cafe am Einsteinufer,,,52.5176602,13.3227389,04300622
13093276639,Café Nénom,,,52.5154696,13.3911942,01100206
13093907001,Café Tiergarten,Altonaer Straße 3,10557,52.5168044,13.3439752,01200629
13094080502,LAP Coffee,Oderberger Straße 53,10435,52.5385758,13.4091391,03701554
13094093201,LAP Coffee,Schönhauser Allee 176,10119,52.5316098,13.411969,03701554
13094737888,Breakfast club,,,52.4998876,13.4370025,02300419
13095868889,Luwian,,10559,52.5266668,13.3525478,01200625
13098352598,Mocca é,,,52.5264207,13.3875549,01100309
13098814452,Tujêt Ân Văt,,,52.5098443,13.4983625,11400929
13101566901,Kuchen Rausch,,,52.475596,13.2871207,04400831
13108222601,Café Bistro Leopold,Prinz-Friedrich-Leopold-Straße 6,14129,52.4300977,13.1957424,06400737
13109366078,LAP Coffee,Graefestraße 19,10967,52.4927983,13.4173593,02200213
13113081702,Havelspitze,,,52.5552507,13.2188868,05100104
13125062243,Café Diadem,,,52.6092545,13.2000939,0
13134844110,BALI,,,52.5578627,13.0909504,0
13137984987,Café Lulo,Eschersheimer Straße 41,,52.4643124,13.4219243,08100105
13143943238,treppe,,,52.472471,13.4194369,08100103
13144931901,Lav&Maz Spielcafé,Glasower Straße 7,12051,52.4649155,13.4404201,08100209
13149259435,Casino Cafe Clinic for Social Medicine,Sonnenallee 100,12045,52.4820545,13.438957,08100314
13158363265,Schildaue Eiscafè,Hauptstraße 30,16552,52.6368481,13.3758727,0
13159374409,Fräulein Dickes,,,52.5453197,13.4213614,03601347
13159540934,Brett & Spiele,Martin-Luther-Straße 120,10825,52.4811985,13.3447338,07200308
13161802980,Mayerbeer Coffee,Prager Platz 1-3,10779,52.4933752,13.3324592,04501152
13175382201,Kaffee Käthe Breakfast und Brunch,Kollwitzstraße 38,10405,52.5338048,13.4155757,03701556
13180257039,east side berlin,Melli-Beese-Ring 1,12529,52.3623394,13.5082572,0
13180257045,in.gredienti,,,52.3615832,13.5120622,0
13180257053,Deli Berlin,,,52.362197,13.514556,0
13201131501,Cokete,,,52.5448893,13.4122503,03601142
13227475260,Moccas,,,52.4969021,13.3542678,07100102
13227705801,Zeitlos Antik Café,,,52.5401105,13.4198123,03601348
13228341512,café note,,,52.5000694,13.4226247,02300314
13243178166,,,,52.5251107,13.4934655,11300721
13245901696,1838 Deli,,,52.5085654,13.3722389,01100102
13247635466,toastasty,Blücherstraße 66,,52.4958549,13.3969919,02200210
13247877786,Coffee Deluxe,,,52.4956892,13.3973379,02200210
13251941563,Maxim Kaffee,,,52.5495598,13.3878215,01300733
13256790765,The Breakfast Story,,10435,52.5382674,13.4163884,03701555
13259774665,LAP Coffee,Rykestraße 11,,52.536277,13.4206395,03701555
13261604608,Sweet Capital,Alte Potsdamer Straße 7,,52.5072725,13.3738606,01100102
13274011862,La Maison Pop-Up,Raumerstraße 8,10437,52.5429016,13.4178554,03601347
13274337116,Vej,,,52.4864093,13.3736298,07200414
13275269211,Lemys Café,,,52.5573145,13.3403806,01400937
13275522124,Café Kunst Genuss,,,52.5120838,13.2999354,04300414
13282621029,Coffee & Co.,,,52.4821328,13.4339008,08100314
13289204002,Mr. Melon Pan,Danziger Straße 21,10435,52.5406859,13.4162197,03601347
13291502351,Cafe´ Hilde,,,52.5309929,13.4186628,03701556
13296522301,The Coffee Club,Wielandstraße 37,10629,52.5038741,13.3156823,04501041
13298113431,MAVI,,,52.499581,13.4403554,02300419
13301634535,Bistro Elsa,Lehrter Straße 66,,52.5280107,13.3639146,01200623
13302388009,Piro Espressobar,Friedrich-Karl-Straße 7,12103,52.4557517,13.3823963,07400825
13306095411,,,,52.5295367,13.4533961,03601452
13306129125,Cinnabuns,,,52.5357832,13.2022959,05100316
13308160699,,,,52.5294242,13.3929184,01100415
13321847502,,Kurfürstendamm 115b,10711,52.4975976,13.2905402,04500937
13324866876,Kaffeestube Alt-Berlin,,,52.5321463,13.3802651,01100308
13341097368,Aux Delices Normands,Ladiusstraße 19,14165,52.4110064,13.2632786,06300525
13361808097,Café Lohnia,,,52.4302965,13.1933922,06400737
13361817705,Passenger,,,52.4891882,13.428777,08100311
13363633254,Five Elephant,,,52.5068223,13.3673459,01100102
13368176730,Strom,Saarbrücker Straße 36,10405,52.5286988,13.4155841,03701556
13370714396,Maxim,Karl-Liebknecht-Straße 14,,52.521671,13.4086525,01100310
13391008567,Rote Insel,,,52.4763533,13.3618681,07200412
13395226851,Cello Café,Straßmannstraße 30,10249,52.5225743,13.4519715,02500726
13415726980,The Dawn,,,52.5056528,13.3369759,04501042
13421618627,Pastiche,Weserstraße 46,12045,52.4844108,13.4385256,08100312
13423609076,Stilbruch Kitchen,,,52.5083243,13.4531306,02500834
13426886801,Maybach,,,52.4954325,13.4212999,08100310
13427513202,HoYoverse Cafe,Rochstraße 4,10178,52.5239417,13.4073085,01100309
13432541226,Copper & Flint,,,52.5056676,13.3368311,04501042
13434210492,Vivantes Café,,,52.5255167,13.4390587,02400520
13437737799,Ginger Club,,,52.4988352,13.2987421,04500937
13442524523,Café Rahel Hirsch,,,52.5269495,13.3793865,01100308
13468118148,Imma Princess MF,,,52.5444873,13.4247062,03601348
13468346784,Berliner Kaffeerösterei,,,52.5097764,13.282696,04200311
13468585265,Leopold Bloom,,,52.5043168,13.3200454,04501041
13472470507,Petit Café,Dudenstraße 15,,52.4848509,13.3830514,07400720
13509692701,mel & koffie,,,52.55041,13.4142847,03601141
13511633764,The Mortimers Social,,,52.4923679,13.3968872,02200210
13512501983,The Upside Down Hang Out & Karaoke,,,52.506779,13.3735729,01100102
13514027889,Planwirtschaft,,,52.5134734,13.3240779,04300622
13514395319,Zui,,,52.5318292,13.3439339,01200623
