id,name,street,zip_code,lat,lon,geojson_feature_id
29071031,Bruno-Lösche-Bibliothek,Perleberger Straße 33,10559,52.5312448,13.3475136,01200623
60848456,Anton-Saefkow-Bibliothek,Anton-Saefkow-Platz 14,10369,52.5307772,13.4708382,11300617
203557001,Stadtteilbibliothek Erich Weinert,Helene-Weigel-Platz 4,12681,52.5281578,13.538715,10100312
256922190,Stadtteilbibliothek Halemweg,Halemweg 18,13627,52.5375039,13.2871861,04100101
257708789,Bezirkszentralbibliothek Spandau,Carl-Schurz-Straße 13,13597,52.5361334,13.2013864,05100316
262879310,Gemeindebibliothek Eichwalde,Grünauer Straße 54,15732,52.3744293,13.6199028,0
263679066,Bezirkszentralbibliothek Mark Twain,Marzahner Promenade 52-54,12679,52.54722,13.556704,10100210
264776935,Ibero-Amerikanisches Institut,Potsdamer Straße 37,10785,52.5068092,13.369701,01100102
266540876,Bezirkszentralbibliothek Philipp Schaeffer,Brunnenstraße 181,10119,52.5316059,13.3986959,01100415
266629485,Stadtteilbibliothek Mahlsdorf,Alt-Mahlsdorf 24-26,12623,52.5055546,13.6127893,10400939
271875991,"Campusbibliothek Natur-, Kultur- und Bildungswissenschaften, Mathematik, Informatik und Psychologie",Fabeckstraße 23/25,14195,52.4535775,13.2902597,06400843
281375131,Wolfdietrich-Schnurre-Bibliothek,Bizetstraße 41,13088,52.5477387,13.4528367,03500936
293137702,Stadtteilbibliothek Karow,,,52.616548,13.4917041,03300411
298063780,Bibliothek,Jahnstraße 2a,14513,52.4036309,13.2589194,0
308811018,Bettina von Arnim Bibliothek,Schönhauser Allee 75,10439,52.5492616,13.414088,03601142
323991172,Egon-Erwin-Kisch-Bibliothek,Frankfurter Allee 149,,52.5134373,13.4813674,11300722
333343782,Helene-Nathan-Bibliothek,Karl-Marx-Straße 66,12043,52.4819616,13.4327729,08100206
345162417,Ingeborg-Drewitz-Bibliothek,Grunewaldstraße 3,12165,52.4577849,13.3196255,06100102
365322133,Gemeindebibliothek,,,52.3597239,13.5929802,0
395599328,Bibliothek Panketal,,,52.6599157,13.5330917,0
439225024,,,,52.3405271,13.6121889,0
439229151,Johannes-Bobrowski-Bibliothek,Peter-Hille-Straße 1,12587,52.4548013,13.6214013,09501737
444731308,Stadtteilbibliothek Lichenrade,Steinstraße 41,12307,52.3879238,13.3973796,07601544
444994924,Heinrich-Schulz-Bibliothek,Otto-Suhr-Allee 96,10585,52.5171056,13.308865,04300619
482710823,Zweigbibliothek Naturwissenschaften,Rudower Chaussee 26,12489,52.4310682,13.5314264,09200715
486517226,Bibliothek Campus Wilhelminenhof,,,52.4554005,13.5247238,09200511
507660382,KEH Bibliothek,,,52.5280812,13.5120545,11300721
529557633,Eberhard-Alexander-Burgh-Bibliothek,,,52.4713483,13.313449,04400834
560823423,Friedrich-von-Raumer-Bibliothek,Dudenstraße 18-20,10965,52.4851862,13.3827588,02200209
586328524,Bibliothek des John-F.-Kennedy-Instituts,Lansstraße 7-9,14195,52.4571611,13.2920178,06400843
599557492,Bibliothek Schönow,Schönerlinder Straße 25a,16321,52.6742985,13.5304937,0
609820670,Gemeindebibliothek,Dorfaue 5,15566,52.4794058,13.7012118,0
618048288,Stadtteilbibliothek Buch,,,52.6356441,13.4938846,03100103
639552895,HU Berlin – Zweigbibliothek Rechtswissenschaft,Bebelplatz 1,10117,52.5164298,13.3932385,01100206
648465837,Bibliothek Werneuchen,,,52.6311929,13.7312179,0
665121783,Comicbibliothek Renate,Tucholskystraße 32,10117,52.5261368,13.3937348,01100309
737212457,Heinrich-Böll-Bibliothek,Greifswalder Straße 87,10409,52.5418167,13.4408459,03601449
747882909,Stadtbibliothek Hohen Neuendorf,Schönfließer Straße 17,16540,52.6692125,13.2876619,0
768748868,,,,52.6493992,13.1390844,0
795561505,Adolf-Reichwein-Bibliothek,Berkaer Straße 7,14199,52.4775843,13.2878878,04400830
1070809009,Zweigbibliothek Klassische Archäologie,Unter den Linden 6,10117,52.5190211,13.3928706,01100206
1070809020,Zweigbibliothek Fremdsprachliche Philologien / Teilbibliothek Großbritannien-Zentrum,Dorotheenstraße 65,10117,52.5183016,13.386705,01100206
1346361343,Bodo-Uhse-Bibliothek,Erich-Kurz-Straße 9,10319,52.4978553,13.5209225,11401137
1356847676,Janusz-Korczak-Bibliothek,Berliner Straße 120,13187,52.568454,13.4123577,03400723
1362209543,Ingeborg-Bachmann-Bibliothek,Nehringstraße 10,14059,52.5145468,13.2939985,04300413
1425169658,Bibliothek des Friedrich-Meinecke-Instituts und des Kunsthistorisches Instituts,Koserstraße 20,14195,52.4613917,13.2947799,06400844
1445349886,Trude-Jugend-Bib,Bat-Yam-Platz 1,12353,52.4255455,13.4622976,08300935
1469991062,Öffentliche Bibliothek Kleinmachnow,Adolf-Grimme-Ring 10,14532,52.4032275,13.2199129,0
1472976631,Else-Ury-Bibliothek,Glogauer Straße 13,10999,52.4925504,13.4362136,02300418
1481377095,Die Bibliothek Wirtschaft und Management,Straße des 17. Juni 135,10623,52.5121417,13.3262714,04300622
1670728349,Fachbibliothek Kurdologie,Emser Straße 26,12051,52.4690497,13.4339544,08100208
1684737379,Bibliothek der Freien,Greifswalder Straße 4,10405,52.5286995,13.4254805,03701660
1685672555,Archiv für Alternativkultur,Anton-Wilhelm-Amo-Straße 41,10117,52.5127362,13.3957618,01100206
1818848292,Johanna-Moosdorf-Bibliothek,Westendallee 45,14052,52.5106578,13.2586101,04200309
1863570970,Kurt-Tucholsky-Bibliothek,Esmarchstraße 18,10407,52.5328818,13.4321724,03701660
1874529829,Artothek,Hohenzollerndamm 176,10713,52.489441,13.3118736,04501146
1933757018,"Bibliothek für Sozialwissenschaften und Osteuropastudien, Stiller Lesesaal",Ihnestraße 21,14195,52.449221,13.2769658,06400843
2094774970,Kunstbibliothek,Matthäikirchplatz 6,10785,52.5085131,13.3669367,01100102
2270319509,Das Buddhistische Haus,,,52.635613,13.3029182,12400721
2402339489,La Rayuela,Südstern 2,10961,52.4900049,13.4056371,02200210
2479053622,"Institut Français Berlin, Mediathek",Kurfürstendamm 211,10719,52.5021314,13.3248746,04501041
2571245538,Stadtteilbibliothek Altglienicke im Bürgerhaus,Ortolfstraße 182,12524,52.4033811,13.5286278,09300922
2644700001,Archiv der Jugendkulturen,Fidicinstraße 3,10965,52.4864803,13.389689,02200211
2684057233,Anna-Ditzen-Bibliothek,,15366,52.5212779,13.7047745,0
2755893345,,,,52.5233124,13.7525783,0
2777497901,Patientenbibliothek,Bonhoefferweg 4,,52.5266936,13.3766679,01100308
2802477601,Stadtteilbibliothek,,,52.5499724,13.1780019,05100209
2900627200,Bibliothek Panketal,Genfer Platz 2,16341,52.6384606,13.5263249,0
2960571181,,Krummenseestraße 1,15345,52.567913,13.7276159,0
2964523835,Kulturpost und Bibliothek,Hauptstraße 32,13158,52.5871192,13.3678296,03400619
3203713887,kalabal!k,Reichenberger Straße 63a,10999,52.4952361,13.4307312,02300418
3408439137,Gemeindebibliothek,Hauptstraße 9,16567,52.6629016,13.3782745,0
3428467245,Universitätsarchiv,Malteserstraße 74-100,12249,52.4260423,13.3587376,06200316
3478842465,Schulbiblothek,,,52.4943297,13.3578235,07100204
3518345658,Joseph Wulf Bibliothek,Am Großen Wannsee 58,14109,52.4327843,13.1656465,06400735
3806550974,Bibliothek des Deutschen Bundestages,Adele-Schreiber-Krieger-Straße 1,10117,52.5202388,13.3772992,01100308
3837620248,Bibliothek Tiergarten-Süd,Lützowstraße 27,10785,52.5037597,13.3634291,01100103
3952396497,Umweltbibliothek,Bismarckplatz 1,14193,52.4921781,13.2826514,04400726
3981795844,Anna-Seghers-Bibliothek,Prerower Platz 2,13051,52.5649762,13.5061185,11100307
4025920836,DESY Bibliothek,Platanenallee 6,15738,52.3456192,13.6329787,0
4097819347,Stadtbibliothek Falkensee,,,52.5628809,13.0919715,0
4114649179,Bibliothek der Stiftung Topographie des Terrors,Niederkirchnerstraße 8,10963,52.5067416,13.383896,02100101
4155022023,Erwachsenenbibliothek,Hauptstraße 19,16548,52.6304956,13.3192634,0
4221527005,Zweigbibliothek Asien-/Afrikawissenschaften und Islamische Theologie,Invalidenstraße 118,10115,52.5305537,13.3859469,01100415
4271022996,Stadtteilbibliothek Kladow,Sakrower Landstraße 2,14089,52.453258,13.1429895,05400943
4432723694,Bibliothek Am Wasserturm,Prenzlauer Allee 227-228,10405,52.5331584,13.419505,03701556
4706616647,Bibliothek,Britzer Straße 5,12439,52.4525785,13.5189284,09200613
4805428213,Medienforum Berlin,Levetzowstraße 1-2,10555,52.5222118,13.3308065,01200522
4806499594,Hansabibliothek,Altonaer Straße 15,10557,52.5170943,13.3427522,01200629
4878247166,Ortsteilbibliothek,Lindenberger Straße 1b,16356,52.5757651,13.5745794,0
5062614778,,,,52.521758,13.3638336,01200628
5245440325,Zweigbibliothek Musikwissenschaft,Am Kupfergraben 5,10117,52.5203781,13.395109,01100206
5275440213,Peter-Weiss-Bibliothek,Hellersdorfer Promenade 24,12627,52.5416071,13.6068282,10200422
5318467222,Bibliothek im Märkischen Viertel,Wilhelmsruher Damm 142c,13439,52.5976675,13.3523189,12601134
5533888846,Charité Medizinische Bibliothek Campus Mitte,Philippstraße 11/12,10115,52.5261622,13.3801597,01100308
5643477411,Stadtteilbibliothek Frohnau,Fuchssteinerweg 17,13465,52.63544,13.295141,12400721
5735063971,Kurt-Tucholsky-Bibliothek,Rostocker Straße 32b,10553,52.531583,13.3262022,01200518
5798364681,Stadtteilbibliothek Haselhorst,Gartenfelder Straße 104,13599,52.5429259,13.2390484,05300737
5838369566,Patientenbibliothek,,,52.4602755,13.347826,07300619
5892784984,Bibliothek,,,52.3388643,13.2741894,0
5977960159,Bücherstube,Briesestraße 79,12053,52.4769397,13.4273818,08100207
6046124564,Zweigbibliothek Germanistik,Dorotheenstraße 24,10117,52.520016,13.3927337,01100206
6275993185,Mathematische Fachbibliothek,Straße des 17. Juni 136,10623,52.5140827,13.3251316,04300622
6508696687,ESCP Bibliothek am Campus Berlin,Heubnerweg 8-10,14059,52.5242453,13.2890223,04300412
6720863485,Bibliothek Rechtswissenschaft,Vant-Hoff-Straße 8,14195,52.4478314,13.2813366,06400843
6880841994,ICI Berlin,Christinenstraße 18-19,10119,52.5321836,13.4107782,03701554
6976235391,"Bildagentur für Kunst, Kultur und Geschichte",Märkisches Ufer 16;18,10179,52.5128877,13.4103123,01100312
7232178641,Teilbibliothek Japanologie,Johannisstraße 10,10117,52.5246239,13.3920937,01100309
7798570856,Bibliothek der Jüdischen Gemeinde,,,52.5043465,13.3283687,04501042
8097837782,Katholische öffentliche Bücherei,,,52.3859756,13.3980521,07601544
8151138614,Stadtteilbibliothek Kaulsdorf,Neue Grottkauer Straße 5,12619,52.5293637,13.5928919,10200628
8435515108,Stadtteilbibliothek Heerstraße,Obstallee 22F,13593,52.5224043,13.1654101,05200527
9067856748,Stefan-Heym-Kinderbibliothek,Dörpfeldstraße 52,12489,52.4385838,13.5496155,09200717
9077951933,Gertrud-Junge-Bibliothek,Bat-Yam-Platz 1,12353,52.425675,13.4620726,08300935
9347421347,Gertrud-Haß-Bibliothek,Alt-Rudow 45,12357,52.4189356,13.4943156,08401243
9481986710,Gemeindebibliothek,,,52.3496628,13.1026797,0
9780942686,Kollektivbibliothek,Mariannenplatz 2B,10997,52.5037159,13.4230798,02300314
10197004045,Bereichsbibliothek Architektur und Kunstwissenschaft,Straße des 17. Juni 152,10623,52.5133684,13.3240024,04300622
10864307445,Stadtbibliothek,,,52.6686801,13.3171765,0
11309948213,Bereichsbibliothek Physik,,,52.5109671,13.3240187,04300622
11446515471,BIbliothek des Schiller-Gymnasiums,Schillerstraße 125,10625,52.5104545,13.3212359,04300624
11585204402,WiKo Bibliothek,,,52.5698457,13.1967881,05100101
11778098531,Stefan-Heym-Erwachsenenbibliothek,Dörpfeldstraße 54,,52.4388718,13.5497223,09200717
11805773403,HWR Bibliothek Campus Lichtenberg,Alt-Friedrichsfelde 60,10315,52.5079479,13.526379,11401034
11929111653,,,,52.5114995,13.3996858,01100207
12160416171,Zentralbibliothek der Freien Universität Berlin,Garystraße 39,14195,52.4481214,13.2777683,06400843
12942410449,Patentenbibilothek,,,52.526706,13.3766422,01100308
13233046383,Bibliothek des Konservatismus,Fasanenstraße 4,10623,52.5073595,13.3278048,04300622
13301410694,Bibliothek des Deutschen Zentralinstituts für Soziale Fragen,Bernadottestraße 94,14195,52.4653361,13.2924086,06400844
13308471228,Totschka,Prenzlauer Allee 216,10405,52.5353953,13.4211366,03701556
13366816284,Ilse-Hinze-Bücherei,,,52.6099589,13.2483155,12400619
