id,name,street,zip_code,lat,lon,geojson_feature_id
28341970,Seepferdchen,,,52.44417,13.6250884,09401433
243487615,Richard Wagner,,,52.5100656,13.3618687,01100102
255049659,Flensburger Löwe,,,52.433884,13.1649872,06400735
258485628,Begegnung,,,52.5287349,13.4731555,11300617
262455591,Reiterstandbild Friedrich II. von Preußen,,,52.5172596,13.3927444,01100206
276952883,Friedrich Wilhelm III. von Preußen,,,52.5115682,13.3644883,01100102
278707399,Büffeljagd,,,52.5133248,13.3485026,01100102
278707727,Eberjagd,,,52.5132673,13.3486216,01100102
278707884,Fuchsjagd,,,52.5115612,13.3463116,01100102
278707964,Hasenhetze,,,52.5115004,13.3464481,01100102
278731128,Wilhelm von Preußen,,,52.5104419,13.3653213,01100102
278739110,Löwengruppe,,,52.5149329,13.3756446,01100102
279158435,Gerhard von Scharnhorst,,,52.5171421,13.3953664,01100206
279158438,Friedrich Wilhelm Bülow,,,52.5171501,13.3954905,01100206
279158441,August von Gneisenau,,,52.5165746,13.3955788,01100206
279158443,Gebhard von Blücher,,,52.5165721,13.3957416,01100206
279158444,Ludwig Yorck,,,52.5165948,13.3959003,01100206
282832869,Konfuzius,,,52.5368705,13.5770788,10100316
300535811,Schneewittchen und Menzel-Zwerg,,,52.5280237,13.4268854,02400520
300535816,Dornröschen,,,52.5278474,13.4268436,02400520
306686686,,,,52.5437405,13.5848469,10200418
308627797,Für Bettina und Achim von Arnim,,,52.5519224,13.4094844,03601141
310193623,Dieselmotor,,,52.5434623,13.3525944,01400942
313826576,Berlin,,,52.503379,13.3386522,04501042
317399607,Amazone zu Pferde,,,52.5146836,13.3691757,01100102
341129953,Sonnenuhr,,,52.5436919,13.427289,03701657
355920610,Der seltene Fang,,,52.4896516,13.3819699,02200209
355938216,Wir haben Gesichter,,,52.4894295,13.382422,02200209
364510120,Pionierleiter mit jungen Pionieren,,,52.4597546,13.5433785,09200512
371212810,Schreitendes Mädchen,,,52.5131821,13.1934453,05200634
376689138,Granitschale im Lustgarten,,,52.5190984,13.3991493,01100206
437150946,Large Divided Oval: Butterfly,,,52.5179289,13.364366,01100102
437319063,Wilhelm von Humboldt,,,52.5176016,13.3934583,01100206
437319127,Alexander von Humboldt,,,52.5176423,13.3940809,01100206
437319587,Walther Tell,,,52.5172656,13.3886648,01100206
440104695,Aus der Asche unserer Toten,,,52.4655419,13.5458011,09200512
459656857,Knabe mit Fisch,,,52.5388231,13.4367861,03601451
510056630,Walrosse,,,52.5461714,13.4044029,03601142
520288357,Goldstatue / Venus,,,52.5802136,13.4001013,03200206
520436149,"""Inge""",,,52.5785282,13.4078914,03400722
536404808,Hauptmann von Köpenick,,,52.4457848,13.5747384,09401534
558903414,Blauer Obelisk,,,52.5093574,13.2721555,04200310
564683254,Blutmauer,,,52.5143052,13.4786734,11300722
616121956,Gorilla Bobby,,,52.5062459,13.3392782,01100102
660473318,,,,52.4552991,13.441041,08200623
663611903,Wilder Eber,,,52.470507,13.2898187,04400832
664566378,Nichtgeburtstagsbrunnen,,,52.5015038,13.3899479,02100102
667211397,Der Sieger,,,52.5163909,13.2605451,04200309
671179733,Himalayator,,,52.5077008,13.5326966,11401034
671776286,Der Ringer,,,52.5088625,13.2592594,04200309
673749057,Richtkrone,,,52.5254842,13.5441248,10100312
675331859,Kniende Engel,,,52.5390217,13.378496,01100414
675331882,Kniende Engel,,,52.5390727,13.3785772,01100414
686064057,Rossebändiger,,,52.4919354,13.3578249,07100204
686064059,Rossebändiger,,,52.4928921,13.3579195,07100204
695817659,Rotkäppchen,,,52.5280282,13.4267825,02400520
695817673,Hänsel,,,52.528001,13.426547,02400520
695817677,Brüderchen und Schwesterchen,,,52.5278625,13.4267372,02400520
695817684,Hans im Glück,,,52.5278929,13.4265403,02400520
695817688,Gretel,,,52.5279303,13.4265266,02400520
695817693,Der gestiefelte Kater,,,52.5280371,13.4265794,02400520
695817713,Die sieben Raben,,,52.5280326,13.4266821,02400520
695817716,Aschenputtel,,,52.5278779,13.4266378,02400520
702232719,Bär,,,52.5489435,13.4216955,03601244
736236928,GISELA Freier Kunstraum Lichtenberg,Giselastraße 12,10317,52.5048336,13.490377,11400929
765104600,Comeniusdenkmal,,,52.4751172,13.442504,08100416
774659676,Pallasseum,,,52.494397,13.3587074,07100103
787496743,Pendelobelisk,,,52.5032321,13.3309651,04501042
821572992,Riding Bikes,,,52.5082003,13.3752627,01100102
829831964,Uhr der fließenden Zeit,,,52.5046128,13.3375539,04501042
846286953,Die Sieben Schwaben,,,52.4905682,13.3147564,04501043
874570872,Arnim-Denkmal,,,52.6070075,13.6255024,0
907811981,Stier,,,52.4587194,13.3696293,07400822
928109875,Froschkönig,,,52.5279441,13.4267687,02400520
928109881,Froschkönig,,,52.527933,13.426866,02400520
928109883,Mutter mit Kind,,,52.5275618,13.4390901,02400520
928109885,,,,52.5281558,13.4398003,02400520
928109887,Froschkönig,,,52.5279553,13.4266689,02400520
940860722,Kino,,,52.5269217,13.3991902,01100309
944470543,Zeitnadel,,,52.5085925,13.3678133,01100102
946239604,Brücken der Begegnung,,,52.5080438,13.3061926,04300623
952591102,Der gestürzte Krieger,,,52.5052106,13.3288628,04300622
966034386,Hans Joachim von Zieten,,,52.5116599,13.3843932,01100205
968157718,Perspektiven,,,52.4476977,13.2800281,06400843
972802473,Versus,,,52.497279,13.2929936,04500938
994552072,Mister Net,,,52.3938194,13.131618,0
994552100,Mikadoplatz,,,52.3923091,13.1296399,0
1023960809,Flamme,,,52.5132366,13.3230221,04300622
1038089721,Obelisk am Henriettenplatz,,,52.4972933,13.2906031,04500937
1049418449,Interior Space,,,52.4557872,13.2975889,06400843
1069490670,Berlin,,,52.4186939,13.1964052,06400736
1098163349,Doppelgängeradmiral,,,52.4972324,13.4164208,02100106
1200367951,Balanceakt,,,52.5080234,13.3986047,02100102
1221616930,AVUS Motorradfahrer Denkmal (Ewald Kluge und Ernst Jakob Henne),,,52.5032801,13.2785055,04200311
1231231455,Fischreiterin,,,52.4971115,13.3244802,04501045
1238189462,Mind the gap,,,52.554612,13.397881,03601140
1239899685,"Arc de 124,5°",,,52.5014039,13.3471466,07100102
1244624814,Bertolt Brecht,,,52.5141726,13.4147557,01100312
1244624838,Rolandstatue,,,52.5137515,13.4148018,01100312
1257857018,Galerie am Tuchollaplatz,Türrschmidtstraße 19,,52.5027881,13.479651,11400927
1270806845,Zwei Beton-Cadillacs in Form der nackten Maja,,,52.4947941,13.2855955,04400726
1298380958,Harmonikaspieler,,,52.5456839,13.3530508,01400942
1298380965,Torskulptur,,,52.5455675,13.352811,01400942
1321868819,KD24,,,52.4842309,13.4683222,09100202
1327973338,Der Sieger,,,52.5160518,13.3647248,01100102
1327995113,Liegender Bison Ⅱ,,,52.5151009,13.3692807,01100102
1327995127,Knabe mit Pony,,,52.5170599,13.3505924,01100102
1327995129,Theodor Fontane,,,52.5098344,13.3482818,01100102
1327995132,Sonnenuhr,,,52.5173476,13.3476441,01100102
1327995135,Florastatue,,,52.5141107,13.3564767,01100102
1327995149,Das deutsche Volkslied,,,52.5101567,13.350201,01100102
1354983429,,,,52.540823,13.4280446,03701657
1354983430,Das Schiff zur Rettung der Unschuld der Kunst,,,52.5418053,13.4278901,03701657
1361287218,Stehende und ruhende Gruppe,,,52.5046744,13.3531239,01100103
1367897361,Minerva-Statue,,,52.5216132,13.2934185,04300412
1367897362,Victoriasäule,,,52.5212378,13.298734,04300412
1370678060,Ringer,,,52.5508681,13.3344915,01400937
1379551597,,,,52.5042432,13.5662884,10300734
1401746984,Victoriasäule,,,52.5213267,13.2987289,04300412
1406133540,Global Stone Project,,,52.5131029,13.3735594,01100102
1408609515,Genoveva-Brunnen,,,52.5465289,13.2618592,05300839
1413101518,Mutter und Kind,,,52.5445198,13.2650769,05300839
1416963552,Erwachendes Mädchen,,,52.4486643,13.3363725,06100206
1416963553,Begegnung,,,52.4462374,13.3358046,06100206
1417050252,Spielende Zicklein (Spielende Böcklein),,,52.5451877,13.2614569,05300839
1417050258,Streitende Knaben,,,52.5457309,13.261328,05300839
1417050260,Spielende Bärenkinder,,,52.5452171,13.2616847,05300839
1417108109,Seerobben-Brunnen,,,52.5394457,13.2704446,05300839
1425321884,Foundation,,,52.5284807,13.3630203,01200623
1426869595,Zwei Seehunde,,,52.4480546,13.3343853,06100206
1455800878,Segnender Christus,,,52.5476281,13.4156788,03601346
1455800958,Der Geistkämpfer,,,52.5475654,13.4162315,03601346
1463876187,Kauerndes Mädchen,,,52.58023,13.4004364,03200206
1472017861,,,,52.6664018,13.485249,03100101
1472017863,Kauernde (informel),,,52.666827,13.485589,03100101
1472017864,,,,52.667514,13.485739,03100101
1472017865,,,,52.669101,13.485568,03100101
1472017879,,,,52.6648277,13.4849755,03100101
1472017880,,,,52.664441,13.4848909,03100101
1482191891,Galileo,,,52.5065312,13.3723798,01100102
1482191892,"Prince Frederick Arthur of Homburg, General of Cav",,,52.5076242,13.3722791,01100102
1482191893,Boxers,,,52.5087669,13.371817,01100102
1486087545,Emma T.,,,52.5520167,13.4316458,03500934
1488982543,Schifferbrunnen,,,52.5195376,13.3388397,01200629
1489096811,Auge der Nemesis,,,52.4990795,13.3021626,04500936
1491865933,Heinrich Zille,,,52.5132831,13.4137257,01100312
1510785267,José de San Martín,,,52.5070679,13.3692707,01100102
1510785644,Simón Bolívar,,,52.5064853,13.3689769,01100102
1530424466,Räumliche Transparenz,,,52.4456788,13.5788115,09401534
1540680347,Nixenspiel,,,52.4960798,13.4751523,02500836
1551950488,Klingende Blume,,,52.4933344,13.4623815,09100101
1555473622,Das tanzende Paar,,,52.4870919,13.4248066,08100314
1561640301,Mutter Heimat,,,52.4882794,13.4671874,09100101
1608998742,Hegel,,,52.5193186,13.3936026,01100206
1620659431,Willy-Brandt-Skulptur,,,52.500196,13.388107,02100101
1659884039,,,,52.550696,13.3598608,01401048
1689026709,,,,52.5620643,13.5685847,10100103
1706380540,Bär mit spielenden Kindern,,,52.5411161,13.2944574,04100101
1746996179,Reiterdenkmal,,,52.4777233,13.5252974,11501341
1758524142,Die Windsbraut II,,,52.472788,13.3757286,07400720
1759712216,Illusion,,,52.4898334,13.3377822,07200307
1768536503,Knabe mit Tintenfisch,,,52.4607221,13.3887559,07400927
1773502040,Der Spreekieker,,,52.5201825,13.3083717,04300619
1777959932,,,,52.5377811,13.5856628,10200420
1782761803,Bärenbrunnen,,,52.4629164,13.4147681,07400928
1784732579,Harmonikaspieler,,,52.4523507,13.5835814,09501941
1812621502,Litfaß-Denkmal,,,52.5217357,13.4032053,01100310
1834142967,Structure,,,52.4993137,13.3812321,02100101
1845012420,,,,52.5607905,13.3957816,01300732
1845013456,Balzender Truthahn,,,52.5618335,13.3949703,01300732
1849165754,,,,52.4892991,13.3808892,02200209
1881346242,Köpfe und Schwanz,,,52.5067382,13.3668622,01100102
1881346251,Der Bogenschütze,,,52.5072478,13.3683147,01100102
1881346257,Berlin Block for Charlie Chaplin,,,52.5074147,13.3674641,01100102
1884384977,Heinrich-Heine-Denkmal,,,52.5325596,13.3998533,01100416
1908207139,,,,52.4077845,13.0926713,0
1908207169,Kölner Städte-Brunnenskulptur,,,52.4076982,13.0928792,0
1910136397,,,,52.6076426,13.4340659,03200309
1932777427,Sternenwächter,,,52.5071903,13.4680023,02500833
1979988661,Europa macht Handstand III,,,52.4913787,13.2937343,04400727
2055250035,Der Kopfspaziergang,,,52.4866216,13.3288015,04501150
2086202949,Riesenblumen,,,52.4938908,13.4600853,09100101
2118364441,Grau Broby Granit,,,52.5163663,13.3254208,04300622
2183262602,Großes Berliner Kopfzeichen,,,52.5090576,13.2732661,04200310
2183262603,Großer verschnürter Kopf,,,52.5091415,13.2733353,04200310
2188572471,Helfen zwischen Himmel und Erde,,,52.5252766,13.5818951,10200627
2213180943,,,,52.3971132,13.275268,0
2218405292,Ramificazioni,,,52.4354846,13.4303248,08200729
2218406748,Goldesel,,,52.4438398,13.4333181,08200729
2251295176,,,,52.5090816,13.2218991,04200204
2267145427,Marcellus (Germanicus),,,52.5217724,13.2980989,04300412
2281748544,Erektion,,,52.5886685,13.2739945,12200515
2281752177,Schmuckbogen mit Wassersportmotiven,,,52.5840361,13.2754587,12200515
2286678239,Leda and the Swan,,,52.4733081,13.4580394,08100520
2310445137,Klanginstallation Klopfzeichen,,,52.5272454,13.3656124,01200624
2327229732,Kryptographie,,,52.4304018,13.5309817,09200715
2337850015,,,,52.5133798,13.2416394,04200203
2337850016,,,,52.5133964,13.2418285,04200203
2337850022,Die Diskuswerfer,,,52.5134502,13.2420564,04200203
2337850024,,,,52.5135244,13.2422707,04200203
2337850026,,,,52.5135879,13.2424295,04200203
2337850029,,,,52.5136631,13.242576,04200203
2337850031,,,,52.5137451,13.2427082,04200203
2337850033,,,,52.5138354,13.2428262,04200203
2337850035,,,,52.5139332,13.2429263,04200203
2337850037,,,,52.5140368,13.2430109,04200203
2337850041,,,,52.5141437,13.243079,04200203
2337850046,,,,52.5142593,13.2431227,04200203
2337850073,,,,52.5156436,13.2427752,04200203
2337850074,,,,52.5157388,13.2426581,04200203
2337850075,,,,52.5158287,13.2425305,04200203
2337850077,,,,52.515975,13.242222,04200203
2337850078,,,,52.516034,13.2420525,04200203
2337850079,,,,52.5160792,13.2418698,04200203
2337850080,,,,52.51611,13.2416802,04200203
2337850081,Stafettenläufer,,,52.5161515,13.2414127,04200203
2355669624,Knabe mit Ente,,,52.5153886,13.4438067,02400624
2355670025,Mutter mit Kindern,,,52.5183707,13.4442968,02400522
2355670026,Akrobaten,,,52.5186009,13.4455301,02400522
2373552716,Vegetative Plastik,,,52.4673147,13.3174383,04400835
2376905775,Zwei Schwäne,,,52.4504768,13.5733426,09501941
2382894977,,,,52.4687037,13.3189402,04400835
2415142118,Der Mensch – Rhythmus will Wesen werden,,,52.4604901,13.1622026,05400942
2434226507,,,,52.4737821,13.4493712,08100417
2441922682,Pilgersilhouette,,,52.6277321,13.7075354,0
2444136687,Berlin-Bird,,,52.5971031,13.3678013,03400618
2471065198,Skulptur mit Kern blau rot,,,52.5101204,13.2900789,04300415
2471721694,Jugend der Welt,,,52.4918168,13.5262532,11501339
2520990415,Der Unhold,,,52.3866673,13.1161804,0
2520990562,Münchhausen,,,52.3856296,13.1166175,0
2520990682,Barbar,,,52.3859081,13.1167175,0
2520990744,Tigerente,,,52.3859655,13.1169163,0
2520990864,Steinbeisser Junior,,,52.3862953,13.1168438,0
2538629490,Heinrich Böll,,,52.542062,13.4407848,03601449
2554278342,Vase mit farbigem Mosaik (Asymmetrische Vase),,,52.5026745,13.3249878,04501041
2574346168,,,,52.4957809,13.4468008,02300419
2589577521,Alex 35,,,52.520709,13.409429,01100310
2589577535,Azerbaijan,,,52.5154199,13.4105362,01100310
2589577570,,,,52.5183527,13.3684643,01100102
2589577587,Mio,,,52.5201452,13.4091755,01100310
2589577598,Mitte-Ndnn-Bar,,,52.5101563,13.3900661,01100207
2589577641,Best Buddies Friendship Bear,,,52.425497,13.2624811,06300528
2589577681,,,,52.459236,13.3138055,06100101
2589577805,,,,52.5094542,13.3726943,01100102
2589577819,Contact,,,52.5183568,13.3688189,01100102
2589577821,,,,52.5185045,13.3680291,01100102
2589577822,,,,52.5185675,13.3682869,01100102
2589577824,,,,52.5186391,13.3687106,01100102
2589577825,,,,52.5190421,13.4024011,01100310
2589577827,,,,52.5199288,13.4041583,01100310
2589577852,,,,52.5242445,13.3468542,01200626
2607087947,Jungbär,,,52.4981507,13.5312135,11401034
2607087949,Hochlandstier,,,52.4982034,13.5336582,11401034
2607087950,Jungbär,,,52.4983764,13.525746,11401034
2607087951,Sitzender Bär,,,52.4985573,13.5292975,11401034
2607087952,Fohlengruppe,,,52.49907,13.5311505,11401034
2607087953,Löwengruppen II,,,52.4989449,13.5338973,11401034
2607087954,Röhrender Riesenhirsch,,,52.4990721,13.5256403,11401034
2607087955,Elchkälbchen,,,52.4990499,13.5287053,11401034
2607087956,Liegende – aufgestützt,,,52.4991293,13.5299195,11401034
2607087959,Ziegenbock,,,52.4994918,13.5287926,11401034
2607087960,Fohlenpaar,,,52.4993888,13.5272371,11401034
2607087963,,,,52.4996115,13.5319283,11401034
2607087965,Jungen Löwen,,,52.4999598,13.534396,11401034
2607087966,Elefant,,,52.5001133,13.5309686,11401034
2607087967,Löwe mit Wappen,,,52.5001865,13.5344878,11401034
2607087968,"Mädchen, auf der Seite liegend",,,52.5003247,13.5325941,11401034
2607087969,Säbelzahnkatze,,,52.500573,13.5307598,11401034
2607087970,Auskeilendes Eselfohlen,,,52.5009131,13.5303968,11401034
2607087971,Cheetah,,,52.5021225,13.5300863,11401034
2607087972,P. J. Lenné,,,52.5024917,13.5281795,11401034
2607087974,Frühling (Mann und Frau),,,52.5026735,13.5275883,11401034
2607087975,Sprea,,,52.5026308,13.528207,11401034
2607087977,,,,52.5032555,13.5271402,11401034
2607087978,Knabe auf Esel,,,52.5036611,13.5236225,11401034
2607087979,Giraffen,,,52.5037526,13.5330888,11401034
2607087981,Weiblicher Teenager mit Pelikan,,,52.5038699,13.5245853,11401034
2607087982,Mädchen mit Schimpansen,,,52.5039352,13.5234532,11401034
2607087983,,,,52.5040268,13.5264718,11401034
2607087984,Tiger,,,52.5039974,13.5210622,11401034
2607087985,Giraffe,,,52.5042597,13.5286739,11401034
2607087986,Junge mit Widder,,,52.5041355,13.5244386,11401034
2607087987,Eva,,,52.5042879,13.5233316,11401034
2607087994,Singing Birds,,,52.5047469,13.5248451,11401034
2607087997,Stehende,,,52.5044901,13.5318708,11401034
2607088001,Männlicher Mantelpavian,,,52.5044882,13.5333024,11401034
2607088005,Dogge,,,52.5046061,13.5290478,11401034
2607088009,Orang-Utan-Gruppe,,,52.5049229,13.5256379,11401034
2607088018,Buckelzirpe,,,52.5050899,13.5285153,11401034
2607088024,Athena,,,52.5051299,13.5235659,11401034
2607088027,Moschusochsenherde,,,52.5052611,13.5273965,11401034
2607088028,Charles Darwin,,,52.5055179,13.5242025,11401034
2607088029,Nymphe,,,52.5062578,13.5223735,11401034
2607088030,Pan,,,52.5065558,13.5222528,11401034
2607088031,Bianca – sitzendes Mädchen,,,52.5067234,13.531187,11401034
2607088032,Angora-Ziegenbock,,,52.5075642,13.5278273,11401034
2607088033,Dschelada-Affe,,,52.5075545,13.5312032,11401034
2607182579,Löwengruppen I,,,52.4989785,13.5344278,11401034
2629122241,Galerie Lehr,,,52.4972652,13.3845184,02200208
2660991984,Sonnenuhr,,,52.4391354,13.5995722,09401433
2689350487,Gänseskulptur,,,52.6332085,13.4955117,03100103
2689350490,,,,52.6343966,13.4963432,03100103
2710885583,Nilpferd Knautschke,,,52.5188821,13.6092987,10400835
2712245248,Signalrot – Verkehrspurpur – Polarweiß,,,52.5307554,13.6180552,10200525
2712245250,Boeuf Bourgignon,,,52.5309601,13.6186406,10200525
2726614829,Rosenthal Keramik,,,52.5149424,13.7316181,0
2753451850,Fette Henne,,,52.4283365,13.4340648,08200729
2756088611,,,,52.4305662,13.4356906,08200730
2763457957,Löwe,,,52.5289964,13.4702411,11300617
2763461558,Baumdenkmal,,,52.5307935,13.4708932,11300617
2763597886,Grabzeichen,,,52.4281798,13.4293911,08200729
2763597887,Grabstelle,,,52.4281722,13.4289465,08200729
2763597888,Zeit-Wege-Zeit,,,52.4284305,13.4281422,08200729
2763615369,Plinthe,,,52.4281384,13.4277257,08200729
2763615372,In der Schwebe der Zeit,,,52.4281248,13.4235126,08200729
2763629836,Katze,,,52.4279838,13.4224578,08200729
2763825709,Harfe und Pauke,,,52.4322054,13.4161347,08200729
2774007495,,,,52.4155872,13.0934617,06400735
2774007500,,,,52.4155074,13.0933981,06400735
2804261196,Der Stahlwerker,,,52.4615553,13.5317335,09200511
2804261241,Knabe mit Essnapf,,,52.4656375,13.5448432,09200512
2837335507,Alebrije,,,52.5080471,13.3514154,01100101
2837335508,Alebrije,,,52.5081466,13.3513842,01100101
2840516201,Denkzeichen Modezentrum Hausvogteiplatz,,,52.5132047,13.396861,01100206
2853067164,Fischer mit Netzen,,,52.5402272,13.2030661,05100316
2856148907,Albrecht der Bär (1100-1170),,,52.5403628,13.2127545,05300736
2856612754,Grenzwächter,,,52.5499474,13.5851018,10100207
2856612757,,,,52.5504344,13.5855825,10100207
2856612774,Steckenpferd tanzt mit dem Regenbogen,,,52.5682259,13.571611,10100103
2856686321,Räuberrad,,,52.5264079,13.4114572,01100310
2877194255,Generationenpyramide,,,52.5211213,13.6996541,0
2882008131,,,,52.5329083,13.3377863,01200520
2900797853,,,,52.5214935,13.3834937,01100308
2904608124,,,,52.4233046,13.4756959,08301037
2927313833,Feuerwehrmann,,,52.5564097,13.4595921,03500933
2927314654,Feuerwehrmann,,,52.5566242,13.4598093,03500933
2935240711,All in Internet,,,52.5649883,13.3236123,12200309
2936263798,Der Entfesselte,,,52.5292338,13.472257,11300617
2949567745,Vater mit Kind,,,52.4445707,13.6265849,09501737
2985100365,Die grünen Menschen,,,52.4901363,13.3133425,04500939
2988617786,Das Schicksal wirkt,,,52.4630694,13.1639949,05400942
2995723891,"2,43° vorwärts geneigt",,,52.5179598,13.5893794,10200630
3005740603,Amor-Statue,,,52.524484,13.293265,04300412
3009923713,,,,52.5134965,13.5736986,10300732
3013554382,Holzesel,,,52.4975686,13.2984174,04500938
3015494647,Hans Scharoun,,,52.5353657,13.2829092,04100101
3018974447,Zur Sonne,,,52.4614499,13.1603261,05400942
3039049748,,,,52.5632319,13.4612788,03501037
3045707378,Spiegelschriftkünstler Wolfgang Kaliga,,,52.635941,13.376593,0
3095783229,Die Badende,,,52.4306065,13.1942479,06400737
3121844829,Kopfbewegung,,,52.4314296,13.5329979,09200715
3160712686,Die Vorleserin,,,52.4026379,13.2167272,0
3181885304,Seelöwe,,,52.5553914,13.4612967,03500933
3269458078,Sonne,,,52.4772114,13.4309467,08100207
3342165275,Diana mit Jagdhund,,,52.5050444,13.5231509,11401034
3342165941,Terpsichore,,,52.5054466,13.5229384,11401034
3342166117,Meleager,,,52.5055278,13.5233448,11401034
3342166489,Pomona,,,52.5058525,13.5227135,11401034
3342166620,Flora,,,52.5059337,13.5231292,11401034
3354141036,Flügeltor,,,52.5125753,13.3269512,04300622
3377013674,,,,52.4196857,13.7489368,0
3378340880,Viktoria,,,52.5145076,13.35011,01100102
3389744527,Pieta,,,52.518335,13.413111,01100310
3391940827,,,,52.4994581,13.2884954,04500937
3413849132,Vater mit zwei Kindern,,,52.5523481,13.4700591,03501038
3463835839,Athena bewaffnet den Krieger,,,52.5174825,13.3986916,01100206
3463835840,Athena unterrichtet den Jungen im Waffengebrauch,,,52.5174668,13.3984649,01100206
3463835841,Der Jüngling wird von Athena in neuen Kampf geführt,,,52.517767,13.3984095,01100206
3463835842,Der junge Held wird von Athena beschützt,,,52.5177804,13.3986401,01100206
3463835844,Iris trägt den gefallenen Helden zum Olymp empor,,,52.5177921,13.3988771,01100206
3463835845,Nike krönt den Sieger,,,52.5174974,13.3989235,01100206
3463835846,Nike lehrt den Knaben Heldensagen,,,52.5174558,13.3982317,01100206
3463835847,Nike richtet den Verwundeten,,,52.5177435,13.3981738,01100206
3513338377,Herkules im Kampf mit dem Nemeischen Löwen,,,52.5130495,13.4153741,01100312
3530856515,,,,52.5045535,13.3225055,04501041
3556126743,Weide mit Adam und Eva,,,52.3779781,13.0968908,0
3561951258,Drei Nadeln,,,52.4435287,13.503411,09100408
3586058294,Berlin History,,,52.5170619,13.3862073,01100206
3586058295,Kesha,,,52.5202282,13.4029683,01100310
3586058296,O - Bar,,,52.5109757,13.3933475,01100207
3586058303,,,,52.5527674,13.2919571,12200414
3609724210,Kostümfest,,,52.4535658,13.6208232,09501737
3609724218,Puppenspieler,,,52.4540528,13.6208681,09501737
3649710393,Absent,,,52.5483134,13.3722576,01401044
3661183031,Tilted Donut Wedge with Two Balls,,,52.5035251,13.3914352,02100102
3666632738,Der letzte Postilion,,,52.4974163,13.3420421,07100101
3666694557,Johannes Zwingli,,,52.5035684,13.4548054,02500835
3676215900,,,,52.5202568,13.4100287,01100310
3706775794,Bär mit spielenden Kindern,,,52.5410749,13.2943636,04100101
3707252526,Jim Knopf,,,52.5047538,13.3150553,04501041
3707252527,Lukas der Lokomotivführer,,,52.5047851,13.3150183,04501041
3711007085,Junger Arbeiter,,,52.5557264,13.4625287,03500933
3712887288,,,,52.494378,13.3622601,07100205
3713588210,Through the Looking Glass,,,52.5052299,13.3223327,04300624
3724370517,,,,52.5150006,13.3071424,04300621
3740646042,,,,52.5127787,13.4151499,01100312
3769770470,Klinker-Widder,,,52.4870909,13.3035943,04501146
3781928047,Pan mit Doppelflöte,,,52.4251071,13.2576046,06300528
3783466951,Schwermütige Frauen,,,52.4270384,13.2644785,06300528
3786417057,Quadriga mit Victoria,,,52.51627,13.3777021,01100206
3812670240,Skulpturengarten im AVK,,,52.4643053,13.3461441,07300619
3817568959,Lebensfreude,,,52.440117,13.593739,09401433
3830247505,Quelle (Fluss Stationen),,,52.5061827,13.3513236,01100101
3830247506,Wasserstein (Fluss Stationen),,,52.5067251,13.350077,01100101
3830247507,Wassertor (Fluss Stationen),,,52.5072177,13.3487943,01100101
3875090305,Kunstaustellungsraum Björn Saul,,,52.4898944,13.4491905,09100101
3900580951,Skulptur für Götz Friedrich,,,52.5120508,13.3088998,04300621
3957504657,,,,52.5204639,13.4348979,02400521
4010287438,Der Betrachter,,,52.5297925,13.6245661,10200524
4010288621,Der Zeichner,,,52.5299004,13.6235737,10200525
4066032465,Mädchen mit Apfel,,,52.5173182,13.5018801,11300725
4066702539,Lichtenberg um 1780,,,52.5162765,13.4938738,11300725
4066901416,Homunkulus,,,52.5205973,13.4958492,11300723
4070855923,,,,52.6663664,13.4759087,03100101
4097937029,Offene Berührung,,,52.5693298,13.1953794,05100101
4097937034,Samariterbrunnen,,,52.5696928,13.1948469,05100101
4113586957,Das Ding,,,52.4844982,13.3224662,04501150
4127536100,Woge auf Kyanit,,,52.5682672,13.1930908,05100101
4127536107,Waage,,,52.5691885,13.194593,05100101
4127743696,Liebespaar,,,52.5139325,13.6075369,10400938
4137093100,Dialog 2000,,,52.4048937,13.2159839,0
4161683990,Dead Chicken Alley,,,52.5243118,13.4022758,01100309
4161715190,Cosmonaut,Oranienstraße 195,10999,52.499737,13.4229655,02300315
4204354393,,,,52.5178911,13.441792,02400522
4213705915,,,,52.5165098,13.3803086,01100206
4224142271,Pyramide,,,52.5016097,13.3193556,04501041
4228609162,Fischotter mit Fisch,,,52.4287677,13.1652224,06400735
4237827407,,,,52.5186817,13.4027414,01100310
4266970499,Nie wieder Krieg,,,52.5390107,13.375053,01300836
4267091825,,,,52.5339732,13.3851656,01100414
4267824687,Venus und Amor,,,52.4640781,13.518326,09200511
4329788962,Spiel mit Marionette,,,52.5048226,13.3364182,04501042
4329789137,,,,52.5048695,13.3362995,04501042
4329818349,,,,52.5260652,13.4007155,01100309
4329873408,Berlin,,,52.5202262,13.3704874,01100102
4343800704,,,,52.6552188,13.2125207,0
4353173360,Löwenkämpfer,,,52.5191258,13.3988586,01100206
4353173363,Amazone zu Pferde,,,52.5192739,13.3992475,01100206
4355240540,Kissenbrunnen (Plastik),,,52.606841,13.4209033,03200310
4356365064,Große Laufende,,,52.4832254,13.530824,11501340
4363579605,Diana mit Windhunden,,,52.5477323,13.3866571,01300835
4371735970,,,,52.634807,13.3131602,0
4371735971,,,,52.6347819,13.3131293,0
4381117835,Bisonbulle,,,52.4957774,13.5250466,11401034
4405706315,Tanzende Berolina,,,52.5128504,13.3969722,01100206
4409560194,Tier Bank Skulpturen mit Mosaiksteinen,,,52.630794,13.3193893,0
4418569518,o. T.,,,52.5069302,13.3974918,02100102
4424580724,Heinrich Heine,,,52.5108268,13.4158759,01100312
4433469471,Grasendes Fohlen,,,52.4715435,13.3328196,07300517
4461609447,Walfisch,,,52.5909897,13.2808761,12200515
4463160895,,,,52.5230431,13.4037422,01100310
4478911669,Heinrich Bettkober,,,52.5269019,13.4144815,01100310
4495746638,,,,52.473637,13.4411418,08100416
4495746644,,,,52.4736689,13.4411045,08100416
4509204917,The Missing House,,,52.5249966,13.3988702,01100309
4515284485,The Wings,Rohrdamm 85,13629,52.5375395,13.2641354,05300840
4532944244,Säulenreihe,,,52.4454649,13.4421285,08200727
4532944245,Ontologia,,,52.445277,13.4418813,08200727
4532944246,TIME-LINE,,,52.4448718,13.4426433,08200727
4551949767,,,,52.5212336,13.450526,02400522
4552073711,Atelier am Ziegenhof,,,52.5145745,13.2904028,04300413
4559858218,Apostel Jakobus,,,52.5045722,13.4065983,02100104
4595203770,okazi gallery,Türrschmidtstraße 18,,52.5027456,13.4793799,11400927
4612459669,Wirbel Sandstein 2014,,,52.4719057,13.6968187,0
4664961670,Drei Mädchen und ein Knabe,,,52.5200544,13.4015202,01100310
4706621002,Mutter mit Kind,,,52.5073299,13.5120584,11400931
4710054535,Die Allegorie der Wissenschaft,,,52.5171037,13.407707,01100310
4710105245,"Klio, Muse der Geschichte",,,52.5166014,13.4074062,01100310
4716554877,Die Sonnenanbeterin,,,52.5482789,13.4868539,11200512
4718572712,Elegie,,,52.5489882,13.4864711,11200512
4729017885,Segelflieger,,,52.5344364,13.4579243,03601450
4729066226,,,,52.5372775,13.4613217,03601450
4729090317,Große Liegende,,,52.5313195,13.4753259,11300617
4729095883,Poetische Stimmung,,,52.5275621,13.4760163,11300617
4729112926,Zwei,,,52.5284174,13.4731271,11300617
4729112927,Junges Paar,,,52.5289657,13.4737849,11300617
4729112932,Felicia,,,52.5281423,13.4727556,11300617
4729112934,Zwiesprache,,,52.5291444,13.4741472,11300617
4730391751,Siegerin,,,52.5205014,13.2417341,04200203
4730391752,Zehnkämpfer,,,52.5207604,13.2414986,04200203
4730392865,Ruhender Athlet,,,52.520287,13.2400071,04200203
4730399170,Stier,,,52.5198514,13.2399123,04200203
4730399172,Kuh,,,52.5200829,13.2396845,04200203
4738072904,Orpheus mit Tieren,,,52.5413581,13.3370477,01400938
4744975873,Stehender Jüngling,,,52.5220219,13.3024784,04300518
4749256052,Zwei Fohlen,,,52.4645482,13.5476639,09200512
4749370560,Bärenmutter mit Kind,,,52.4649662,13.5223483,09200511
4749370562,Eule,,,52.4647108,13.5414555,09200512
4749370563,Wilde Pferde,,,52.4447686,13.5742642,09401534
4749370564,Trauernde,,,52.4605926,13.4936192,09100304
4749370565,Drei Männer,,,52.4709466,13.5649261,09502043
4749370566,Wäscherin,,,52.4526028,13.5747585,09501941
4749370568,Weiblicher Akt,,,52.4658044,13.5174901,09200511
4756073350,Junge Pferde,,,52.4389005,13.7208069,09501838
4756073352,Visionen,,,52.438508,13.7207969,09501838
4758045501,Bauarbeiter,,,52.5254862,13.4132794,01100310
4761971608,Erdkugel,,,52.4626805,13.5497697,09200512
4762786036,Badende,,,52.4154014,13.5998064,09401330
4770676793,,,,52.5768504,13.2769374,12200413
4770676796,Ballon,,,52.5773499,13.2768746,12200413
4770676798,,,,52.5772776,13.2756714,12200413
4770676799,,,,52.5767784,13.2756949,12200413
4770676801,,,,52.5765828,13.2725293,12200413
4770676803,,,,52.5760802,13.2725571,12200413
4770687344,Face Time,,,52.5058794,13.4121529,01100312
4770687345,Unter der Hand,,,52.5113262,13.4161827,01100312
4789620838,Mitwelt,,,52.6356927,13.4990838,03100102
4791590562,,,,52.5159091,13.2423964,04200203
4791590563,Rosseführer,,,52.5145629,13.236713,04200203
4791590564,Rosseführer,,,52.5142554,13.2367779,04200203
4802959421,Der ewige Dialog,,,52.6468103,13.3763303,0
4812243848,,,,52.5568689,13.3870156,01300732
4812243849,,,,52.5569104,13.3870907,01300732
4818863759,Lebe im Ganzen,,,52.5213232,13.4004082,01100310
4818864902,Amazone zu Pferde,,,52.5204188,13.3980879,01100206
4820651702,Cannon,,,52.6590871,13.2843005,12400721
4820651703,Cannon,,,52.6590836,13.284404,12400721
4828970445,Morgendämmerung Nr. 1,,,52.5167122,13.3424842,01200629
4834215021,Brust oder Keule,,,52.5349581,13.4348713,03701660
4834844147,Silberfisch im Englischen Garten,,,52.5173363,13.3464677,01100102
4842240633,Karpfenjule,,,52.4836726,13.4799385,09100203
4848984608,Geschwister,,,52.445077,13.6274346,09501737
4852417933,Venus-Statue,,,52.5252718,13.2930483,04300412
4865097815,Ziegen,,,52.5419545,13.4489336,03601449
4866985546,,,,52.5225507,13.5056039,11300721
4868547737,Riesen-Picknicktisch,,,52.5150323,13.4120184,01100310
4876669036,Lesser,,,52.505037,13.3333536,04501042
4887636155,Mural Tannenzapfen,,,52.3487439,13.0982841,0
4887636156,Mural Rehkitz,,,52.3492901,13.0994023,0
4902348071,Gegen die Strömung,,,52.5143836,13.4125652,01100310
4902348072,Differenzierte Berührung,,,52.513928,13.4150733,01100312
4909071162,Postschneckenstele,,,52.5427878,13.5431695,10100210
4909155615,Studie zu Goethes Farbenlehre,,,52.5707105,13.5720542,10100102
4909164843,"Stehender, Sitzende, Liegende",,,52.5570278,13.5549134,10100208
4909294931,Denkmal für die Erbauer Marzahns,,,52.5443238,13.54833,10100210
4910460734,Frau,,,52.5001708,13.5053103,11401136
4910460735,Mutter mit Kind,,,52.5000841,13.5054357,11401136
4912915065,Stadtzeichen,,,52.5090131,13.3292213,04300622
4913486506,Löwe mit Jungen schlägt Schlange,,,52.5257005,13.351661,01200626
4916158390,Werner Steinbrink,,,52.5473922,13.5502059,10100210
4916223578,Der Schreitende,,,52.5591776,13.4132798,03400826
4916242745,Anmerkung,,,52.5115904,13.4045356,01100312
4926288193,Vegetative Plastik I,,,52.5171273,13.3427374,01200629
4928770540,Der Kampf,,,52.5167168,13.3615097,01100102
4928770541,Der verwundete Krieger,,,52.516654,13.3617052,01100102
4928770542,Die glückliche Heimkehr des Kriegers,,,52.5164984,13.3615677,01100102
4928770543,Abschied des Kriegers von seiner Familie,,,52.5165664,13.3613592,01100102
4940562172,Parodia,,,52.5121634,13.4074382,01100312
4941891932,"Der Mensch, das Maß aller Dinge",,,52.5141554,13.4014435,01100207
4945711439,,,,52.5137708,13.4008245,01100207
4968514797,Löwe,,,52.5202376,13.3985728,01100206
4968514798,Bogenspannerin,,,52.5205624,13.3992943,01100206
4968514799,Der Sämann,,,52.5206529,13.3976836,01100206
4968514800,Große Wäscherin,,,52.5207223,13.3991978,01100206
4968514801,Herkules mit dem nemeischen Löwen,,,52.5205738,13.3979291,01100206
4968514802,Gerettet,,,52.5204754,13.3995087,01100206
4968514803,Centaur und Nymphe,,,52.52095,13.3987948,01100206
4969163773,,,,52.5219355,13.368296,01200628
4969171249,Der Rhein,,,52.5169632,13.3590342,01100102
4969171250,Die Elbe,,,52.5169332,13.3592154,01100102
4969171251,Die Oder,,,52.5169755,13.3594299,01100102
4969171252,Die Weichsel,,,52.5170518,13.3595181,01100102
4973929342,Diana,,,52.5201086,13.3985806,01100206
4973929343,Hunne zu Pferde,,,52.5210891,13.3987254,01100206
4983466522,Wir sind das Volk,,,52.5227331,13.3474939,01200626
4985463831,,,,52.5383113,13.4903919,11200513
4985463832,,,,52.5382348,13.4902614,11200513
4986780891,Mutter und Kind,,,52.5182729,13.4129623,01100310
4994262216,Skulptur,Bismarckstraße 35,10627,52.5118932,13.3081782,04300621
4996093540,,,,52.4763514,13.3814233,07400721
5001666725,Auferstehender,,,52.5184135,13.412195,01100310
5001666726,Radiator,,,52.5183556,13.4124584,01100310
5005907910,,,,52.630962,13.3143081,0
5005907911,,,,52.6309795,13.3143022,0
5027992479,Hektor Köpf Skulptur,,,52.5221357,13.3936873,01100309
5062065442,Frau mit Schwan,,,52.4938502,13.499736,11401135
5062598424,Riehmers Hofgartensäule,,,52.492219,13.3846356,02200209
5073608681,head over heels,,,52.5351055,13.5051864,11200514
5088929024,Dorfkirche Marienfelde,,,52.4678442,13.5277086,09200512
5088929025,Wasserwerk Friedrichshagen,,,52.4675243,13.5273189,09200512
5088929026,Rathaus Köpenick,,,52.4676007,13.5273661,09200512
5088929027,Schloss Königs-Wusterhausen,,,52.4676853,13.5272247,09200512
5088929028,Kloster Neuzelle,,,52.4676458,13.5269629,09200512
5088929029,Bismarckturm,,,52.4673458,13.5286513,09200512
5088929030,Humboldt-Bibliothek,,,52.467495,13.5280949,09200512
5088929031,Grunewaldturm,,,52.467836,13.5279367,09200512
5088929032,Fortunaportal,,,52.4680129,13.5279207,09200512
5088929033,Alexandrowka,,,52.467958,13.5280276,09200512
5088929034,Kaiser-Wilhelm-Gedächtniskirche,,,52.4677545,13.5278753,09200512
5088929035,Britzer Mühle,,,52.4677488,13.5275765,09200512
5088929036,Howoge Niedrigenergiehaus,,,52.4675253,13.5275091,09200512
5088929037,Schloss Friedrichsfelde,,,52.4674714,13.5274595,09200512
5088929038,Parkbühne Wuhlheide,,,52.4675119,13.5274023,09200512
5088929039,Schloss Reichenow,,,52.4673499,13.5274107,09200512
5088929040,Alter Dorfkern,,,52.4673674,13.5276505,09200512
5088929041,Fürstenberg/Bredereiche,,,52.4671733,13.5280456,09200512
5088929042,Deutsch-Französisches Volksfest,,,52.4673978,13.5279345,09200512
5088929043,Schloss Oranienburg Orangerie,,,52.4673479,13.5280554,09200512
5088929044,Schloss Rheinsberg,,,52.4672689,13.5282624,09200512
5088929045,Dorfkirche Christdorf,,,52.4672292,13.5286686,09200512
5088929046,Kloster Stift,,,52.467355,13.5284838,09200512
5088929060,Schloss Köpenick,,,52.4676519,13.5274208,09200512
5088929061,U-Bahnhof Wittenbergplatz,,,52.4677083,13.5278096,09200512
5088929062,Rathaus Spandau,,,52.4676007,13.5281732,09200512
5088929063,Pergamonmuseum,,,52.4675196,13.5279822,09200512
5088929065,Frankfurter Tor,,,52.4675012,13.52768,09200512
5088929066,Jüdisches Museum Berlin,,,52.4675986,13.5277271,09200512
5088929067,Reichstag,,,52.4676201,13.5280284,09200512
5088929068,Zitadelle Spandau,,,52.4676273,13.5283247,09200512
5088929069,Glienicker Brücke,,,52.4679083,13.5278652,09200512
5088929070,Staatstheater Cottbus,,,52.4678088,13.5269831,09200512
5118129278,Interbau-Freiplastik,,,52.5179537,13.3428227,01200629
5140418371,Hand mit Uhr,,,52.5191616,13.3397835,01200629
5157154594,,,,52.5182839,13.3461478,01200629
5157157140,Liegende weibliche Figur,,,52.5178712,13.3438601,01200629
5161529452,Phönix,,,52.4789743,13.328607,04501153
5161529495,Speerwerfer,,,52.4826082,13.3307203,04501153
5166361430,Verschlungene Form,,,52.499588,13.4101388,02100105
5173115192,Denkmal für die Gefallenen,,,52.5091476,13.5549659,10300733
5195766311,장승,,,52.4564363,13.2897646,06400843
5198395080,Tor aus glasierten Ziegelsteinen,,,52.4273544,13.539318,09200715
5201857554,Kindergruppe,,,52.5780137,13.4068956,03400722
5208882735,Waschfrau,,,52.4443288,13.5783415,09401534
5237698977,Lumumba,,,52.5216126,13.4023949,01100310
5253735916,Mutter mit totem Sohn,,,52.5179462,13.3955308,01100206
5261941736,Der Rufer,,,52.5220323,13.4019634,01100310
5261941737,Aus dem Wasser schreitender,,,52.5220362,13.4019809,01100310
5261941738,Die große Palucca,,,52.521735,13.4022877,01100310
5265017470,Die Vögel,,,52.4805683,13.371831,07400720
5278677920,Herkules,,,52.5063003,13.3642097,01100102
5284218856,Galerie in der Victoriastadt,,,52.5026859,13.4781104,11400927
5292020622,Bär,,,52.512662,13.4522244,02400624
5299353950,Fortuna,,,52.4813661,13.4350671,08100314
5310721709,,,,52.5520736,13.4204854,03601243
5332552517,Penrose-Dreieck,,,52.4983096,13.3794847,02200207
5354352623,2Free Space,,,52.514081,13.3190047,04300622
5418829632,Prometheus-Wandbrunnen,,,52.509299,13.3262796,04300622
5420782121,Ziegen auf der Brücke,,,52.5104647,13.4791047,11300826
5434155597,,,,52.4868663,13.4340019,08100312
5434156747,,,,52.4868461,13.4336523,08100312
5434156748,,,,52.4868155,13.433875,08100312
5469165960,Junge Sozialisten,,,52.51958,13.4585229,02500727
5476711804,Shakespeare,,,52.5114961,13.3091225,04300623
5480621408,Tangentiale Berührung,,,52.5081325,13.292985,04300415
5481132449,Theaterstele,,,52.5237311,13.3821393,01100308
5495483743,Der Sämann,,,52.5214924,13.4798701,11300722
5536279950,Jugend,,,52.5398363,13.5643513,10100315
5536279951,Älteres Paar,,,52.5398888,13.5642863,10100315
5541023479,Hanging,,,52.5262106,13.3743558,01100308
5554677717,Hirsch,,,52.5142496,13.3693441,01100102
5554677718,Hirsch,,,52.5143904,13.3686,01100102
5581097376,Doppelherme,,,52.4807036,13.3798678,07400721
5599473324,Nature Morte,,,52.4996379,13.4259402,02300315
5630373105,Schreitender Mensch,,,52.4967495,13.4368247,02300418
5632415801,Kletternde Kinder,,,52.5706127,13.4099386,03400723
5633363692,,,,52.4985096,13.3919836,02100102
5633363719,,,,52.4984942,13.3917149,02100102
5641233676,,,,52.5172263,13.4761667,11300722
5659173102,,,,52.3870139,13.1204237,0
5694721810,,,,52.4534228,13.4927066,09100407
5694769473,Kinder,,,52.454433,13.4985097,09100407
5694769475,Kinder,,,52.4544984,13.4983557,09100407
5720000665,Denkmal Gustav Hartmann,,,52.5055869,13.3680836,01100104
5732104359,Löwen-Denkmal,,,52.4888353,13.3396908,07200307
5745180497,Die Aufgabe,,,52.4957307,13.5016914,11401135
5745624120,,,,52.4676927,13.469445,08100521
5745626522,,,,52.4676126,13.4694189,08100521
5745626523,,,,52.4676016,13.4694377,08100521
5745626525,,,,52.4673571,13.4700828,08100521
5745626526,,,,52.4673745,13.4701082,08100521
5752325384,Treblinka,,,52.5063495,13.2953028,04300416
5757069453,,,,52.4713401,13.4371511,08100208
5757069475,,,,52.4712314,13.4371862,08100208
5757069499,,,,52.4712881,13.4371673,08100208
5757069504,,,,52.4711714,13.4372051,08100208
5759471879,Genius mit Fackel,,,52.4923403,13.3597284,07100204
5760250251,,,,52.4742525,13.4660839,08100520
5760361169,David und Goliad;David,,,52.5274937,13.473937,11300617
5760361172,Windrad,,,52.5306237,13.4760839,11300617
5760735597,Vier allegorische Figuren,,,52.4836069,13.4800174,09100203
5761775413,Rotkäppchen und ...,,,52.3928675,13.1277823,0
5761775415,Rotkäppchen und ...,,,52.3932931,13.128756,0
5761775416,Rotkäppchen und ...,,,52.3926515,13.1268328,0
5766103592,Red Block Colony,,,52.524838,13.4430902,02400522
5776485953,,,,52.5313942,13.3429669,01200520
5777054158,Gespaltenes Dreieck,,,52.4374791,13.4140606,08200729
5777054163,Odin,,,52.4372123,13.4133622,08200729
5778409134,Mondjahr,,,52.4330453,13.4140106,08200729
5787865464,Entfaltung,,,52.5012365,13.4015289,02100105
5794297293,Die goldene Stunde,,,52.5261161,13.3792838,01100308
5802583813,Vietnamesische Mutter mit Kind,,,52.4442557,13.5738397,09401534
5802583814,Zwei Giraffen,,,52.44238,13.57275,09401534
5818226927,,,,52.47389,13.1439346,05400943
5818226928,,,,52.4739222,13.1456826,05400943
5818226929,,,,52.4739678,13.1449304,05400943
5818226930,,,,52.4738417,13.1446043,05400943
5818226931,,,,52.4734227,13.1445837,05400943
5818226932,,,,52.4734391,13.144294,05400943
5818226933,,,,52.4721148,13.1406714,05400943
5818226949,,,,52.4708282,13.1373525,05400943
5839518757,,,,52.5094321,13.4516825,02500834
5841411240,Meinstein,,,52.4794224,13.4375114,08100415
5841873610,Waffenbrüder,,,52.4728269,13.1410852,05400943
5843406505,Pankower Drillinge,,,52.57068,13.3984416,03400620
5856777120,,,,52.472624,13.4525581,08100417
5893145624,Galatea,,,52.5187064,13.3501543,01100102
5964778581,,,,52.515315,13.3344211,04300620
5964922268,,,,52.4488295,13.4435424,08200726
5964922269,,,,52.4489217,13.443455,08200726
5964931492,,,,52.4488424,13.4435321,08200726
5964931937,,,,52.4484323,13.4436228,08200726
5986656905,Uferspaziergang,,,52.468884,13.1101222,0
5992911409,Woge mit vier Kugeln,,,52.4577146,13.1066406,0
5992911410,"Groß Glienicke klopft Stein I ""Eine Gemeinschaftsskulptur für die Badewiese""",,,52.4658376,13.1079714,0
5993091425,,,,52.4704899,13.1020464,0
6008049573,Doppelskulptur „United Enemies“,,,52.5187656,13.294924,04300413
6008049574,Doppelskulptur „United Enemies“,,,52.5187928,13.2948523,04300413
6027950377,,,,52.5269962,13.688657,0
6031777535,Liebespaar,,,52.5722935,13.4140223,03400724
6082587755,,,,52.6247074,13.2931065,12400722
6087575020,Sitzende Schwimmerin,,,52.549651,13.4845088,11200512
6087575021,Badende,,,52.5502352,13.484288,11200512
6089835594,Mutter mit Kind,,,52.5162561,13.4979626,11300725
6090008324,Vögel,,,52.5093962,13.4832418,11300826
6102870273,Art-EFX,,,52.3913036,13.5152084,0
6169944662,Bär mit Ball,,,52.4800032,13.516767,11501341
6171061110,Die Kniende,,,52.4813349,13.5289452,11501340
6171081237,Black Sun Press,,,52.5048684,13.3965897,02100102
6171092991,Wasserträgerin,,,52.5031333,13.3952356,02100102
6212367346,Die Löwenhäuser,,,52.4551495,13.4447148,08200623
6224852990,,,,52.4696722,13.1007714,0
6225230893,Vernetzung,,,52.3856466,13.1057415,0
6239188174,,,,52.5075365,13.3696165,01100102
6239188175,,,,52.5077107,13.3699218,01100102
6239188176,,,,52.5075512,13.3699714,01100102
6256738467,,,,52.5501546,13.472961,03501038
6268586279,World Map,,,52.4788978,13.4380644,08100416
6289102754,Schwimmerin,,,52.4842363,13.3514989,07200409
6312742872,Ruhender Mann,,,52.5657421,13.3601953,12100204
6312743147,Pan mit Doppelflöte,,,52.5656228,13.3601171,12100204
6318381095,Kugelstoßerin,,,52.4487804,13.5296945,09200614
6318391059,Leben,,,52.4481252,13.5320228,09200614
6336000653,Die Kugelspielerin,,,52.4455397,13.5740024,09401534
6341236836,Leben in Köpenick,,,52.4459891,13.5636149,09200819
6348033626,Maja,,,52.445235,13.5793307,09401534
6352060580,Fischer,,,52.446558,13.5740569,09401534
6352060581,Pantherkatze,,,52.4461738,13.5737994,09401534
6352400384,Schwarz-Weißes Paar,,,52.4563417,13.5107367,09200613
6358821406,Daphne,,,52.44414,13.57538,09401534
6358821407,Wäscherin,,,52.4440787,13.5745055,09401534
6358821408,Robert Schumann Büste,,,52.44754,13.57653,09401534
6358821409,Kinder mit Schildkröte,,,52.44339,13.57341,09401534
6358821410,Reiherbaum,,,52.4425,13.57317,09401534
6358821411,Hühnerdieb,,,52.44241,13.57206,09401534
6358821412,Torso,,,52.44328,13.57289,09401534
6358821413,Meleagerstatue,,,52.4436599,13.5732862,09401534
6359991020,Leitung und Linie,,,52.4550504,13.5248623,09200511
6360691671,"Vater, Mutter und Kind",,,52.4468496,13.5624506,09200818
6360691672,Kindergärtnerin,,,52.4511289,13.5388511,09200614
6370655306,Ruhende Mutter,,,52.4627494,13.5857306,09502042
6373476790,Eisbärengruppe,,,52.5077309,13.3416184,01100102
6376026484,Wilde Pferde,,,52.444654,13.574012,09401534
6381250237,Fischerin,,,52.4556874,13.52038,09200613
6381250240,Mensch und Natur,,,52.4900725,13.4446061,09100101
6381250241,Reh,,,52.4918956,13.4425644,09100101
6381250243,Freizeit und Lebensfreude,,,52.47424,13.48811,09100305
6389108831,Gedächtnisurne der Marianne von Schmettau,,,52.442317,13.5729737,09401534
6391241341,Reiherbrunnen,,,52.4511907,13.6238187,09501737
6393758275,Stute mit Fohlen,,,52.4405529,13.5363699,09200716
6404992815,,,,52.591205,13.5194885,11100101
6414362031,Baum,,,52.49241,13.4661,09100101
6414362032,Fenster,,,52.49178,13.46523,09100101
6415126594,Eisenmann,,,52.5071759,13.3297156,04300622
6415760186,0° Breite,,,52.5329423,13.3761308,01100308
6415760187,0° Breite,,,52.5336883,13.3751088,01100308
6419117832,Erben der Spanienkämpfer,,,52.5145094,13.4790258,11300722
6420989677,Drei Totempfähle,,,52.4983091,13.5249989,11401034
6425504226,Junges Paar,,,52.4512443,13.5104516,09100408
6426379603,Sandalenbinder,,,52.5045073,13.288106,04300415
6436609291,,,,52.497066,13.3644564,07100205
6436744713,,,,52.4970796,13.3642997,07100205
6436744714,,,,52.4970982,13.3642519,07100205
6436744715,,,,52.4971043,13.3641994,07100205
6436744716,,,,52.4971407,13.3641022,07100205
6436744726,,,,52.4970449,13.3645056,07100205
6436744727,,,,52.4970118,13.3647945,07100205
6436744728,,,,52.4970259,13.3647275,07100205
6438753607,Hüter der Schwelle,,,52.4308157,13.4073111,07501134
6445046907,Kopf,,,52.4282168,13.552764,09200717
6445973315,Strahlen der Nacht,,,52.4510823,13.5846402,09501941
6445973316,Hirsch,,,52.4520749,13.6021001,09501736
6445973326,Tag und Nacht,,,52.4398587,13.5963035,09401433
6445973327,Stehende Figur,,,52.43902,13.59505,09401433
6445973328,Knabe mit Geige,,,52.43929,13.5956,09401433
6445973329,Genesender,,,52.43959,13.59545,09401433
6445973330,Sich schützender Knabe,,,52.43974,13.59513,09401433
6445973331,Bathseba,,,52.4397146,13.5944749,09401433
6458119197,Bär,,,52.4365869,13.4505017,08200730
6458178283,Hochtief-Buddybär,,,52.438808,13.1778201,06400737
6458668803,Katastrophenbrunnen,,,52.43591,13.4218102,08200729
6458668804,Tableau der Erinnerung,,,52.4387993,13.4235322,08200729
6458668805,Versteinerte Libellenthron,,,52.4320336,13.4169876,08200729
6458668806,Steinzeichen,,,52.4362459,13.4168956,08200729
6458861118,Dogs hole – Tunnel-Memorial,,,52.4294575,13.4271003,08200729
6458861119,Stele mit zwei menschlichen Figuren,,,52.4288657,13.4274974,08200729
6467775271,Salvador Allende,,,52.4426566,13.5897981,09401431
6467775272,Schaffner und Schaffnerin,,,52.4962681,13.4542823,09100101
6467775273,Bär,,,52.4962134,13.4544955,09100101
6469790725,Trauernde,,,52.4436054,13.5654652,09200819
6469790726,Igel,,,52.4482924,13.566235,09200818
6472858309,Fliegender Amboss,,,52.4518233,13.508876,09100408
6479912563,,,,52.5155559,13.4067847,01100310
6479912564,,,,52.5155697,13.4067993,01100310
6484331128,Quadriga aus Buddy Bears,,,52.5042382,13.3297471,04501042
6494473505,Junge mit Schwein,,,52.4772439,13.478827,09100203
6494473506,Zwei frisierende Mädchen,,,52.4767134,13.4795588,09100203
6494473507,Obstmädchen,,,52.4765064,13.4799269,09100203
6494473508,Fleischerjunge,,,52.4761536,13.480452,09100203
6494473509,Mädchen mit Milch,,,52.4753321,13.4816554,09100203
6494473510,Schusterjunge,,,52.4749857,13.4821864,09100203
6494473511,Apothekerjunge,,,52.4747824,13.4824859,09100203
6494473512,Bäckerjunge,,,52.4742293,13.4832978,09100203
6494473513,Mann mit Kindern,,,52.4758239,13.4808528,09100203
6494473514,Frau mit Karren,,,52.4756034,13.4811773,09100203
6494617533,Zwei Waschfrauen,,,52.4443835,13.5779385,09401534
6494617534,Wäscheleine,,,52.4443277,13.5781225,09401534
6494617535,Schwan,,,52.4444278,13.5786474,09401534
6494617536,Waschende Katze,,,52.444475,13.5788004,09401534
6494617537,Fisch,,,52.4442884,13.5796598,09401534
6497342833,Badende,,,52.4701374,13.4936818,09100305
6497342834,Art & Peace,,,52.475081,13.4852605,09100203
6497342835,Die Sieben Schwaben,,,52.4789396,13.4807407,09100203
6497342836,Bär,,,52.4804084,13.4782706,09100203
6497342837,ehemals Möwenbrunnen,,,52.4757925,13.4757024,09100203
6497342838,Tanzpaar,,,52.4793474,13.4743707,09100202
6506174191,Boot,,,52.4872892,13.4806484,09100101
6506174192,Große Liegende,,,52.4894884,13.4746429,09100101
6506174193,Festivalblume,,,52.4903527,13.4696455,09100101
6506174194,Werdendes,,,52.4911852,13.4726273,09100101
6506174195,Schwarzer Panther,,,52.4917315,13.469591,09100101
6506174196,Säule,,,52.4918499,13.468278,09100101
6506174197,Wolf und Storch,,,52.4914278,13.4685905,09100101
6506174198,Auf dem Meeresgrund,,,52.4848138,13.4727345,09100101
6514909885,Die Erde,,,52.5232336,13.3961773,01100309
6515239377,Ei im Nest,,,52.4387487,13.4734829,08200728
6515398506,,,,52.5075953,13.3903532,02100102
6521265872,Anonymer Kopf,,,52.4713445,13.5653901,09502043
6521586307,Wiedersehen - Protest der Frauen,,,52.4550075,13.5787421,09501939
6521586308,Weiblicher Akt,,,52.4629402,13.5831678,09502043
6521586310,Polytechnischer Unterricht,,,52.4642574,13.5771662,09502043
6535068695,Einstein-Pavillon,,,52.5399959,13.4451359,03601449
6535068696,Albert & Einstein,,,52.5401,13.4457123,03601449
6539353063,Ruderer,,,52.4127657,13.5861692,09301126
6539353064,,,,52.4175297,13.5822773,09301126
6539353065,Der Wächter,,,52.417672,13.58252,09301126
6569014220,Der Geldzähler,,,52.5325648,13.3951372,01100415
6631367603,,,,52.5413271,13.3421002,01400938
6639881765,Wachsender Flügel,,,52.5115769,13.3231075,04300622
6640206357,Der Rest,,,52.542137,13.339524,01400938
6640206358,Denkmal für die Verfolgten des Dritten Reiches,,,52.5417683,13.3409952,01400938
6640206359,"Frau, Stierkopf, Schmetterling",,,52.5419127,13.3387354,01400938
6640206360,Glasblätter,,,52.5423287,13.3395588,01400938
6640285064,Buddy Bear,,,52.5419209,13.3422625,01400938
6668764170,Schwäbische Flossfahrer,,,52.4218764,13.2540666,06300528
6681227087,Götter oder Architekturale Skulptur,,,52.5030276,13.3250802,04501041
6691371284,Buddy Bear Sylt,,,52.5022338,13.3254182,04501042
6691404844,Fischfüßler,,,52.5027419,13.3090427,04501040
6694043507,Hermes,,,52.5103798,13.5132243,11401032
6694696459,,,,52.5084506,13.3687665,01100102
6695381549,Adorant,,,52.5467993,13.3594367,01401043
6696691890,Blumenskulptur,,,52.5419408,13.3501167,01401046
6697407666,Buddy Bear,,,52.5451188,13.3517911,01400942
6700730701,Großes Sonnenzeichen I,,,52.6256977,13.5025701,03100103
6700828015,Aufschwingende Gruppe,,,52.4526273,13.4487723,08200623
6711540413,,,,52.5566911,13.1347125,0
6715196580,Buddy Bear Tierpark,,,52.5253362,13.369081,01200628
6715216799,Ortho-Bär Buddy Bear,,,52.5024092,13.3229127,04501041
6736065254,Buddy Bear ISF 2004,,,52.5227415,13.3831303,01100308
6736065256,Denkzeichen,,,52.5243119,13.3879164,01100309
6742470449,Study-Buddy-Bär,,,52.5095764,13.325838,04300622
6742508495,Schwarz-Weiß-Bären (Buddy Bears),,,52.50089,13.3133711,04501040
6743185324,Charlotten-Bär,,,52.5169774,13.3079973,04300619
6745562880,Flamingo,,,52.5025971,13.5301263,11401034
6745725692,Singing Birds,,,52.5030783,13.5299708,11401034
6756935685,Swing Me Mama,,,52.5039449,13.5294316,11401034
6757049827,Nashorn,,,52.5022112,13.5318421,11401034
6757350666,Bärenskulptur,,,52.5281867,13.293056,04300412
6760139872,Reiterskulptur,,,52.4786224,13.3118657,04400834
6760139873,Buddy Bear - Schlaubär,,,52.4786216,13.3117068,04400834
6766861385,Erdkugel mit Parabelform,,,52.5547858,13.3671743,01401049
6769516677,Fassadengestaltung,,,52.4575556,13.5168341,09200613
6769516678,Giant Tulip,,,52.4576177,13.5178614,09200613
6769979834,Hauptmann von Köpenick,,,52.4586268,13.577061,09501939
6772074821,,,,52.4623572,13.3592201,07400822
6772074829,,,,52.4598539,13.3585341,07400822
6772074830,,,,52.4603176,13.3588372,07400822
6772074834,,,,52.4601092,13.3587574,07400822
6772074835,,,,52.4600279,13.3586904,07400822
6772074836,,,,52.4599728,13.3587058,07400822
6772074837,,,,52.4598735,13.3586944,07400822
6772074838,,,,52.4599323,13.3586139,07400822
6772074839,,,,52.4598049,13.3586709,07400822
6772074840,,,,52.4597746,13.3585469,07400822
6772074841,,,,52.4597595,13.3586508,07400822
6772074842,,,,52.4597203,13.3586334,07400822
6772074844,,,,52.4595577,13.3585596,07400822
6781437845,Mahnmal gegen Kindesmissbrauch,,,52.4604328,13.550182,09200512
6783395600,Viehzüchterin,,,52.4128574,13.5716826,09301024
6785402572,Eisbär,,,52.4980291,13.5249458,11401034
6790334687,Congratiolations,,,52.4992702,13.5266005,11401034
6814483544,,,,52.4986426,13.4412004,02300419
6815621341,Buddy Bear,,,52.5415297,13.3384672,01400938
6815725621,Mehr Licht,,,52.5204971,13.3792944,01100308
6815725622,Miracolo - L’idea di un’immagine,,,52.5197563,13.3781221,01100308
6816208738,,,,52.4648544,13.4416983,08100209
6828545830,Eule,,,52.4613627,13.3873656,07400927
6828629952,Jüngling mit Speer,,,52.5078249,13.2869489,04300415
6829912189,Regenbogenstele,,,52.4992923,13.3527473,07100102
6832669302,25 Jahre Deutsche Einheit,,,52.5117873,13.3777835,01100205
6832669303,wir,,,52.5120945,13.3773284,01100205
6835710239,Meine Welt gemeinsam gestalten,,,52.4798437,13.4321689,08100206
6848662229,Pergamon,,,52.5208816,13.3933427,01100206
6870484758,Que Vai,,,52.5066995,13.3501958,01100101
6870484759,2-Stein,,,52.5066301,13.3501817,01100101
6870484763,Plastisches Objekt,,,52.5052714,13.3531107,01100103
6870484764,Torblock,,,52.5053195,13.3532824,01100103
6870484765,3-X-90,,,52.5052175,13.3534285,01100103
6870484766,Herkules und der erymanthische Eber,,,52.5046575,13.3525394,01100103
6870484767,Huksos,,,52.5044658,13.3517609,01100103
6877267026,Baboons,,,52.5000358,13.5295548,11401034
6885026942,Beefeater,,,52.5101192,13.3753033,01100102
6893571766,Mutter mit Kind,,,52.5841555,13.4037159,03200207
6895101316,,,,52.5211666,13.4228453,01100311
6895152828,,,,52.565893,13.3991314,03400721
6899918776,Ikonen der Freiheit,,,52.3971279,13.1318481,0
6909275917,Rotkäppchen und der Wolf,,,52.5284692,13.1967164,05200631
6912309040,Blau-Bogen-Wiese,,,52.5014264,13.4442797,02300316
6912309045,Stehende Figur vor Reliefkörpern,,,52.5012457,13.4439436,02300316
6912309059,Puppenruhe,,,52.5009639,13.4434998,02300316
6912309062,Die Begegnung,,,52.5011566,13.4437756,02300316
6912309069,Dove Vai,,,52.5006808,13.4429863,02300419
6912309077,Raumlinie,,,52.5013093,13.4440672,02300316
6928041125,One World-Bär,,,52.5056136,13.3812054,02100101
6928042485,Rixi Bär,,,52.4811891,13.4352456,08100314
6937692185,,,,52.5013409,13.388981,02100102
6937692285,Elefant mit Weltballon,,,52.5010441,13.3897331,02100102
6937692385,,,,52.5016297,13.3891778,02100102
6938916988,Victor,,,52.5287553,13.4287168,03701660
6939421149,Vier Bären,,,52.5218421,13.3485816,01200626
6940411686,Titanic Bär,,,52.5321753,13.3812645,01100308
6948706533,Wings of Mexico,,,52.508321,13.3512184,01100101
6950486087,Göttin,,,52.5034652,13.3048257,04500936
6950486088,See me,,,52.5041358,13.3035214,04500936
6952483871,Departure,,,52.5768891,13.2737821,12200413
6952483872,2268miles & Luchadora Pachamama,,,52.5763911,13.2738279,12200413
6955096942,Bogenspannerin,,,52.4311735,13.1944643,06400737
6966390492,"Der Rufer, der Seher, der Schnüffler",,,52.4435024,13.5024494,09100407
6966490134,Satisfied Mind,,,52.5333877,13.3273084,01200517
6972728424,Figurentanz,,,52.5338029,13.3283794,01200517
6972728425,Figurentanz,,,52.5346293,13.3283485,01200517
7042461307,Stehendes Paar,,,52.5478755,13.436319,03601245
7052492435,Bücher,,,52.4319159,13.2557123,06300526
7052712752,Hinweis- und Orientierungsplastik Falkenhagener Feld,,,52.5480586,13.18327,05100209
7053898245,,,,52.5995997,13.3180966,12500927
7054095794,Maternal II,,,52.4215355,13.4229515,08200832
7054291857,Große Kopf-Figuration,,,52.5208253,13.1674189,05200527
7054549035,Jungen mit Drachen,,,52.4298837,13.3494151,06200315
7099632693,,,,52.4358354,13.4589325,08401139
7113413283,Buddy Bear Weltumsegler,,,52.4970424,13.3235042,04501044
7121617018,Bauarbeiter,,,52.5751418,13.4183789,03400724
7122097583,Fünf-Kinder-Tröpfelbrunnen,,,52.5105733,13.3996618,01100207
7122126580,Otto-Nagel-Zyklus,,,52.5895803,13.356221,03400619
7122434517,Fünf-Kinder-Tröpfelbrunnen,,,52.6296198,13.5010638,03100103
7141438108,Vietnamesische Mutter mit Kind,,,52.4541902,13.6213624,09501737
7141438109,Entwicklung Berlin,,,52.4478126,13.6200388,09501737
7146586552,Buddy Bear,,,52.5051016,13.339299,04501042
7146586554,Buddy Bear,,,52.5049368,13.3392486,04501042
7197888673,Widderskulptur,,,52.52234,13.3288736,04300620
7197888674,Widderskulptur,,,52.5225353,13.328656,04300620
7197888682,Stierskulptur,,,52.5227974,13.3293041,01200522
7209521049,,,,52.3885808,13.5093649,0
7217029036,Kinetisches Windspiel,,,52.4670392,13.3922723,07400927
7218230122,,,,52.4767054,13.443202,08100416
7218230126,,,,52.4767328,13.443187,08100416
7228466623,,,,52.4911192,13.4259849,08100311
7278252608,Hängende Skulptur,,,52.5199254,13.1716471,05200527
7283438435,,,,52.5144943,13.2376594,04200203
7285639763,Zwei Menschen,,,52.52517,13.4177568,01100310
7293767877,Pony,,,52.5400213,13.3020233,04100102
7296568723,Kopf mit Herz,,,52.4311814,13.7151523,09501838
7299242683,,,,52.5399918,13.3734137,01300836
7300398227,,,,52.5324259,13.34353,01200520
7300398228,,,,52.5324298,13.3431527,01200520
7304433020,,,,52.5161274,13.3358366,01200629
7305754086,Panketor,,,52.5545744,13.3793091,01401045
7319743291,Borussia,,,52.574449,13.3810292,03400620
7319899302,Kreuzberger Klagebaum,,,52.4930263,13.4308837,02300418
7330227382,Seerobbe,,,52.4153703,13.6003286,09401330
7330227383,Rehkitz,,,52.4290252,13.5948984,09401329
7330227384,Turnende Kinder,,,52.4233588,13.5916784,09401329
7330257185,Weiblicher Akt,,,52.4138852,13.5905103,09401330
7333072067,Westfäli,,,52.4957154,13.2973127,04500938
7376820328,Sonnenuhr,,,52.4395456,13.5012814,09100408
7376820329,Aufbauhelferin,,,52.4404826,13.4994172,09100407
7376820330,Frauen,,,52.4477407,13.506348,09100407
7376820331,Knabenpaar,,,52.4482679,13.5033292,09100407
7376820332,Generationen,,,52.4523824,13.5070963,09100407
7376820333,Kinder mit Schildkröte,,,52.4535102,13.5048956,09100407
7388634786,Fußball,,,52.5499752,13.3919252,01300733
7411866500,Schaukasten,,,52.4497326,13.6219525,09501737
7411866501,Gazelle,,,52.4498789,13.6224836,09501737
7411866502,Mutter mit Kind,,,52.4492332,13.6214456,09501737
7411866503,Elefant,,,52.4486161,13.621408,09501737
7417962926,Maria,,,52.4539294,13.3610365,07400826
7438355340,Olympionike,,,52.4809289,13.314557,04501148
7445087933,Trauernde,,,52.4228215,13.2943515,06300632
7464707585,Russisches Mädchen,,,52.4405668,13.4999724,09100408
7466594359,Kentaur und Nymphe,,,52.5073897,13.3378677,01100102
7466594361,Iguanodon,,,52.5061203,13.3403353,01100102
7466594363,Krötenbüblein,,,52.507454,13.3376789,01100102
7473624656,,,,52.4243624,13.2125869,06400736
7477092175,Pfeilerfigur Bär,,,52.508892,13.3429901,01100102
7477092176,Pfeilerfigur Bär mit Wappen ZG,,,52.5088646,13.3431362,01100102
7481818765,Rominter Brunfthirsch,,,52.5065227,13.3345678,01100102
7481818766,Leda mit dem Schwan,,,52.5063489,13.3420292,01100102
7481818770,Klinkerbär,,,52.508645,13.3426789,01100102
7489816294,Bär,,,52.5063248,13.3354916,01100102
7502777456,Orang-Utan-Kinder,,,52.5494184,13.4623619,03500936
7502919754,Jaguar,,,52.5548208,13.4591793,03500933
7508734972,Schnecke,,,52.4611707,13.5471484,09200512
7508734976,Bär auf einer Kugel balancierend,,,52.4634472,13.542973,09200512
7508734977,Arbeiterführer Ernst Thälmann,,,52.4658788,13.5443643,09200512
7512082628,Mutter und Kind,,,52.5407089,13.4444274,03601449
7529546356,,,,52.6661145,13.4668426,03100101
7541583038,La Belle Jardinière,,,52.4343573,13.4203041,08200729
7550051058,Zwei Schafe,,,52.4184319,13.5406749,09300920
7550051059,Tünnes und Schäl,,,52.4022896,13.5429467,09300923
7550051060,Kinetisches Tor,,,52.4021309,13.5420428,09300923
7550051062,Sitzende,,,52.4182585,13.5379243,09300920
7580301585,Drei Affen,,,52.5467124,13.4229462,03601244
7589785429,Deutsch-Sowjetische Freundschaft,,,52.553074,13.5557033,10100208
7592923494,Buddy Bear,,,52.5377198,13.3434116,01200517
7599829392,Friede sei mit Dir,,,52.5066312,13.3917104,02100102
7599832544,Arthur Nikisch,,,52.4809784,13.2664979,04400729
7616134546,,,,52.4984277,13.297483,04500937
7617811037,Ildefonso-Gruppe,,,52.5264613,13.2951194,04300412
7620392872,Stern,,,52.3956464,13.0919547,0
7620392873,Stern,,,52.3972208,13.098576,0
7625218185,,,,52.5794711,13.2887488,12200413
7625899585,Sportler,,,52.5432411,13.4274142,03701657
7650006204,Elch,,,52.5149548,13.369707,01100102
7650006205,Bison,,,52.515067,13.369475,01100102
7650006206,Bison,,,52.5151068,13.3692819,01100102
7650006207,Elch,,,52.5150988,13.3689524,01100102
7650006208,Stier,,,52.5142418,13.3690175,01100102
7650006209,Bär,,,52.5142805,13.3688321,01100102
7666946668,Buddy Bear,,,52.5019867,13.3166873,04501041
7682711986,Antilope,,,52.4919703,13.3136508,04501043
7684640434,Werdendes,,,52.5200226,13.3798526,01100308
7703672706,Kapitell,,,52.4895455,13.4765607,09100101
7721121090,Mit offenen Augen,,,52.5390061,13.3472762,01401046
7721121091,Kreis und Ellipse,,,52.5393658,13.3464474,01401046
7721121092,Durchbruch,,,52.5393695,13.3473198,01401046
7721121093,Steinkugel,,,52.5434102,13.33965,01400938
7721121095,Anabase,,,52.54342,13.3406559,01400938
7728313787,Heim,,,52.5129384,13.2810476,04200311
7728321886,Arbeit,,,52.5127001,13.2810869,04200311
7733972641,Elementblock (Elementwürfel),,,52.492112,13.2841471,04400726
7741533677,Menschen im Kiez,,,52.4781866,13.4321872,08100207
7741533684,Menschen im Kiez,,,52.4782212,13.4325965,08100207
7741576185,Menschen im Kiez,,,52.4782154,13.4325404,08100207
7782009607,,,,52.4674836,13.4696161,08100521
7782009608,,,,52.4674726,13.4696349,08100521
7782009613,,,,52.4673384,13.4698322,08100521
7782009614,,,,52.4673494,13.4698134,08100521
7792000132,Figurenrelief,,,52.5244697,13.3773084,01100308
7792350435,Der Abend,,,52.4744073,13.3418519,07300618
7792350436,Der Morgen,,,52.4739553,13.3418793,07300618
7804218058,Feuerstelle,,,52.5432609,13.3397587,01400938
7804218059,LEphémère,,,52.5434314,13.3400899,01400938
7813611619,,,,52.4403861,13.1781113,06400737
7813611620,,,,52.4359778,13.1769499,06400737
7813611623,Tempel,,,52.4379139,13.1783836,06400737
7814962782,Keim,,,52.4288586,13.4272181,08200729
7815036295,Rote Granitplatte (Grabzeichen),,,52.4284089,13.4260556,08200729
7815036297,Abstrakte Figur,,,52.4287061,13.4271072,08200729
7815197793,,,,52.4968671,13.2399286,04200207
7815197795,,,,52.4980674,13.2404674,04200207
7820654470,Buddy Bär Berlin Heart,,,52.4424119,13.3282882,06200312
7820690578,Buddy Bär Queer Grizzly,,,52.4974083,13.354201,07100102
7830431446,Übergang – Nähe und Distanz,,,52.461384,13.4798494,09100304
7836953785,Die Sinnende,,,52.5107027,13.5578219,10300733
7837386128,Flügelsäule,,,52.4423195,13.2380761,06400838
7837386130,Fruchtbarkeitsschrein,,,52.4478167,13.247433,06400839
7838055382,Der Wille,,,52.4905944,13.2776146,04400726
7840131105,Pergola,,,52.5433036,13.3408067,01400938
7840380166,Buddy Bär,,,52.4919495,13.2809821,04400726
7840380222,Kauernde,,,52.6051881,13.3965075,03200204
7845960276,Kind mit Adler,,,52.503435,13.334071,04501042
7846682279,Buddy Bear Candy Bär,,,52.4558556,13.2730028,06400842
7857667985,"Mein Gott, hilf mir, diese tödliche Liebe zu überleben",,,52.5038479,13.4428096,02400625
7859120491,Buddy Bear,,,52.5053595,13.3366996,04501042
7859293230,Reflecting gardens,,,52.537941,13.5721044,10100316
7860761959,I love Kudamm,,,52.5012377,13.3170948,04501041
7864189044,Dachskulptur,,,52.501846,13.31928,04501041
7864231432,Turmspitze mit Flügeln,,,52.5109191,13.2918303,04300414
7864843895,Großer Phönix III,,,52.4661999,13.2747258,06400842
7872821127,Buddy Bear,,,52.5017129,13.318747,04501041
7877671610,handelundwandel,,,52.5096971,13.5185897,11400931
7890836141,,,,52.4133967,13.0964978,06400735
7890836142,,,,52.4133702,13.0963806,06400735
7890836162,Wasserkentaurin,,,52.4133658,13.0913231,06400735
7890836163,Wasserkentaur,,,52.4135551,13.0913224,06400735
7898643009,Tier Bank Skulpturen mit Mosaiksteinen,,,52.6307431,13.3195823,0
7917541701,Buddy Bear,,,52.5062595,13.3580976,01100103
7920817762,Stab und Scheibe 2,,,52.5178914,13.338486,01200629
7925879730,Faungruppe,,,52.5050306,13.2895946,04300415
7925879731,Woge mit Kugel,,,52.5086932,13.2935348,04300415
7925879732,Zwei Seelöwen mit Vogeltränke,,,52.5069064,13.2865664,04300415
7934149102,Pflanzschale,,,52.4331353,13.5394465,09200715
7937664770,,,,52.504991,13.3364914,04501042
7939373173,,,,52.4553962,13.3012417,06300629
7947303073,,,,52.4112319,13.0976129,06400735
7947303075,,,,52.4111697,13.0971643,06400735
7977761417,,,,52.6025817,13.3571577,12601134
7977776172,Die Gemeinschaft,,,52.60233,13.3610439,12601133
7978021390,Sitzender Junge,,,52.5450236,13.4371965,03601245
8026063157,Kaiser-Friedrich-Vase,,,52.5211114,13.2946481,04300412
8032581196,Buddy Bear - Endobär,,,52.5030962,13.3427527,07100101
8039474140,Borghesischer Fechter von Agasias,,,52.5201582,13.2957674,04300412
8039474141,Borghesischer Fechter von Agasias,,,52.5201662,13.2958894,04300412
8039667181,Übergang – Nähe und Distanz,,,52.4619127,13.4773556,09100304
8039667182,Übergang – Nähe und Distanz,,,52.4621223,13.47757,09100304
8039667183,Übergang – Nähe und Distanz,,,52.4611824,13.4796899,09100304
8042118223,Frauenstatue,,,52.5539706,13.4594929,03500933
8044410596,Mutter mit zwei Kindern,,,52.5016819,13.3271013,04501042
8048153367,,,,52.4520536,13.3101522,06300629
8077205621,Verborgener Riesenblechbehälter,,,52.4955207,13.3314072,04501045
8078324111,Gadget,,,52.3613429,13.5084549,0
8091135193,Buddy Bear Friedrich,,,52.5159091,13.3888163,01100206
8151523088,St. Florian,,,52.5057255,13.4660926,02500834
8152276026,Steinbogen,,,52.5704476,13.3893732,03400620
8165602952,,,,52.5014877,13.3907841,02100102
8166921730,,,,52.4848977,13.4264024,08100206
8176222820,Allegorie Flussschifffahrt,,,52.4975497,13.3917586,02200210
8176222821,Allegorie Fischfang,,,52.497579,13.3922425,02200210
8208691230,Aufbauhelferin,,,52.5191539,13.4079123,01100310
8208691231,Aufbauhelfer,,,52.5188935,13.4072806,01100310
8244973758,Geschwungene Stahlskulptur,,,52.5119238,13.3152553,04300624
8285168216,,,,52.5514369,13.4001054,03601140
8286735349,Heinrich Zille,,,52.5296667,13.3947088,01100415
8286832375,,,,52.4236048,13.4817051,08301037
8324218492,,,,52.5187278,13.4044469,01100310
8324218495,Die Würde und Schönheit freier Menschen,,,52.5185083,13.4048874,01100310
8346274786,Partenza,,,52.5239729,13.3686617,01200628
8363092328,Zwei Stelen,,,52.4548785,13.2954337,06400843
8363092329,Zwei Stelen,,,52.4549061,13.295406,06400843
8420802935,Statue der Germanenfürstin Thusnelda,,,52.4259807,13.0899801,0
8436532698,,,,52.5283728,13.5975621,10200628
8461742735,,,,52.5150747,13.6670205,0
8496905684,Mutter mit Kindern,,,52.4806366,13.3758584,07400721
8513101094,Die sich Aufrichtende,,,52.5467165,13.5561836,10100210
8513101095,Der sich Befreiende,,,52.5467589,13.5562646,10100210
8544547647,Zicke,,,52.4016837,13.2659463,0
8557151345,Yellow Man,,,52.5001083,13.4408629,02300419
8557281793,,,,52.5035898,13.438027,02300316
8557281794,Wenn ich wüsste dass..,,,52.5417525,13.4407424,03601449
8557281795,Die Sonne wird im Ozean versinken,,,52.5296063,13.4591137,03601450
8557281796,Check Your Privilege,,,52.5075512,13.4512104,02500834
8557323491,,,,52.5073752,13.4544431,02500834
8563116690,Skulptur,,,52.5647512,13.5584734,10100101
8583552679,,,,52.5035999,13.3130372,04501040
8591912895,,,,52.4078889,13.0929696,0
8592136360,Gazelle,,,52.569617,13.3966865,03400620
8607468092,Schutz vor Feuer,,,52.5347519,13.5366693,10100311
8617489486,,,,52.476619,13.4370097,08100207
8622151996,,,,52.5045579,13.3123733,04501040
8631318558,Attack of the 50 Foot Socialite,,,52.5284099,13.4257003,03701660
8631541708,The Blue Indian,,,52.5110152,13.427794,02400623
8631541709,No Title,,,52.5113689,13.4271994,02400623
8631541710,,,,52.5112498,13.4271977,02400623
8631546850,Lady With Bird,,,52.5047247,13.4305689,02300316
8631556763,Smash The State,,,52.5181054,13.4570485,02500727
8632312861,,,,52.5221956,13.3253662,04300620
8641751418,,,,52.5341739,13.3776798,01100308
8660507740,Totem,,,52.5328822,13.4832135,11300620
8662146975,,,,52.4606028,13.1633766,05400942
8662146976,,,,52.460602,13.1634665,05400942
8662146981,Sitzender Akt,,,52.460126,13.1626576,05400942
8672587817,Schreiender Hengst,,,52.5660084,13.5165544,11100204
8677298195,glückliche Zellen,,,52.4629736,13.4399395,08200622
8712552256,Altar der Nationen,,,52.3970822,13.1317737,0
8714294710,Buddy Bär,,,52.452129,13.1506214,05400944
8722077553,Fußballspieler,,,52.5440922,13.4091372,03601142
8725243872,Sinnende,,,52.5188423,13.393384,01100206
8728077455,Ich bin es selbst,,,52.5055881,13.3263436,04300622
8730472018,Sportstudentin Sonja,,,52.3769634,13.1317755,0
8731401199,von Ufer zu Ufer,,,52.6117903,13.205222,0
8736048317,Skulptur mit 3 Tieren,,,52.5387627,13.4372787,03601451
8751533534,Vier Jahreszeiten,,,52.5215252,13.5464984,10100312
8753991822,,,,52.5089565,13.4509573,02500834
8753991951,Love,,,52.5109774,13.4431156,02400625
8765448136,Louise Henriette von Nassau-Oranien,,,52.4116109,13.0976312,06400735
8765448137,Friedrich Wilhelm Markgraf von Brandenburg,,,52.4116303,13.0975792,06400735
8775512428,,,,52.4854947,13.425533,08100206
8775512431,Christus,,,52.4856631,13.4253615,08100206
8789166854,Hochwendelnd,,,52.5119892,13.1917036,05200634
8789166855,Schild und Wehr,,,52.5118386,13.1930675,05200634
8789825217,,,,52.5012273,13.3992629,02100105
8807102224,Sonne,,,52.4510368,13.2828214,06400843
8808927638,Shadow Sculpture,,,52.5144156,13.3170658,04300622
8809409065,Eine Frage des Standpunktes,,,52.5323419,13.383607,01100414
8863133911,Affengruppe,,,52.5402357,13.3409744,01400938
8866148625,Zahnskulptur,,,52.4971687,13.2893452,04500937
8868345126,,,,52.5214201,13.2954291,04300412
8868345127,,,,52.5214445,13.2958201,04300412
8868345128,,,,52.5235363,13.2954834,04300412
8868345129,,,,52.5235118,13.2950898,04300412
8868345130,,,,52.5236917,13.295473,04300412
8868345131,,,,52.523708,13.295471,04300412
8868345132,,,,52.5236662,13.2950426,04300412
8868345133,,,,52.5236834,13.2950409,04300412
8868345134,,,,52.5236852,13.2950704,04300412
8868345135,,,,52.5237076,13.2954425,04300412
8868345136,,,,52.5237034,13.2953698,04300412
8868345137,,,,52.5236991,13.2952974,04300412
8868345138,,,,52.5236954,13.2952209,04300412
8868345139,,,,52.5236913,13.2951431,04300412
8873310304,,,,52.5007804,13.4012273,02100105
8888172672,,,,52.48318,13.4170649,08100101
8888195399,,,,52.4835018,13.4172363,08100101
8904959154,Auch ich in Berlin,,,52.4788743,13.4308902,08100206
8909931564,,,,52.4617009,13.4217521,07400928
8910102683,Gorilla mit Taschenlampe,,,52.4012972,13.1155937,0
8911756799,Trötenbaum,,,52.431842,13.2168186,06400737
8916909336,Berlin-Burger Eisenwerk,,,52.4894903,13.3754724,02200209
8919708126,Kore,,,52.4472568,13.2820229,06400843
8946659317,Kindertagesstätte,,,52.4876976,13.4347913,08100312
8955154392,,,,52.6570409,13.4882449,0
8959689736,Frau mit Kind,,,52.503865,13.4956172,11400929
8972914317,,,,52.4939615,13.3581263,07100204
8972914318,,,,52.4937796,13.3579137,07100204
8972914319,,,,52.4938078,13.3578063,07100204
8978078504,,,,52.5010358,13.3922323,02100102
8983347075,,,,52.5073484,13.3970574,02100102
8984131355,Solarica-X,,,52.4651824,13.2770534,06400842
8998553299,Geschwister,,,52.5281269,13.3980837,01100309
9000743900,,,,52.501003,13.3916907,02100102
9001070146,,,,52.6031048,13.4030606,03200204
9001102967,,,,52.5883298,13.4211241,03200207
9001102968,,,,52.5885445,13.4212615,03200207
9017272904,Drehmoment,,,52.5234798,13.3741682,01100308
9023403704,Mauern durchbrechen,,,52.5100686,13.3879942,01100207
9023419997,Wegzeichen 3a,,,52.5096213,13.3630563,01100102
9023520859,Anatolische Zugvögel,,,52.5096817,13.3610165,01100102
9024689615,Gorilla,,,52.506241,13.336009,01100102
9024702240,Polacanthus,,,52.5061413,13.340758,01100102
9024702251,Ammoniten,,,52.5061163,13.3407596,01100102
9053186529,Pflanzwürfel,,,52.4332077,13.538916,09200715
9053186530,"Pflanzturm, Springbrunnen, Sitzbank",,,52.433103,13.5393076,09200715
9053773765,,,,52.4798293,13.4245038,08100102
9053773779,,,,52.4797881,13.4245333,08100102
9054499337,,,,52.5052301,13.3208239,04300624
9063625481,Stauchung-Harmonisch,,,52.4624186,13.3828272,07400824
9063631725,Laokoon III,,,52.4625623,13.3841291,07400824
9065392822,Imperial Love,,,52.5073567,13.3678413,01100102
9065392823,Polis,,,52.5066158,13.3671577,01100102
9065392824,Vier Vierecke im Geviert,,,52.5065959,13.3681488,01100102
9078868502,Musizierende Kinder,,,52.5175562,13.4756797,11300722
9078868512,Zwei Bären (nördliche Gruppe),,,52.517714,13.477773,11300722
9082816199,Vertical Highways,,,52.5244591,13.3685844,01200628
9091721375,Goldener Stein,,,52.4023228,13.5254062,09300922
9103404331,Aufstrebende Linien,,,52.6736867,13.2813523,0
9105871317,Bienentanz,,,52.6697674,13.2865714,0
9106180670,,,,52.5000937,13.4414733,02300419
9118046978,Leitung und Linie,,,52.4581815,13.5265276,09200511
9118046979,Leitung und Linie,,,52.4560208,13.526077,09200511
9118046986,Stahlpresse,,,52.4567163,13.5278821,09200511
9118046987,Namen im Raum,,,52.4630983,13.5333431,09200512
9118047004,Fuchs mit Gans,,,52.4569892,13.5385868,09200512
9118047005,Frau mit Kindern,,,52.4572851,13.5385238,09200512
9142771826,Wasserspeier,,,52.4304554,13.4315103,08200729
9142771827,Reiherbrunnen,,,52.4308904,13.4253909,08200729
9142771828,Fischbrunnen,,,52.4302845,13.4277526,08200729
9142771829,Wasserträgerin,,,52.429968,13.4250345,08200729
9142771830,Eulenbrunnen,,,52.430215,13.4291882,08200729
9142771831,Persephone,,,52.430094,13.4262934,08200729
9143871035,,,,52.5329471,13.3376326,01200520
9164742809,,,,52.5378121,13.5857843,10200420
9166974262,,,,52.522051,13.5114705,11300721
9169778607,Bienenflug,,,52.6680061,13.2817988,0
9187499287,,,,52.4662756,13.4410502,08100209
9187558983,,,,52.4662172,13.4410447,08100209
9195769150,Auerhahn,,,52.4276272,13.4264652,08200729
9195975855,Gedanken eines Mimen,,,52.4894553,13.3124001,04501146
9197759070,Reiterloses Pferd,,,52.4562627,13.340298,06100204
9197759071,Christusstatue,,,52.4559836,13.3415398,06100204
9197759072,Christusstatue,,,52.4578925,13.3446303,06100204
9212092226,Drei Stelen,,,52.5350353,13.4242562,03701658
9214950534,Bodhisattva,,,52.5228456,13.2330426,04200203
9233862694,,,,52.4537935,13.3622862,07400826
9248544285,,,,52.3571109,13.6323952,0
9251608542,Buntes Quartier,,,52.4640712,13.4724895,08100521
9251608543,Orientierung,,,52.4645622,13.4723621,08100521
9255913447,Der Befreier,,,52.4861417,13.4719374,09100101
9256186730,,,,52.4876432,13.4688422,09100101
9256186731,,,,52.4874909,13.4686664,09100101
9345039552,Bullengraben-Bulle,,,52.530569,13.1693297,05200420
9349276437,,,,52.3772237,13.6202424,0
9355813964,,,,52.4389839,13.2147126,06400737
9389706316,"""Aufbauhelferin""",,,52.5738131,13.4077428,03400722
9391913190,"""Mädchen""",,,52.5837996,13.4008383,03200206
9393287836,Große Vegetative Landschaft,,,52.569582,13.3937893,03400620
9395249944,Stehende für C.E.,,,52.569759,13.4028231,03400722
9395249945,Weiße Gottheit,,,52.5697184,13.40286,03400722
9395249946,Sitzende,,,52.5696778,13.4028909,03400722
9395249947,Sich Vorbeugende,,,52.5696396,13.4029168,03400722
9395249948,Sinnende,,,52.5696026,13.4029497,03400722
9395249949,Hockende mit Haube,,,52.5695639,13.4029806,03400722
9399647507,Grenzsoldat mit Kind,,,52.5688766,13.4068889,03400723
9403561881,"""Bruch ist ganz""",,,52.5657839,13.4008448,03400721
9404929690,Mutter mit Kind,,,52.5726225,13.4084988,03400724
9404965946,"""Sitzender""",,,52.5735718,13.4079406,03400724
9404969730,Drei Frauen,,,52.5747597,13.4068228,03400722
9407568196,Aufwind,,,52.5683981,13.5500861,10100101
9410370944,Impressionen,,,52.5275979,13.4739437,11300617
9410613071,Poesie der Großstadt,,,52.528003,13.4717775,11300617
9410650238,Dem Leben gewidmet,,,52.5279199,13.4718369,11300617
9433839554,Sitzmauer,,,52.5284695,13.4686612,11300617
9433845668,Wind- und Lichtspiel,,,52.5283243,13.4686741,11300617
9433846119,Wasserwand,,,52.5282405,13.4698372,11300617
9433861195,Findling,,,52.530723,13.4711728,11300617
9433864719,Rosenpavillon,,,52.5299863,13.4761586,11300617
9437071878,Refrain,,,52.5305929,13.4738828,11300617
9454185582,Konstellation,,,52.4948891,13.4091802,02200213
9460590848,"""Viertelmondträgerin""",,,52.5696872,13.4049129,03400723
9483060378,,,,52.4535798,13.2922667,06400843
9489963716,,,,52.5194432,13.3066678,04300619
9490755448,Elefant,,,52.5761558,13.3945275,03200206
9502962706,Buddy Bär,,,52.4913713,13.3164954,04501043
9502964960,Buddy Bär,,,52.4923709,13.3173053,04501044
9502968276,Buddy Bär,,,52.4915865,13.3171078,04501044
9505263933,,,,52.4886663,13.429288,08100311
9516171880,Speerwerfer,,,52.5284621,13.4444052,02400520
9527983443,,,,52.5691097,13.3713037,12100102
9529022155,,,,52.5516014,13.3752979,01401044
9532550370,Dreiheit,,,52.5036136,13.3978292,02100103
9532550375,,,,52.5034256,13.398544,02100103
9551496124,,,,52.5203914,13.2773697,04200308
9552957006,Flötenspielerin,,,52.5598393,13.4191383,03400827
9583417510,,,,52.560504,13.4500847,03500932
9583417511,,,,52.5604658,13.449991,03500932
9583417512,,,,52.5605847,13.4495951,03500932
9583445935,Lesender Knabe,,,52.5520194,13.4528194,03500933
9583448463,Christus,,,52.5593232,13.4514252,03500932
9587970853,Berliner Originale,,,52.5177641,13.4075224,01100310
9587970854,Der Angler,,,52.5170504,13.4046077,01100310
9589495370,Liegender und stehendes Mädchen,,,52.570736,13.3954904,03400620
9589513971,upright figure no. 9,,,52.569079,13.3938598,03400620
9589549185,Lange Bank,,,52.5704813,13.3928288,03400620
9589564521,Mutter mit Kind,,,52.5694611,13.3901325,03400620
9590460600,Ponyreiter,,,52.5780449,13.3949292,03200206
9590483502,Tanzende Rollschuhläuferin,,,52.5601187,13.4067915,03400826
9590509491,Stehender Knabe,,,52.5787111,13.4054431,03400722
9591555228,Große Knieende,,,52.5106243,13.2514328,04200205
9591555229,Großer Stürzender,,,52.5084533,13.2499019,04200205
9591555230,Die Ruhende,,,52.5097382,13.2507445,04200205
9592954470,Stahlknoten,,,52.5346847,13.5813163,10100316
9592974332,horse,,,52.5360724,13.5796254,10100316
9592974376,,,,52.536709,13.5769407,10100316
9592974843,Schneewitchen und die 7 Zwerge,,,52.5379809,13.578505,10100316
9592974844,,,,52.53771,13.5784413,10100316
9610641710,,,,52.5508335,13.474596,03501038
9613470858,Grüner Hering,,,52.5497503,13.4522084,03500935
9614998143,Sterbender Adler,,,52.5770096,13.3497761,12100205
9629126337,,,,52.5020725,13.424255,02300314
9629126338,,,,52.502046,13.4243562,02300314
9629126381,,,,52.5020376,13.4242902,02300314
9629838102,,,,52.459089,13.3874479,07400927
9634457790,,,,52.5703649,13.3702344,12100103
9634459704,,,,52.5703959,13.3701358,12100103
9634495282,,,,52.5720997,13.3649332,12100103
9634498587,,,,52.5711345,13.3685279,12100103
9653831583,,,,52.5683251,13.5117051,11100205
9653831584,,,,52.5683559,13.5117562,11100205
9653831585,,,,52.5683605,13.5116842,11100205
9656279017,,,,52.5535079,13.3788566,01401045
9663200381,,,,52.5673172,13.3845846,01300731
9666862502,Schwimmer,,,52.4640257,13.4890088,09100304
9669186674,Tränke mit Schwan,,,52.5774528,13.3496321,12100205
9669186675,Buchablage für das Totenbuch,,,52.5772168,13.3506458,12100205
9669186676,Fliegender Fisch,,,52.5755695,13.3663036,12100103
9669186677,Blutenbrunnen,,,52.5636448,13.37062,12100101
9669186678,Stele III,,,52.5628541,13.3706096,12100101
9669186679,Stele II,,,52.561299,13.3709282,12100101
9669186680,Trennwand,,,52.5802313,13.3520295,12100205
9669186681,Brunnenstele,,,52.5743676,13.342976,12100206
9671927947,Berlin dankt Frankreich,,,52.5613196,13.3261323,01400937
9675647773,,,,52.5708053,13.3469834,12100205
9675647775,,,,52.5623418,13.3574643,12100204
9675651526,,,,52.5751856,13.3505975,12100205
9675652611,,,,52.5675669,13.3726271,12100101
9675661033,,,,52.571501,13.3714243,12100103
9675667453,,,,52.5753921,13.351158,12100205
9675667669,,,,52.5736008,13.3347234,12100206
9675667671,,,,52.5743231,13.3597367,12100103
9675667737,,,,52.5631843,13.3315206,12100205
9675668484,,,,52.5712582,13.3308535,12200307
9675669443,,,,52.5746101,13.3320906,12200307
9675669444,,,,52.5744019,13.3583163,12100205
9675669889,,,,52.572214,13.3790051,12100102
9675672535,,,,52.5658553,13.3733828,12100101
9675672536,,,,52.5534543,13.3667951,01401049
9675673128,,,,52.5665725,13.3435284,12100204
9675674763,,,,52.5675844,13.3726197,12100101
9675674764,,,,52.5721104,13.3748945,12100102
9675677584,,,,52.5691024,13.3712861,12100102
9675678677,,,,52.5735179,13.3388246,12100206
9675678937,Bottrop-Stein,,,52.5423669,13.3735342,01300836
9675678938,,,,52.5625873,13.3571493,12100204
9675678942,,,,52.5652259,13.354031,12100204
9675680431,,,,52.5659982,13.3523393,12100204
9675681832,,,,52.5666511,13.3453301,12100204
9675687375,,,,52.5754597,13.3487248,12100205
9676046744,,,,52.5669257,13.3698241,12100101
9676052818,,,,52.5595499,13.3534914,01400940
9676057837,,,,52.5636642,13.3775189,12100101
9676057838,,,,52.5669404,13.3698198,12100101
9676067410,,,,52.5633658,13.3739206,12100101
9678340450,,,,52.5742404,13.3661003,12100103
9678340451,,,,52.576151,13.360499,12100103
9678340452,Reliefstele,,,52.4897607,13.314099,04501146
9678342002,,,,52.57097,13.3691865,12100103
9678351186,,,,52.5720677,13.3645701,12100103
9678351188,,,,52.5018281,13.2957287,04500936
9678351189,Buddy Bear,,,52.4982072,13.2964838,04500937
9678352264,,,,52.4932017,13.291443,04400727
9678374623,,,,52.4942122,13.3028943,04500939
9678376630,,,,52.4934908,13.3149986,04501043
9678379108,,,,52.4883183,13.3142806,04501146
9678390596,,,,52.5728693,13.3710101,12100103
9678396119,,,,52.5742436,13.3648844,12100103
9678396217,,,,52.5727658,13.3708948,12100103
9678396417,,,,52.5754893,13.3603246,12100103
9678396422,,,,52.5007366,13.2925946,04500937
9679930452,Kämpfende Ziegen,,,52.4912195,13.4227945,02200213
9680169214,Drei Grazien,,,52.5403464,13.4505454,03601449
9681261566,Schmuckvase,,,52.515825,13.2986004,04300414
9681263310,Schmuckornament,,,52.5158813,13.2987128,04300414
9681267613,Schmuckornament,,,52.5159057,13.298709,04300414
9681269606,Schmuckornament,,,52.5159011,13.2985391,04300414
9681269607,,,,52.495039,13.3110473,04501043
9681279205,,,,52.5147086,13.2993699,04300414
9681279556,Schmuckornament,,,52.515865,13.298548,04300414
9681282354,Schmuckvase,,,52.5158253,13.2986742,04300414
9681285486,Schmuckvase,,,52.5167529,13.2985608,04300414
9681294048,,,,52.5176719,13.289978,04300413
9681297955,,,,52.517644,13.2972151,04300414
9685027895,,,,52.4912839,13.3150077,04501043
9685030334,,,,52.4820987,13.3154998,04501148
9685031159,,,,52.4821183,13.3154945,04501148
9685031556,,,,52.4919148,13.2820366,04400726
9685037488,,,,52.4911742,13.3150886,04501043
9685046984,,,,52.4893425,13.2972464,04400727
9685048840,,,,52.4870662,13.3139791,04501146
9686951594,,,,52.5639204,13.3649886,12100101
9689742208,,,,52.5136221,13.2962064,04300414
9693101656,Wishing Star,,,52.4313938,13.4211985,08200729
9693101657,Drei Liegende,,,52.4334836,13.4151943,08200729
9693101658,Rhizomatische Brücke,,,52.4330586,13.4167319,08200729
9693101659,Wegzeichen,,,52.4296197,13.4090978,08200729
9693101660,Großer Wasserstein,,,52.4337555,13.4137139,08200729
9693101662,Fundstücke – Graniträder,,,52.4390028,13.4230842,08200729
9693101663,12 Speere,,,52.4366662,13.4197649,08200729
9693101664,12 Speere,,,52.4366507,13.4218316,08200729
9693101665,Sarkophag,,,52.4348422,13.4137849,08200729
9693101668,Wurzelhalbkugel,,,52.4344579,13.4139499,08200729
9699816962,Seelöwen­brunnen,,,52.5127342,13.2965797,04300414
9699879638,,,,52.5121871,13.2968584,04300414
9699883150,Stadtbad Wilmersdorf,,,52.486063,13.3016489,04400830
9699883735,,,,52.5016851,13.3102449,04501040
9706931846,,,,52.5074032,13.2749601,04200311
9724574957,,,,52.5637893,13.3780417,01300731
9724619629,,,,52.5744555,13.3697586,12100103
9724634027,,,,52.5714908,13.3517537,12100205
9724634756,,,,52.5535386,13.3641631,01401049
9724635629,,,,52.5662314,13.3768407,12100101
9725249215,,,,52.5726249,13.3704823,12100103
9725259509,,,,52.5721279,13.3630021,12100103
9727708371,,,,52.5644939,13.3737422,12100101
9727746197,,,,52.5645422,13.3743553,12100101
9736006185,Mädchen mit Spielelementen,,,52.540338,13.4253145,03701657
9741690507,,,,52.54277,13.3772483,01300836
9743665085,Nebelschwaden,,,52.3944887,13.1337303,0
9743665086,Blauer Klee,,,52.394391,13.1334847,0
9743665087,Sonnenblumen,,,52.3941863,13.1339891,0
9768104388,,,,52.554139,13.3799859,01401045
9768162852,,,,52.4956583,13.3139196,04501043
9768163225,,,,52.5508602,13.3744871,01401044
9768175441,,,,52.4858605,13.3143116,04501146
9769205404,,,,52.4916116,13.4257553,08100310
9775473611,,,,52.5179801,13.368404,01100102
9775497704,,,,52.5188522,13.3684263,01100102
9775501204,,,,52.5190901,13.3686881,01100102
9775503531,Große Knospe III/63,,,52.518631,13.3684742,01100102
9775509753,,,,52.5192116,13.3688482,01100102
9775512189,,,,52.5182766,13.3688817,01100102
9775528052,,,,52.518512,13.3688689,01100102
9775529266,,,,52.518212,13.3680559,01100102
9775530331,Steinskulptur,,,52.5186229,13.3690401,01100102
9775536511,Todes Mauer Bruch,,,52.5185434,13.3680511,01100102
9775538466,Himmelschlüssel,,,52.518273,13.3686804,01100102
9775542858,,,,52.5183249,13.3682997,01100102
9775666039,Adam und Eva,,,52.5394023,13.4137711,03701555
9775666040,,,,52.5393796,13.4137711,03701555
9779465803,Augen in der Großstadt,,,52.5150258,13.4497529,02400624
9779616461,,,,52.5182162,13.3681283,01100102
9779616462,,,,52.5184034,13.3682061,01100102
9785842272,Kinder mit Katze,,,52.5238256,13.346492,01200626
9799370475,,,,52.5184048,13.3683849,01100102
9801466645,Palmengiebel Hotel Seehof,,,52.5073492,13.2886318,04300415
9808087368,Winzerin,,,52.4798377,13.3282957,04501153
9816582354,,,,52.5882842,13.2747835,12200515
9816591350,,,,52.5279679,13.3991171,01100309
9816602433,,,,52.553194,13.3862597,01300733
9816603219,,,,52.5114569,13.2661355,04200310
9821732848,Buddy Bear Magentinho,,,52.5041163,13.333833,04501042
9835659648,,,,52.4739589,13.4381912,08100208
9835692402,,,,52.4739603,13.4384574,08100208
9835692431,,,,52.4737322,13.4382003,08100208
9839822430,Double Cage Piece,,,52.5291025,13.3712505,01200624
9843589985,Fischerjunge,,,52.513737,13.4781241,11300722
9846271726,,,,52.5110554,13.4592995,02500833
9846271727,,,,52.5110832,13.459138,02500833
9849287459,Sonne,,,52.450768,13.2505605,06400840
9858724289,,,,52.4808028,13.4048769,07400721
9864554608,,,,52.5631113,13.3720181,12100101
9864598261,Reihergruppe,,,52.523276,13.3979596,01100309
9869125873,,,,52.4988689,13.3558909,07100103
9870171197,Bremer Stadtmusikanten,,,52.5000073,13.5065119,11401136
9894020537,,,,52.5667678,13.5245588,11100203
9898462586,,,,52.5617738,13.5695207,10100103
9898462587,,,,52.5617787,13.5699432,10100104
9898462588,,,,52.5626877,13.5705399,10100104
9902389377,SPLASH,,,52.5263383,13.3855424,01100308
9904005486,Genesung,,,52.5262913,13.3797517,01100308
9904944805,,,,52.567854,13.5354345,11100203
9904944806,,,,52.5678777,13.5353748,11100203
9904999018,,,,52.5670091,13.5431948,11100102
9904999019,,,,52.5670992,13.5432981,11100102
9910231861,Schwebendes Paar,,,52.3762706,13.1303162,0
9910692667,Der Kopf,,,52.5057469,13.3814348,02100101
9912647202,,,,52.5489673,13.4221667,03601244
9918961550,,,,52.5648199,13.7279586,0
9925239173,Mutter mit Kind,,,52.5180381,13.477805,11300722
9934395657,Engel,,,52.4870218,13.405635,02200211
9941751498,,,,52.4187503,13.1532,06400735
9949636687,,,,52.4332856,13.1653165,06400735
9950072152,Buddy Bear,,,52.4997779,13.3228372,04501044
9965565711,Paar Torso,,,52.5481259,13.5578555,10100208
9981392318,,,,52.5182891,13.3515958,01100102
9981621314,Mutter und Kind,,,52.5298546,13.5404608,10100312
9981770956,Mutter und Kind,,,52.5294671,13.539041,10100312
9981771061,,,,52.5274601,13.5396199,10100312
9981771062,,,,52.5275111,13.5394458,10100312
9981771063,,,,52.5274887,13.5394065,10100312
9981771064,,,,52.5274362,13.5396758,10100312
9983230956,Sitzende,,,52.5361974,13.5522159,10100314
9983230961,Mutter mit Kind,,,52.5367796,13.5527313,10100314
9983262193,"Brunnen ""Berliner Stadtlandschaft""",,,52.5428811,13.5589909,10100313
9983930836,Engel,,,52.4042489,13.1102927,0
9987765917,,,,52.528028,13.4261729,02400520
9987765918,,,,52.52798,13.4261612,02400520
9987821414,Disco-Bär,,,52.4745016,13.4605718,08100520
9988890381,Leierkastenmann,,,52.5172591,13.4060029,01100310
9988962779,,,,52.5441001,13.2664415,05300839
9988975920,,,,52.5440792,13.2663508,05300839
9988977350,,,,52.497271,13.311421,04501043
9990797132,Löwe mit zwei Jungtieren,,,52.5339619,13.4183358,03701556
9991339888,Pelikanpärchen,,,52.5240722,13.2605701,04200308
9992166298,Stehendes Mädchen,,,52.5301361,13.5399363,10100312
9992564707,,,,52.5334039,13.417902,03701556
9994533746,Ruhendes Mädchen,,,52.4335223,13.2591855,06300526
9994971965,Die Würde und Schönheit freier Menschen,,,52.5186985,13.4046601,01100310
9994971966,,,,52.5183672,13.4048934,01100310
9994971967,,,,52.5184572,13.4047159,01100310
9994971968,,,,52.5185973,13.404538,01100310
9999046527,Ballspieler,,,52.4465082,13.2526966,06400840
10000479362,,,,52.4885045,13.3014709,04500939
10000479373,,,,52.4909136,13.3047455,04500939
10000479374,,,,52.4907784,13.3047902,04500939
10001289354,Spreewalddorf / Bahnhof Goyatz,,,52.4677285,13.5270901,09200512
10001315676,,,,52.5123683,13.259609,04200310
10001410304,Bär,,,52.4962605,13.5357725,11501340
10002878324,Der Schlüssel,,,52.4995488,13.3136482,04501043
10016857951,,,,52.5729965,13.364639,12100103
10033375258,Liegende,,,52.5292901,13.5396014,10100312
10038588909,,,,52.4855608,13.3385762,07200308
10038850411,Seelöwe,,,52.555461,13.4612495,03500933
10039085354,Artistinnen,,,52.4224945,13.2544957,06300528
10044546225,Le Pont De La Fraternité,,,52.6716141,13.2761536,0
10048567653,,,,52.4965641,13.4242119,02300417
10050528126,Looping,,,52.5036887,13.2777615,04200311
10053038407,Wolf und Storch,,,52.5520049,13.4205608,03601243
10068640208,,,,52.5132025,13.4144755,01100312
10089397725,Weinberg Gottes,,,52.4943769,13.308883,04500939
10092599301,Himmelsblume,,,52.5026199,13.3741258,02200207
10110061473,,,,52.5380418,13.2698826,05300841
10110061487,,,,52.5378607,13.2701732,05300841
10111372956,Wilhelm Griesinger,,,52.5261928,13.3762039,01100308
10130037761,Stehender Knabe,,,52.5378883,13.4309397,03701657
10132455019,Kreuzberg,,,52.4979041,13.4128918,02100106
10148496555,,,,52.3654904,13.508553,0
10151637509,,,,52.3646009,13.1306889,0
10155550161,,,,52.515821,13.6674911,0
10162314918,Statue of Liberty,,,52.5281656,13.3726614,01200624
10182829358,Liebespaar,,,52.5209057,13.5922433,10200630
10186284236,Hall of Fame,,,52.4314284,13.349391,06200315
10201040333,Schreitende,,,52.524581,13.543344,10100312
10203480453,Dynamischer Körper,,,52.5261468,13.5166288,11300721
10257638948,Weltbaum 2,,,52.5052811,13.3184192,04300624
10291756911,Milchmädchen,,,52.4467194,13.4392893,08200726
10296375052,Echinacea,,,52.5677102,13.5457693,10100101
10553907089,Älteres Paar,,,52.4409121,13.6895172,09501838
10556780603,,,,52.4852101,13.4782811,09100101
10556780606,,,,52.4846913,13.4776448,09100101
10556780607,,,,52.4849301,13.4780087,09100101
10613007553,,,,52.4612337,13.332426,06100209
10623971027,Waffen,,,52.5242637,13.3575012,01200627
10659711621,,,,52.4474017,13.4392811,08200726
10659711623,,,,52.4470405,13.4394102,08200726
10659711633,,,,52.4464101,13.4378484,08200726
10680286920,Max-Taut Schriftzug,,,52.5009687,13.4875026,11400928
10691064468,,,,52.5401284,13.3401014,01400938
10691064469,,,,52.5401149,13.340082,01400938
10692092481,Das korinthische Kapitell,,,52.6358078,13.301643,12400721
10693499676,,,,52.5089527,13.2609799,04200310
10693506185,,,,52.5090255,13.2617058,04200310
10731023028,Buddy Bear,,,52.4448961,13.5744779,09401534
10734862690,Bär auf Kugel,,,52.6361041,13.2901995,12400721
10736823139,Sandmännchen,,,52.4790537,13.6041197,10400941
10741232115,Albert Beltran,Scharnweberstraße 126,13405,52.5646626,13.323335,12200309
10755134367,Bremer Stadtmusikanten,,,52.5764773,13.507448,11100206
10755165316,Storchenpaar,,,52.5752663,13.514501,11100101
10799152880,Gärtnerbursche,,,52.4568374,13.5198167,09200613
10812622172,,,,52.5100114,13.2549759,04200205
10812624215,,,,52.5100317,13.2549035,04200205
10834438255,,,,52.5115564,13.4267882,02400623
10834438256,,,,52.5117496,13.426466,02400623
10834454445,Butterfly,,,52.5092741,13.4650504,02500833
10834469812,,,,52.5114994,13.4269596,02400623
10858291049,,,,52.4136611,13.0959978,06400735
10858291050,,,,52.4136494,13.0959703,06400735
10858291067,,,,52.4135565,13.0957185,06400735
10858291070,,,,52.4135697,13.0955933,06400735
10858291071,,,,52.4135555,13.0955557,06400735
10858291074,,,,52.4134813,13.0955192,06400735
10867256731,Knabenbrunnen,,,52.4140836,13.0936459,06400735
10867256732,Säulentrümmer,,,52.4140034,13.0932355,06400735
10867256734,Laitière,,,52.4137204,13.0945417,06400735
10873869376,Betender Knabe,,,52.4146541,13.0932556,06400735
10879229807,Artemis,,,52.414841,13.0933709,06400735
10879663200,Brunnenstele,,,52.597274,13.3600592,12601133
10880725101,,,,52.5171368,13.3874566,01100206
10881717986,,,,52.4768932,13.356363,07300619
10882938970,Sanchi-Tor,,,52.5182404,13.401606,01100206
10896069657,,,,52.5282057,13.4266989,02400520
10905060062,Träumende,,,52.5522451,13.5840844,10100207
10915900145,Chimpanzee,,,52.5014342,13.5302893,11401034
10915901247,,,,52.4835626,13.4731294,09100101
10919372809,Johann Sebastian Bach,,,52.4650233,13.4844274,09100304
10919372810,Blue Note,,,52.4651716,13.4841285,09100304
10923691738,Stärke,,,52.5168133,13.4004151,01100206
10923691739,Mäßigung,,,52.5167574,13.4004805,01100206
10923691740,Gerechtigkeit,,,52.5166765,13.4005772,01100206
10923691741,Weisheit,,,52.5166213,13.4006442,01100206
10923691742,Elias,,,52.5166345,13.4006696,01100206
10923691743,Moses,,,52.5168248,13.400437,01100206
10923734006,Borussia,,,52.5177018,13.4022048,01100206
10923734007,Apollo,,,52.5176775,13.4021961,01100206
10923734008,Jupiter,,,52.5176385,13.4022443,01100206
10923734009,Antinoos,,,52.5175976,13.4022907,01100206
10923734010,Meleager,,,52.5175509,13.4023447,01100206
10923734011,Herkules,,,52.5175115,13.4023932,01100206
10923734012,Hermes,,,52.5174742,13.4024364,01100206
10923734013,Pax,,,52.5174714,13.4024842,01100206
10923734014,Sapientia,,,52.5171411,13.402362,01100206
10923734015,Fleiß,,,52.517153,13.4023934,01100206
10923734016,Prudentia,,,52.5171852,13.4024642,01100206
10923734017,Concordia,,,52.5172004,13.4024971,01100206
10923744002,Susanna,,,52.5176514,13.4017687,01100206
10923744003,Victoria,,,52.5176642,13.4017993,01100206
10923744004,Justitia,,,52.5176939,13.401866,01100206
10923744005,Flora,,,52.5177046,13.4018915,01100206
10929364142,Seidenraupenkokons,,,52.4511196,13.6243369,09501737
10930029481,,,,52.5193189,13.4010617,01100206
10930029482,,,,52.5192424,13.4008662,01100206
10930029483,,,,52.5191008,13.4008202,01100206
10930029484,,,,52.5189818,13.4009449,01100206
10930029485,,,,52.5189533,13.4011688,01100206
10930029486,,,,52.5190282,13.4013705,01100206
10930029487,,,,52.5191687,13.401413,01100206
10930029488,,,,52.5192855,13.4012874,01100206
10930125413,,,,52.5188485,13.4007386,01100206
10930125414,,,,52.519046,13.4005319,01100206
10930125415,,,,52.518982,13.4007176,01100206
10934440457,Steinbock,,,52.507841,13.5343506,11401034
10955728508,Yolanda,,,52.4955426,13.3317419,04501045
10959540457,,,,52.4870823,13.3100308,04501146
10959540458,,,,52.4870225,13.310028,04501146
10959540459,,,,52.4870258,13.3098196,04501146
10959540460,,,,52.4870855,13.3098201,04501146
10960704742,,,,52.5434101,13.6119994,10200423
10960704743,,,,52.5433912,13.6120249,10200423
10960704744,,,,52.5433852,13.6119862,10200422
10961291875,,,,52.4912477,13.2836068,04400726
10962234632,Liegendes Paar,,,52.5401861,13.4098446,03701554
10969355755,,,,52.4074119,13.0934373,0
10969364847,,,,52.4073919,13.0933681,0
10974505965,,,,52.4074359,13.0934935,0
10974505966,,,,52.407425,13.0934567,0
10976816026,,,,52.5100388,13.3275392,04300622
10976816056,,,,52.5099495,13.3278094,04300622
10977214292,Komposition mit Wolken,,,52.569616,13.5725967,10100102
10978921405,Kleines Paar,,,52.5699348,13.5681725,10100102
10978938701,Welt von morgen,,,52.5663966,13.5792545,10100104
10980529713,Barmherziger Samariter,,,52.430088,13.2890758,06300632
10981493064,,,,52.6607001,13.2599517,0
10982715613,King Kong,,,52.3866685,13.1169394,0
10982715614,Emma & Bahnhof-Lummerland,,,52.3868809,13.116921,0
10982715619,Maria,,,52.3877749,13.1174188,0
10982715620,Karl Marx & Friedrich Engels,,,52.3875716,13.1173632,0
10982715621,Monument,,,52.3875094,13.1173535,0
10982715622,Frau Mahlzahn,,,52.3868547,13.1171732,0
10982715623,König der Toten,,,52.3871243,13.117248,0
10982855675,Der Goldene Löwe,,,52.3861979,13.1169952,0
10984337020,Sandmann,,,52.3870493,13.1170676,0
10984562249,Asklepios,,,52.4147672,13.0929706,06400735
10995774313,Vater und Sohn,,,52.5578253,13.5666559,10100206
10995801467,Die Geschlagene,,,52.5466339,13.55604,10100210
11003281734,,,,52.519751,13.4605887,02500727
11004092208,Das Ofenrohr,,,52.5665721,13.5674904,10100103
11008692157,Felix-Mendelssohn-Bartholdy-Stein,,,52.5035794,13.3758345,02100101
11008698204,Orpheus,,,52.5103659,13.3701921,01100102
11018068460,Das Ei,,,52.5462189,13.5565738,10100210
11018631637,Arbeit für das Glück des Menschen,,,52.5453083,13.5521008,10100210
11018701590,Frieden,,,52.5458201,13.5543273,10100210
11033078340,,,,52.4329746,13.1659272,06400735
11034754049,Pinguine,,,52.5187096,13.4777738,11300722
11034829253,,,,52.5175037,13.477527,11300722
11048321422,Dionysos,,,52.5102165,13.2501909,04200205
11048331201,Mars und Venus,,,52.5085873,13.2508113,04200205
11056818220,,,,52.6238488,13.4953495,03100103
11057105834,Kinetische Skulptur,,,52.4768699,13.3415074,07300517
11061610412,Niemand ist vergessen,,,52.5101225,13.4979349,11300826
11083553625,Lichtschleife mit Datumsgrenze,,,52.5204985,13.3740503,01100102
11091112819,Modern Family,,,52.5304408,13.5433351,10100312
11091253120,,,,52.5465088,13.5906354,10200417
11091253169,Boogie Down Berlin,,,52.5474596,13.5898894,10200417
11091253644,,,,52.5469926,13.5908118,10200417
11091253660,1UP,,,52.5327408,13.5377998,10100312
11091261881,The Dream,,,52.548096,13.5901234,10200417
11091265743,,,,52.5327482,13.5387661,10100312
11091283574,Zuhause ist wo das Herz ist,,,52.5326998,13.5389462,10100312
11134159062,Sitzende Figur,,,52.5177563,13.6094978,10400835
11141672554,Stehender Jüngling,,,52.5068575,13.5936039,10400836
11141817004,Folded Square Alphabet U,,,52.5056091,13.5937837,10400836
11141884311,Mutter mit Kind,,,52.5067801,13.5927438,10400836
11141887401,Kunst am Bau in der DDR,,,52.505536,13.593462,10400836
11148408489,Pelikane,,,52.5062327,13.3390708,01100102
11148418919,Löwe,,,52.5071373,13.3414269,01100102
11148418940,Rothirsch,,,52.508042,13.3376108,01100102
11148418953,,,,52.5087816,13.3364993,01100102
11148418962,Orje,,,52.5076578,13.3346845,01100102
11148418998,Geierperlhühner,,,52.5076986,13.3366421,01100102
11148694546,Mädchen mit Katzen,,,52.5423262,13.4420381,03601449
11148694552,Lesender Knabe,,,52.5500584,13.4312453,03601245
11148701824,Till Eulenspiegel,,,52.5537803,13.4760412,03501037
11153409947,,,,52.5644657,13.5043458,11100308
11153409948,,,,52.5644876,13.5043258,11100308
11153409949,,,,52.5644674,13.5043003,11100308
11153701958,Sich umarmendes Paar,,,52.5539434,13.4733737,03501037
11153712703,Sich Sonnende,,,52.5539744,13.4724493,03501037
11165494668,Elefantenmutter,,,52.5156153,13.4341542,02400623
11167025582,Tor zum Prenzlauer Berg,,,52.5286102,13.4176217,03701659
11167572060,Europa vom Prenzelberg,,,52.5355289,13.4248282,03701658
11179214253,Mädchen mit Ball,,,52.517997,13.4764791,11300722
11179217620,Mädchen,,,52.5188785,13.4786631,11300722
11179228542,Seelöwe,,,52.5182857,13.4757835,11300722
11179296823,Seelöwe,,,52.5182976,13.4759818,11300722
11179614647,Lichtenberg,,,52.5117504,13.4891793,11300826
11180800376,Paar,,,52.5297499,13.4552552,03601450
11180895872,Spielende,,,52.5028731,13.4558387,02500835
11184254100,,,,52.4695734,13.3075129,04400833
11185451034,,,,52.4611493,13.160241,05400942
11191195033,Mecklenburgische Bäuerin,,,52.5750895,13.5118721,11100206
11196726618,Why I Bear,,,52.5343717,13.4041265,01100416
11197923242,Künstliche Natur,,,52.5243827,13.3594733,01200627
11205429032,Skulptur Liebe (Gewächs),,,52.526832,13.3607732,01200627
11223029772,Windspiel,,,52.5452953,13.5568834,10100210
11224954788,"Turm, Wetterhahn und Windrose",,,52.5248587,13.5806274,10200629
11226691880,Kuh und Reiter,,,52.5160151,13.5829022,10200629
11229704280,Erwachender,,,52.5294155,13.5399902,10100312
11229717950,Poet und Muse,,,52.5309414,13.5393939,10100312
11229718015,Plastische Körper – Große Blüten,,,52.5299181,13.5443711,10100312
11229737670,Familie,,,52.5307892,13.5406918,10100312
11229746304,Orpheus und Eurydike,,,52.5297295,13.5397671,10100312
11234081970,Uhu,,,52.5211318,13.5834119,10200629
11234112809,Familie und Natur,,,52.5465678,13.5580721,10100210
11234153614,Jugend und Sport,,,52.5460594,13.5511797,10100210
11234155963,Sitzlandschaft,,,52.5459942,13.5514484,10100210
11235783264,Lehrflug,,,52.5215438,13.3401085,01200629
11235909931,Fuck Walls,,,52.5036712,13.3618363,01100103
11237868226,Windspiel,,,52.5652844,13.5234971,11100204
11237877264,Aufbruch in neue Welten,,,52.566693,13.5164813,11100204
11237935064,Mann und Frau,,,52.5668624,13.5307433,11100203
11238293622,Backofen,,,52.5730441,13.4967994,11100307
11238329667,Stühle Assemblage,,,52.5655612,13.4989236,11100308
11238657204,Märkische Dorfszenen,,,52.5407819,13.5649072,10100315
11241783251,Kniende Frauen,,,52.5233753,13.5434868,10100312
11241817841,Polis,,,52.5498285,13.5490161,10100210
11242048497,Echo I,,,52.5093152,13.3683384,01100102
11242065313,Echo II,,,52.5090188,13.368675,01100102
11242074687,Altar,,,52.5082463,13.3676306,01100102
11242113890,Tor auf dem Karlsbad,,,52.5055913,13.3687,01100104
11243176279,Pferdekopf,,,52.5069551,13.3692277,01100102
11243884196,Mauerwerksskulptur,,,52.5386802,13.6077226,10200421
11244426131,Getrennt-Zusammen I,,,52.4225119,13.4729978,08301036
11246991644,Skulptur,,,52.5131004,13.4778642,11300826
11246991660,,,,52.5107985,13.5013998,11400931
11246991661,,,,52.5108232,13.5012192,11400931
11246991665,,,,52.5109317,13.5005241,11400929
11246991666,,,,52.5110205,13.5006769,11401032
11246991667,,,,52.5111118,13.5008341,11401032
11246991668,,,,52.5112088,13.5009871,11401032
11246991669,,,,52.5107508,13.4996951,11400929
11246991670,,,,52.5107492,13.4996402,11400929
11246991671,,,,52.5105953,13.499542,11400929
11246991672,,,,52.5105778,13.4995837,11400929
11246991673,,,,52.5106559,13.4996853,11400929
11246991674,,,,52.5110316,13.4998211,11400929
11246991675,,,,52.5110081,13.5000476,11400929
11246991676,,,,52.5109859,13.5002481,11400929
11246991677,,,,52.5109278,13.5004386,11400929
11246991678,,,,52.5111647,13.5014844,11401032
11246991679,,,,52.5108906,13.5009951,11400931
11246991680,,,,52.5109552,13.5011103,11401032
11246991681,,,,52.5110433,13.5012676,11401032
11246991686,,,,52.5112766,13.5010064,11401032
11246991687,Nicaraguanisches Dorf – Monimbó 1978,,,52.5117128,13.5017465,11401032
11246991688,,,,52.5105779,13.5038987,11400931
11246991689,,,,52.5105553,13.5037756,11400931
11246991690,,,,52.5105532,13.5038174,11400931
11246991691,,,,52.5105116,13.5038596,11400931
11246991692,,,,52.5104626,13.5039077,11400931
11246991693,,,,52.5103462,13.5039134,11400931
11246991694,,,,52.5104534,13.5038324,11400931
11246991695,,,,52.5104557,13.5037325,11400931
11246991696,Rauch dein Obst,,,52.5102567,13.5080665,11400931
11246991697,,,,52.5101015,13.5106695,11400931
11247029687,50 Jahre Wohnungsbaugenossenschaft,,,52.504288,13.5110295,11400930
11247029688,,,,52.5025599,13.510029,11401136
11247029689,,,,52.5017446,13.5089351,11401136
11247029690,,,,52.5017565,13.5088675,11401136
11247029691,,,,52.5017761,13.508766,11401136
11247029692,,,,52.5017868,13.5087541,11401136
11247029693,,,,52.5018162,13.5085858,11401136
11247029694,,,,52.501702,13.5089244,11401136
11247029695,,,,52.497621,13.506808,11401136
11247029696,,,,52.4976625,13.506792,11401136
11247029706,,,,52.5024091,13.4812117,11400928
11247029707,,,,52.5024397,13.4812046,11400928
11247029708,,,,52.502465,13.4811984,11400928
11247029709,,,,52.5024915,13.4811927,11400928
11247029711,,,,52.5020525,13.4804282,11400928
11247029734,,,,52.5041078,13.4822455,11400927
11247145886,Lichtblick,,,52.5173258,13.4389275,02400521
11247145888,,,,52.52139,13.4165517,01100311
11247145890,,,,52.5212763,13.4162509,01100311
11247145892,,,,52.5210745,13.4161445,01100311
11247145893,Der Mensch überwindet Zeit und Raum,,,52.5228402,13.4167776,01100310
11247145894,,,,52.5210653,13.4154896,01100310
11247145906,,,,52.5201943,13.4149796,01100311
11248322864,,,,52.518492,13.4022902,01100206
11248322867,Herkules Musagetes,,,52.5169193,13.3768256,01100102
11248322883,HKW,,,52.5182985,13.3652886,01100102
11248859715,Georgia,,,52.5093268,13.3462991,01100102
11248859716,,,,52.5084882,13.3461256,01100101
11249044000,Mittagsgespenst,,,52.5266476,13.5085586,11300721
11249087141,,,,52.5048002,13.3353286,04501042
11249087142,,,,52.5047421,13.3353135,04501042
11249087143,Knabe mit Ziege,,,52.5062523,13.3225337,04300624
11249087144,Knabe mit Ziege,,,52.5062597,13.3223996,04300624
11249087145,,,,52.5046613,13.321804,04501041
11249087146,,,,52.4940973,13.3409877,07200307
11249087207,,,,52.4970099,13.3646549,07100205
11249087208,,,,52.4970885,13.3642712,07100205
11249087213,,,,52.5003569,13.3754456,02200207
11249087224,,,,52.4985035,13.3830547,02200208
11249087225,,,,52.4984371,13.3828619,02200208
11249087226,,,,52.4985168,13.3825545,02200208
11249087227,,,,52.4984949,13.3827777,02200208
11249087228,,,,52.4984786,13.3829894,02200208
11249087230,,,,52.4982431,13.4060486,02100106
11249087231,,,,52.4982607,13.4062033,02100106
11249087232,,,,52.4981134,13.4062471,02100106
11249087233,,,,52.4985899,13.4167587,02100106
11249087234,,,,52.4984875,13.4167198,02100106
11249087235,,,,52.4984291,13.4167837,02100106
11249087236,,,,52.4984491,13.4166055,02100106
11249094037,,,,52.4984212,13.4166104,02100106
11249094038,,,,52.4981827,13.4169468,02100106
11249094039,,,,52.4981151,13.4172077,02100106
11249094040,,,,52.510173,13.4552812,02500833
11249247974,,,,52.5214437,13.3326958,01200522
11249248015,,,,52.5144719,13.3172426,04300622
11249248016,,,,52.5168588,13.3092614,04300619
11249248017,,,,52.5176913,13.3050606,04300621
11249248018,,,,52.5177197,13.304977,04300621
11249248020,,,,52.5207226,13.2979018,04300412
11249404953,,,,52.5214375,13.2962896,04300412
11249404954,,,,52.5213616,13.2949678,04300412
11249404955,,,,52.5236474,13.2955973,04300412
11249404956,,,,52.5236066,13.2949345,04300412
11249404957,,,,52.5236161,13.2959343,04300412
11249404958,,,,52.5235368,13.2946178,04300412
11250830793,Märkische Wegekreuze,,,52.4965208,13.5184615,11401137
11255034743,,,,52.522786,13.3278313,04300620
11255842337,Vier Bären,,,52.521948,13.3483626,01200626
11255842338,Vier Bären,,,52.5213207,13.348235,01200629
11255842339,Vier Bären,,,52.5214214,13.3479819,01200629
11255983909,Berlin-WELCOME-Bear,,,52.5240415,13.3693921,01200628
11257213161,KARA,Perleberger Straße 59,10559,52.5326481,13.3513118,01200623
11258127575,,,,52.5319367,13.4216027,03701659
11261182167,,,,52.5204922,13.4051552,01100310
11261182174,,,,52.5113819,13.427157,02400623
11261182175,,,,52.5113868,13.4270629,02400623
11261182176,,,,52.5112496,13.4269043,02400623
11261182177,,,,52.5114556,13.4266431,02400623
11261182178,,,,52.5116259,13.4263674,02400623
11261182179,,,,52.5115925,13.4259868,02400623
11261182180,,,,52.5111817,13.4268775,02400623
11261182181,,,,52.5111661,13.4270169,02400623
11261182183,,,,52.5098225,13.4305264,02400623
11261182191,,,,52.5095902,13.4302702,02400623
11261182192,,,,52.509443,13.4303346,02400623
11261182193,,,,52.5094096,13.4302937,02400623
11261182194,,,,52.5094702,13.4304001,02400623
11261182196,,,,52.509452,13.4304728,02400623
11261182197,,,,52.5094717,13.430522,02400623
11261182198,,,,52.50947,13.4305713,02400623
11261182199,,,,52.5094254,13.4306663,02400623
11261182200,,,,52.5093851,13.4307567,02400623
11261182201,Go Forth,,,52.5091663,13.4312518,02400623
11261182202,,,,52.5092089,13.4310446,02400623
11261182206,,,,52.5092102,13.4312312,02400623
11261182207,,,,52.509246,13.4311851,02400623
11261182208,,,,52.5092426,13.4312286,02400623
11261182209,,,,52.5092401,13.431146,02400623
11261182210,,,,52.5090483,13.4311002,02400623
11261182211,,,,52.5091575,13.4310763,02400623
11261628000,,,,52.5083665,13.4343958,02400623
11261628001,,,,52.5082031,13.4341847,02400623
11261628002,Der Geististwie die Spurender Vögelam Himmel,,,52.5083098,13.4345682,02400623
11261628003,Flucht,,,52.5082775,13.4346316,02400625
11261628004,Untitled,,,52.508254,13.4346796,02400625
11261628005,"Denk-Mal, Mahn-Mal",,,52.5082252,13.4347358,02400625
11261628006,Untitled,,,52.5082078,13.4347688,02400625
11261628007,Untitled,,,52.5081769,13.4348277,02400625
11261628008,Amnesty international in der DDR,,,52.5081207,13.4349357,02400625
11261628009,Apollo,,,52.5080665,13.4350406,02400625
11261628010,Qui baise qui,,,52.5080175,13.435135,02400625
11261628011,Ignasi Blanch Gisbert,,,52.5079872,13.4351973,02400625
11261628012,Flora geht,,,52.5079536,13.4352521,02400625
11261628013,Politik ist die Fortsetzung des Krieges mit anderen Mitteln,,,52.5079132,13.4353153,02400625
11261628014,CurriculumVitae,,,52.5078317,13.4354335,02400625
11261628015,DancingToFreedom,,,52.5077724,13.4355115,02400625
11261628016,Der müde Tod,,,52.5077011,13.4356048,02400625
11261628017,Untitled,,,52.5076073,13.4357219,02400625
11261628018,Niemandsland,,,52.5075651,13.4357752,02400625
11261628019,Lotus,,,52.5075181,13.4358365,02400625
11261628020,Der Morgen,,,52.5074563,13.4359163,02400625
11261628021,Untitled,,,52.5073986,13.4359899,02400625
11261628022,Doin it cool for the East Side,,,52.5072775,13.4361475,02400625
11261628023,Es geschah im November,,,52.5071735,13.4362774,02400625
11261628025,Tolerance,,,52.5078768,13.4353731,02400625
11261628031,You can see infinity,,,52.5071237,13.4363403,02400625
11261628033,"Wir haben versucht, Farben über die Mauer hinübergelangen zu lassen",,,52.5070719,13.4364039,02400625
11261628034,Mauerdurchbruch,,,52.5070252,13.4364624,02400625
11261628035,Untitled,,,52.5069758,13.4365247,02400625
11261628036,"Sag, welche wunderbaren Träume halten meinen Sinn umfangen",,,52.5069356,13.436575,02400625
11261632437,Wasserfall,,,52.5068795,13.4366504,02400625
11261632438,Waiting for a new Prometheus,,,52.5068294,13.4367178,02400625
11261632439,Joint Venture,,,52.5067722,13.436792,02400625
11261632440,Himmel und Sucher,,,52.5067191,13.4368601,02400625
11261632441,Test the Rest,,,52.5066618,13.4369313,02400625
11261632442,Vorsicht,,,52.5066123,13.4369926,02400625
11261632443,Touch the Wall,,,52.5065504,13.4370702,02400625
11261632444,La Buerlinica,,,52.5064444,13.4372021,02400625
11261632445,Untitled,,,52.5063608,13.4373147,02400625
11261632446,Untitled,,,52.5063233,13.4373652,02400625
11261632447,Hommage an die junge Generation,,,52.506182,13.4375531,02400625
11261632448,Es gilt viele Mauern abzubauen,,,52.5060491,13.4377386,02400625
11261632449,Der Blitz,,,52.5059934,13.437816,02400625
11261632450,Justitia,,,52.5059086,13.4379405,02400625
11261632451,Jay,,,52.5058553,13.4380227,02400625
11261632452,The Wall,,,52.5058088,13.4380973,02400625
11261632453,Die Tanzenden,,,52.5057597,13.4381793,02400625
11261632454,"Wer will, dass die Welt…",,,52.5057032,13.4382755,02400625
11261632455,Stadtmenschen,,,52.5056497,13.4383661,02400625
11261632456,Berlin bei Nacht,,,52.5055815,13.4384798,02400625
11261632457,Einfahrt Tag und Nacht freihalten,,,52.5055189,13.4385884,02400625
11261632458,Götterdämmerung,,,52.5054301,13.4387578,02400625
11261632459,Dawn of Peace,,,52.5053053,13.4390147,02400625
11261632460,Hier und Dort,,,52.5052442,13.4391437,02400625
11261632466,Mauerspringer,,,52.5052041,13.4392302,02400625
11261632467,Geist-Reise,,,52.5051514,13.4393499,02400625
11261632468,Je me souviens,,,52.5051126,13.4394371,02400625
11261632469,Die Beständigkeit der Ignoranz,,,52.5050581,13.4395658,02400625
11261632470,Umleitung in den japanischen Sektor,,,52.5049728,13.4397743,02400625
11261632471,Vergesst mir die Liebe nicht,,,52.5048888,13.4399853,02400625
11261632472,Sonic Malade,,,52.5048358,13.4401266,02400625
11261632473,O povo unido nunca mais será veicido,,,52.5048034,13.4402075,02400625
11261632474,"Paix, Amour-Sagesse",,,52.5047654,13.4403068,02400625
11261632475,Stay Free,,,52.5047241,13.4404142,02400625
11261632476,Die Geburt des Kachinas,,,52.504649,13.440611,02400625
11261632477,Worlds People – Wir sind ein Volk,,,52.5045062,13.4409898,02400625
11261632478,Vogelflug,,,52.5043714,13.4413448,02400625
11261632479,"Danke, Andrej Sacharov",,,52.5043311,13.4414541,02400625
11261632483,Hands,,,52.5066889,13.4368984,02400625
11261632484,Himlen over Berlin,,,52.5065465,13.4365205,02400625
11262689025,Pottiens persönliches Eigentum,,,52.5041177,13.4420534,02400625
11262689026,BERLYN,,,52.5040529,13.4422355,02400625
11262689027,How’s God? She‘s black,,,52.5040209,13.4423249,02400625
11262689028,Wachsen lassen,,,52.5039738,13.4424573,02400625
11262689029,Alles offen,,,52.5039433,13.4425422,02400625
11262689030,Diagonale Lösung des Problems,,,52.5039257,13.4425917,02400625
11262689031,Mauern International,,,52.5039022,13.4426576,02400625
11262689033,Marionetten eines abgesetzten Stücks,,,52.5038807,13.4427182,02400625
11262689034,"Die Wand muss weichen, wenn der Meteorit der Liebe kommt",,,52.5038134,13.4429049,02400625
11262689035,Europas Frühling,,,52.503775,13.4430136,02400625
11262689036,The Big Kremlin’s Wind,,,52.5037244,13.4431546,02400625
11262731837,Untitled,,,52.5036787,13.4432831,02400625
11262731838,Soli Deo Gloria,,,52.503651,13.4433605,02400625
11262731839,Untitled,,,52.5034852,13.4438318,02400625
11262731840,Untitled,,,52.5034435,13.4439484,02400625
11262731841,Untitled,,,52.5034013,13.4440695,02400625
11262731842,Untitled,,,52.5033727,13.4441512,02400625
11262731843,Willkommen,,,52.5033522,13.444211,02400625
11262731844,,,,52.503274,13.4443624,02400625
11262731845,Frieden für Alles,,,52.5032157,13.444596,02400625
11262731846,Gemischte Gefühle,,,52.5031809,13.4446929,02400625
11262731847,Space Magik,,,52.5031592,13.4447548,02400625
11262731848,,,,52.5031799,13.4446719,02400625
11262731849,,,,52.5031189,13.4448689,02400625
11262731850,Pneumohumanoiden,,,52.5030723,13.445009,02400625
11262731851,Uhrmenschen der Computer,,,52.5030223,13.4451616,02400625
11262731852,Vaterland,,,52.5029215,13.445474,02400625
11262731853,Hymne an die Freude,,,52.5028145,13.4458232,02400625
11262731854,Die sieben Stufen der Erleuchtung,,,52.502767,13.4459977,02400625
11262731856,Freiheit fängt von innen an,,,52.504085,13.4421446,02400625
11262731860,Les Yeux Ouverts,,,52.5034625,13.4438941,02400625
11262731862,Untitled,,,52.5029657,13.4453367,02400625
11262731864,"Less Castles, More Jungle",,,52.5016028,13.4429739,02300316
11262731867,Die Masken,,,52.5044561,13.4408715,02400625
11262731870,Zeichen in der Reihe,,,52.5050533,13.4393108,02400625
11262731871,,,,52.5053658,13.4388712,02400625
11262731879,,,,52.5020409,13.4431636,02300316
11262731882,Signalkugel,,,52.5020823,13.4431486,02300316
11262731883,Zwei Bären,,,52.5023582,13.4420623,02300316
11262731884,Engeika,,,52.5031111,13.4391039,02300316
11262731885,"Greenpeace: ""In Memory Of Hiroshima And Nagasaki For A World Without Nuclear Weapons""",,,52.5040447,13.4354908,02300316
11262731886,,,,52.5056466,13.4325869,02300316
11262731887,,,,52.5056762,13.4326273,02300316
11262731888,,,,52.5058567,13.4323604,02300316
11262731889,,,,52.5059017,13.4324161,02300316
11262731891,,,,52.5386851,13.3538344,01200517
11267845618,fishing for diamonds,,,52.5270739,13.3878146,01100309
11272373730,Vegetative Plastik,,,52.4642474,13.3893954,07400927
11273067087,Caritas,,,52.5522232,13.4569298,03500933
11277139813,Polyhymnia,,,52.5586843,13.3443202,01400940
11279618877,13.4.1981,,,52.4808149,13.3553947,07200413
11282821201,A Wise Man,,,52.503872,13.4294006,02300316
11289635695,Wolf und Storch,,,52.5454031,13.4946159,11200512
11290291569,Gewachsen auf Beton,,,52.5520151,13.381437,01300836
11299435828,,,,52.4940807,13.3152711,04501043
11299448099,,,,52.4933322,13.3170104,04501043
11299501017,Stehendes Mädchen,,,52.4796327,13.2703354,04400729
11307840027,Weltall-Erde-Mensch,,,52.5405,13.5647058,10100315
11330527140,Erkenntnis,,,52.4987365,13.4006982,02100105
11331059113,,,,52.5132235,13.4151553,01100312
11341591559,Bürger im Widerstand,,,52.5114068,13.4820043,11300826
11350377512,,,,52.5438371,13.3780485,01300836
11359921923,Solidarität,,,52.465422,13.5459918,09200512
11362264201,Pelikangruppe,,,52.5080187,13.2701606,04200310
11375835878,Bring them home,,,52.5259355,13.3902007,01100309
11377699469,,,,52.5271882,13.3933689,01100309
11377880374,Peace Wall,,,52.5241365,13.399612,01100309
11380414886,Kletterturm und Throne,,,52.5288773,13.4191657,03701659
11382505511,Pankower Marktleben,,,52.5704677,13.4100813,03400723
11393503043,Keramiksäule,,,52.513264,13.1971237,05200634
11407491425,Der Schreitende,,,52.5048918,13.3700777,01100104
11418698088,Tanz,,,52.554607,13.5643807,10100208
11462822537,Suia,,,52.547735,13.4139352,03601346
11464490870,"""Der Ring"" von Norbert Radermacher",,,52.5059546,13.3679846,01100102
11491455444,,,,52.5174969,13.4486291,02400522
11493464326,SPD-Würfel,,,52.4995793,13.3885945,02100101
11494800642,,,,52.4519924,13.3513629,06100204
11494834536,,,,52.4473915,13.3569555,06100205
11494872356,,,,52.4461148,13.3586231,06100205
11510771098,Keramik-Elemente,,,52.5300932,13.5947044,10200628
11535170606,,,,52.5052986,13.4614137,02500834
11581706760,Torso eines Stürzenden,,,52.5472591,13.5566907,10100210
11581711623,Kind mit Pony,,,52.5175637,13.5844748,10200629
11581727320,Reiherpaar,,,52.5255591,13.5953202,10200628
11581944103,Luchse,,,52.4921799,13.5247206,11501339
11582043915,Gartenplastik mit Vogeltränke,,,52.5208247,13.5940173,10200630
11582069295,Berliner Haus,,,52.5180652,13.5668948,10300732
11582086564,Drei sitzende Frauen,,,52.5242976,13.5344314,10100311
11582088780,Marzahn-Nord (Skulptur),,,52.5308978,13.6163722,10200525
11582186425,Liegende,,,52.5551684,13.5778567,10100207
11582226256,Plastische Zeichen – Kakteen,,,52.5319021,13.5436629,10100312
11582226258,Raupen,,,52.5243804,13.5445708,10100312
11582234328,Eisenholzstämme,,,52.5291046,13.5934742,10200628
11582254000,Wegweiser,,,52.5631883,13.5739175,10100104
11582261758,Fliegenpilz,,,52.5669211,13.5717617,10100103
11582267022,Marzahner Geister,,,52.5635567,13.5742297,10100104
11582310547,Dryade - дриада,,,52.5685004,13.5598668,10100101
11582310548,Lebenslinien,,,52.5282116,13.5674346,10300732
11582343683,Sitzelemente Kugel,,,52.5367629,13.5398924,10100313
11582356994,Große Maskenbank,,,52.510553,13.564574,10300733
11582380615,Kugelbrunnen,,,52.5529782,13.5563035,10100208
11582401741,Schwarzwurzel,,,52.5690706,13.5576553,10100101
11582418900,Wasserlinien,,,52.5426378,13.5739812,10100316
11582438807,Eingangsgestaltung Tiermotive,,,52.5227709,13.5449958,10100312
11583703258,Reversed Dunk,,,52.5057684,13.4487177,02400625
11583734965,Brunnenskulptur,,,52.5520046,13.5624631,10100208
11583767983,Plastische Zeichen – Erdwürmer,,,52.5370529,13.5552654,10100314
11583789078,"Knabe, Fisch, Frosch",,,52.5649249,13.5732054,10100104
11584831860,Tropfen und Ringe,,,52.4977753,13.5209577,11401137
11585279664,Eine Frage der Haltung,,,52.5085501,13.519895,11401034
11591638879,,,,52.4977283,13.5210222,11401137
11591702136,Knotenpunkt,,,52.5083184,13.2794422,04200311
11622453292,Miami,,,52.4959326,13.3879473,02200208
11622889812,Weltkugel,,,52.4644807,13.4740974,08100521
11630028498,Volk Ding Zero,,,52.5282829,13.3722166,01200624
11634254021,Junges Paar,,,52.4930715,13.5059868,11401135
11639056687,,,,52.5288723,13.4030144,01100309
11648825123,No Tourist Area,,,52.5046425,13.4241474,02300314
11664813210,Großer Würfel,,,52.4617187,13.2942051,06400844
11691089581,"Wenn, dann …",,,52.4529811,13.2896854,06400843
11693763049,Blindes Mädchen mit Führhund,,,52.4557388,13.3151945,06100101
11694845941,Schäfer mit Hund und Schafen,,,52.5357991,13.4853074,11200514
11697773002,Tröpfelbrunnen,,,52.5240851,13.4825869,11300620
11700625589,Steinsofa mit Kissen,,,52.5653253,13.5017869,11100308
11700625590,Japanisches Tor,,,52.5774233,13.503702,11100206
11700625591,Ringstadien,,,52.5029436,13.4763676,11400927
11700625592,Sitzstein mit Tiermotiven,,,52.5500153,13.5075577,11200411
11701257945,Fruchtbringende Erde,,,52.56695,13.5273765,11100203
11701257946,Regentropfen,,,52.5663582,13.5007904,11100308
11701257947,Regenbogen,,,52.5657456,13.5014959,11100308
11701257948,Gräser im Wind,,,52.5669688,13.5000783,11100308
11701257949,Blick aus dem Fenster,,,52.4893013,13.5221402,11501339
11701257950,Eichenholzstele,,,52.5638315,13.5144295,11100309
11701472465,Landing Eagle,,,52.505251,13.526661,11401034
11701472466,Seelöwe auf einer Kugel,,,52.5051852,13.5287294,11401034
11701472467,Frau mit Lamm,,,52.5675047,13.5181712,11100204
11703614151,"""Zwei Gören""",,,52.3910769,13.214349,0
11724873088,,,,52.5655887,13.3947196,03400721
11724908465,Lifetime,,,52.565889,13.3898591,01300731
11745471273,,,,52.529391,13.345612,01200625
11745774397,HEIZEN,,,52.5518452,13.3749408,01401044
11747638676,not caring is no option,,,52.5412183,13.3677054,01300836
11765962771,Hockende,,,52.5107636,13.5640247,10300733
11771382251,,,,52.4559038,13.4047836,07400927
11773557406,,,,52.5201611,13.1722197,05200527
11773652036,Fredric Chopin,,,52.5244725,13.4009694,01100309
11778200665,,,,52.5123075,13.3264263,04300622
11778575154,Die Entwicklungsgeschichte der Rüsseltiere,,,52.5026977,13.5325005,11401034
11780139164,,,,52.4925078,13.3879596,02200211
11794882935,Beamter / Geschäftsmann,,,52.5243257,13.3470821,01200626
11795253859,Esc - Enter,,,52.5203011,13.3914357,01100206
11814782978,,,,52.5166706,13.400756,01100206
11814782979,,,,52.5167225,13.400877,01100206
11814782980,,,,52.5168196,13.4008922,01100206
11814782981,,,,52.5169013,13.4007977,01100206
11814782982,,,,52.5169198,13.4006422,01100206
11814782983,,,,52.5168617,13.4005172,01100206
11814782984,,,,52.5167688,13.4005047,01100206
11814782985,,,,52.5166884,13.4006051,01100206
11822029511,Himmel über Nöldnerplatz,,,52.5024538,13.4853931,11400928
11822172667,,,,52.4810216,13.3312856,04501153
11822172668,,,,52.4810787,13.3312814,04501153
11825700549,,,,52.537352,13.4062852,03701554
11825718030,,,,52.5365469,13.4066943,03701554
11825718031,,,,52.5364219,13.4066672,03701554
11828475773,Jakarta,,,52.534585,13.3653585,01200624
11828475774,Berlin,,,52.5341997,13.3657272,01200624
11829125162,,,,52.5128264,13.397433,01100207
11829154965,Sinnende,,,52.511048,13.4690389,02500832
11832963113,Die Unschuld,,,52.4903292,13.5135095,11501339
11837153604,Groß Glienicke klopft Stein II,,,52.4847706,13.1249379,0
11837239335,,,,52.4731813,13.4381379,08100208
11837387427,SpuSi,,,52.4687607,13.1082798,0
11870229870,Mäander,,,52.5387662,13.5642662,10100315
11876517029,,,,52.4545012,13.4731227,09100306
11918101318,,,,52.5335569,13.4628074,03601450
11930244334,Liegendes Pferd,,,52.5040401,13.3714555,01100104
11940013225,,,,52.6530845,13.4862109,03100101
11940056826,,,,52.6516132,13.4859892,03100101
11940083601,,,,52.6545343,13.4866103,03100101
11940092740,,,,52.6569746,13.4878658,03100101
11944043841,Puttengruppe mit zwei Hasen,,,52.5258696,13.3480808,01200626
11958358825,,,,52.4702674,13.4368198,08100208
11967834028,Beauty Teddy,,,52.5021784,13.3461059,07100101
11986923736,Löwe,,,52.5937402,13.4607068,03300514
11993486395,Zwei Schweine,,,52.6031761,13.3982483,03200204
11994690240,Panzernashorn,,,52.5087205,13.3354286,01100102
12028991900,Café Moskau,,,52.5197119,13.4225463,01100311
12032673641,,,,52.4216947,13.1789777,06400735
12032673642,,,,52.4208879,13.1799936,06400735
12033039301,Elemente des kindlichen Spiels,,,52.4547872,13.6209672,09501737
12033040773,Turnhalle mit Sportpiktogrammen,,,52.5535001,13.5570035,10100208
12033043185,Aufbau der Republik,,,52.5096168,13.3838354,01100205
12034054995,,,,52.5480173,13.3932151,01300834
12034111709,,,,52.4766172,13.4388693,08100207
12036033615,,,,52.4985089,13.5229441,11401137
12036033616,,,,52.4984045,13.5225205,11401137
12040213453,,,,52.415649,13.1723626,06400735
12040711943,,,,52.5018401,13.4158784,02300314
12044593216,,,,52.4779694,13.4417429,08100416
12047225220,Fuchs,,,52.491576,13.3085877,04500939
12051575297,Die Kauernde,,,52.4878681,13.3459253,07200409
12051589513,,,,52.4875726,13.3467436,07200409
12051589514,,,,52.4875551,13.3467151,07200409
12056227513,,,,52.5281374,13.3989909,01100309
12056227514,,,,52.5281502,13.3990033,01100309
12056227515,,,,52.5281333,13.3990318,01100309
12057614769,,,,52.5602749,13.3466995,01400940
12057874649,Rosa Luxemburg,,,52.5271139,13.4141012,01100310
12059595178,,,,52.5272946,13.416399,03701659
12063273363,,,,52.3863468,13.1156934,0
12063300179,,,,52.3858812,13.1159003,0
12063843928,,,,52.5257827,13.3941304,01100309
12063843932,,,,52.5256966,13.393999,01100309
12067146452,Schwimmerin,,,52.5324272,13.4028964,01100416
12067146454,,,,52.5325416,13.4032441,01100416
12067146455,,,,52.5325244,13.4032904,01100416
12067146456,,,,52.5325132,13.4033392,01100416
12070800385,,,,52.5178638,13.3990712,01100206
12077087203,,,,52.3751703,13.0983034,0
12077264888,"""nicht mehr zu sehen""",,,52.4836147,13.3980406,07400721
12085505337,Große Frauenfigur II,,,52.5206972,13.2779086,04200308
12085505348,Große Frauenfigur I,,,52.5207808,13.2779603,04200308
12087171810,Gap to Feed,,,52.5270242,13.4106207,01100310
12093857425,,,,52.5003204,13.4191679,02300314
12094642220,Abu Markubs,,,52.508242,13.3355318,01100102
12094642221,Wildschwein,,,52.5089952,13.337479,01100102
12094642222,Orang-Utan,,,52.506342,13.3378029,01100102
12094642223,Knut,,,52.5103835,13.3372691,01100102
12094642224,Blindenhund,,,52.509901,13.335487,01100102
12094642225,,,,52.5084459,13.3355213,01100102
12108469764,Wildschwein,,,52.5167952,13.3584548,01100102
12109785325,,,,52.5660886,13.7295025,0
12110464180,Die Krähe,,,52.4805502,13.3557031,07200413
12119950043,Threesome,,,52.4800518,13.3541773,07200413
12120008215,Cord 810/812,,,52.4805639,13.3549202,07200413
12122979306,,,,52.4819952,13.303234,04400830
12122995565,,,,52.4825191,13.3026504,04400830
12122995566,,,,52.4821567,13.3036268,04400830
12122995569,,,,52.4816974,13.3024479,04400830
12123636558,,,,52.5153961,13.3462442,01100102
12123636559,,,,52.5152579,13.346073,01100102
12123927871,Araberjährling,,,52.4161357,13.3140429,06200419
12135624057,,,,52.5426385,13.3447505,01400938
12135822066,,,,52.542636,13.344747,01400938
12137457958,,,,52.4189912,13.754632,0
12138193904,Wasserträgerin,,,52.4299543,13.2890988,06300632
12138193905,Heidener Friedenstisch,,,52.4296639,13.2893463,06300632
12148124371,Gefallenendenkmal,,,52.603019,13.619438,0
12152156175,Spiegelwelten,,,52.4385405,13.5105324,09100409
12159761478,Bärenbrunnen,,,52.4911233,13.2367991,04200207
12167762836,Spielstein,,,52.4635343,13.5235734,09200511
12167762837,Kinderspiele,,,52.4633189,13.5248209,09200511
12167762838,Drei Weise,,,52.4620937,13.5234816,09200511
12167762839,Zauberer,,,52.4621237,13.5231963,09200511
12172739987,,,,52.4952816,13.3165584,04501043
12180269314,,,,52.5403014,13.4026417,03601142
12197690144,Unterwegs,,,52.4905928,13.3576575,07100204
12201001747,,,,52.5129536,13.3345816,01100102
12201283945,Gründer Geist,,,52.5222248,13.3288543,04300620
12201719108,,,,52.5285407,13.3920405,01100415
12202041210,Hommage an Ben Wagin,,,52.5044257,13.3084697,04501040
12207286361,,,,52.5216313,13.416036,01100310
12213450743,,,,52.410278,13.3623292,07601341
12234942979,,,,52.548135,13.3626906,01401043
12239509842,Roter Niedersachsen-Elefant,,,52.5125266,13.3774151,01100205
12241453051,Sowjetsoldaten beschützen den Aufbau der DDR,,,52.4905651,13.5272455,11501339
12272924122,Dynamische Struktur,,,52.4807937,13.3379055,07200308
12276908200,Tafel,,,52.4612068,13.5470055,09200512
12276976901,Kleiner Drachen,,,52.4610287,13.5469414,09200512
12276976902,Obelisk,,,52.4609418,13.5472265,09200512
12276976907,Drache,,,52.4610363,13.5470768,09200512
12278665909,,,,52.554434,13.146654,0
12285304020,Pelikane,,,52.5631944,13.0929249,0
12288167193,Figurengruppen,,,52.5470571,13.2094796,05100313
12288167194,Figurengruppen,,,52.5467795,13.2093202,05100313
12299522637,Die Sinnende,,,52.5064921,13.5317719,11401034
12299522638,Nashorn,,,52.5073683,13.5316264,11401034
12299522658,Bär,,,52.4992853,13.5301875,11401034
12315820215,,,,52.5132964,13.4150547,01100312
12318208578,Frauenbüste Clara Zetkin,,,52.4536156,13.6371066,09501737
12328243501,,,,52.4906406,13.3155108,04501147
12328246028,Jan Amos Comenius,,,52.487892,13.3184493,04501147
12358132694,Sisyphus wins,,,52.5510847,13.4228782,03601243
12382170992,Der Denker,,,52.5220282,13.4019476,01100310
12384212157,Berliner Bär,,,52.627946,13.2416804,12400618
12384340476,Polytechnisches Wissen,,,52.5154992,13.4303972,02400623
12384470127,,,,52.4956054,13.3614569,07100205
12420834185,Frosch,,,52.4984428,13.4060987,02100106
12459761793,Skulptur zum Durchschreiten,,,52.5572062,13.373567,01300730
12468528409,Lupo,,,52.4422033,13.2382522,06400838
12468528410,Orso,,,52.4421547,13.2381486,06400838
12533795997,,,,52.489365,13.528883,11501340
12609923344,,,,52.5359867,13.2859459,04100101
12610111319,,,,52.5366572,13.2825916,04100101
12615254335,,,,52.4483494,13.4442107,08200726
12620046129,,,,52.5319204,13.4014827,01100416
12620046130,,,,52.5316443,13.4019743,01100416
12630496083,Wegzeichen,,,52.4904664,13.3575621,07200409
12652170744,Ikarus,,,52.4895581,13.3114093,04500939
12652183577,Sich entfaltende Form II,,,52.4745094,13.3024373,04400833
12652183578,Blauer Mann,,,52.4758013,13.3049036,04400833
12660396629,Lok 2000,,,52.5825948,13.2889137,12200515
12663426204,Diadéo trésor,,,52.5104553,13.3982961,01100207
12724311201,Kenntnisreich,,,52.4977816,13.3526543,07100102
12728282822,Skulpturenensemble,,,52.5644342,13.4949906,11100308
12729223345,,,,52.4902361,13.5272054,11501339
12750948572,Kabeltrommel,,,52.4267213,13.4284364,08200729
12759102001,,,,52.4783469,13.4409652,08100416
12770351587,Penthesilea,,,52.5220383,13.3313784,01200522
12772609173,,,,52.5480655,13.407035,03601142
12777790491,,,,52.4061861,13.2247673,0
12787853227,,,,52.5373001,13.3937431,01100415
12797263038,,,,52.4075409,13.0927607,0
12802034085,,,,52.4771149,13.4368488,08100207
12802068505,,,,52.4771186,13.4368886,08100207
12805914679,,,,52.5133861,13.3263141,04300622
12809719505,Zwei Steine mit italienischer Inschrift,,,52.4305728,13.4216803,08200729
12809719506,Mann mit dicken Armen,,,52.4292255,13.4281088,08200729
12816899323,,,,52.456247,13.2992587,06400843
12817421388,,,,52.458261,13.3040703,06300629
12826284708,Kosmischer Kreis,,,52.4284954,13.4276664,08200729
12826284709,Tor,,,52.4333262,13.4118606,08200729
12826284710,CorTen-Stahl-Säule,,,52.4344632,13.4128705,08200729
12826284712,Steinhaus mit Seelenloch,,,52.4336375,13.4179604,08200729
12827179757,Ginkgo Biloba,,,52.4299893,13.4223881,08200729
12827179767,Große Sitzwindharfe,,,52.436004,13.4148833,08200729
12827179768,Mensch-Tier-Pflanze,,,52.4379932,13.4226778,08200729
12836949183,Chile,,,52.4428028,13.5887671,09401431
12836949184,Fußball,,,52.4462375,13.6016262,09401432
12836949186,Agitator,,,52.4466302,13.6019145,09401432
12839666271,Schildkröte,,,52.4545624,13.6203979,09501737
12840380317,Plastisches Ensemble,,,52.440652,13.5776902,09401534
12840380319,,,,52.4390446,13.6057142,09401433
12841539298,Glaube und Liebe,,,52.4438427,13.5728472,09401534
12842646754,Balance III,,,52.4328954,13.5571051,09200717
12843122734,Kabeltrommel,,,52.4267058,13.4284709,08200729
12843164640,,,,52.427413,13.4282375,08200729
12843894695,SculpturePopulaire,,,52.5169559,13.3959114,01100206
12847340408,Drei Frauen,,,52.3993471,13.5546437,09301025
12847340409,Luftfahrtsymbol,,,52.395263,13.5345631,0
12848593368,Architekten,,,52.4477575,13.5111386,09100408
12848593369,Plattenbau,,,52.4479224,13.5110872,09100408
12848593370,Ponyhengst,,,52.4405482,13.4979126,09100407
12848922765,Traumpferd,,,52.46824,13.5083137,09200510
12848922766,Maria mit Kind,,,52.4655666,13.5156066,09200511
12849156633,Pflanzerin,,,52.4693519,13.4785302,09100304
12849156634,Lesender Arbeiter,,,52.4688261,13.47822,09100304
12849156637,Zwei Putten mit Körben,,,52.467841,13.48804,09100304
12849156638,Merkur,,,52.4661437,13.4874809,09100304
12853190834,Seelöwen,,,52.4813108,13.4892067,09100203
12854251175,Archimedes,,,52.4866852,13.4751869,09100101
12854251176,Sonnenuhr,,,52.4864671,13.4752692,09100101
12854251177,Volksgesang,,,52.482983,13.469615,09100202
12854251178,Feierstunde,,,52.48273,13.4700056,09100202
12856083429,Familie,,,52.4238644,13.5709204,09301126
12857049191,,,,52.5256849,13.3617796,01200627
12860520396,,,,52.5376495,13.599244,10200420
12860540873,Die Tanzenden,,,52.5372526,13.5980027,10200420
12860540874,Die Tanzenden,,,52.5372907,13.5981674,10200420
12860644293,Zampern – Sorbische Volksbräuche,,,52.5366121,13.596897,10200420
12861139808,Bärengruppe,,,52.4937045,13.4586573,09100101
12861139809,Bär mit Ball,,,52.4938021,13.4585251,09100101
12861139812,Entengruppe,,,52.4932957,13.4588956,09100101
12861139813,,,,52.4794701,13.4802782,09100203
12861139815,Welle,,,52.4650343,13.4789524,09100304
12861139816,Gärtnerbursche,,,52.4662939,13.4828564,09100304
12861139819,Lesender Jüngling,,,52.4403984,13.4982175,09100407
12864060904,,,,52.5470867,13.3259699,01400937
12864922157,Spree Space Act 02,,,52.4864045,13.4841053,09100203
12864947111,RE.USE.UM,,,52.4833717,13.4938745,09100203
12866677270,,,,52.5724383,13.2725358,12200412
12871070727,,,,52.5272301,13.5204409,10100311
12875112926,Skulpturale Giebel-Linien,,,52.5363616,13.5921419,10200420
12875112927,Skulpturale Giebel-Linien,,,52.5357273,13.5920877,10200420
12877058219,Zwei Zeichen für Hellersdorf,,,52.535213,13.597714,10200420
12877058220,Zwei Zeichen für Hellersdorf,,,52.53559,13.5991656,10200420
12877635070,,,,52.5451396,13.587352,10200418
12894996786,Spree Space Act 01,,,52.482262,13.4939629,09100203
12899661834,Weiblicher Akt,,,52.4558631,13.4756476,09100306
12899661835,Stehende Barbara,,,52.4550241,13.476098,09100306
12899661836,Schlafende,,,52.454798,13.4760181,09100306
12899661837,Komposition mit Rehen,,,52.4552393,13.4747903,09100306
12899661838,Der Gießer,,,52.4554668,13.4764208,09100306
12901757701,,,,52.5691061,13.1897728,05100101
12901821082,,,,52.4891191,13.2516398,04200207
12901828056,,,,52.4890918,13.2517537,04200207
12908209084,,,,52.5567948,13.4575099,03500933
12914372273,,,,52.5607174,13.4498318,03500932
12914372274,,,,52.5611134,13.4512091,03500932
12914372275,Vogel-Haus,,,52.5603204,13.4487598,03500932
12914372276,Fisch-Haus,,,52.5600712,13.4490521,03500932
12914372277,Hasen-Haus,,,52.5611075,13.4505703,03500932
12914372278,Schmetterlings-Haus,,,52.5609218,13.451006,03500932
12914372279,Chaussee-Haus,,,52.5610823,13.45142,03500932
12919195180,,,,52.5772739,13.3079651,12200310
12919374293,,,,52.5665437,13.4941198,11100308
12921229972,Junges Paar,,,52.4618721,13.5486567,09200512
12921848962,Sitzender Bär,,,52.462336,13.5415596,09200512
12921848963,,,,52.4623465,13.5415227,09200512
12925406278,,,,52.5079904,13.2419704,04200205
12935275863,,,,52.6570135,13.4782386,03100101
12944701904,Erzengel Michael,,,52.5069893,13.4191535,01100313
12945442925,Putten,,,52.5034494,13.5241516,11401034
12945442926,Putten,,,52.5034889,13.5243416,11401034
12945442928,Tierfabeln,,,52.499806,13.5293768,11401034
12945442929,Kindergruppe mit Fisch,,,52.4998664,13.5299958,11401034
12945442930,Knabe,,,52.5056434,13.5260621,11401034
12945442940,Buckelzirpe,,,52.5045774,13.5286218,11401034
12945442941,Löwe mit Wappen,,,52.5001913,13.5343512,11401034
12946111803,,,,52.6629819,13.482886,03100101
12946117753,Pfeil,,,52.6606308,13.4838412,03100101
12946120846,,,,52.6620869,13.4845646,03100101
12946120847,,,,52.6618972,13.484383,03100101
12946135820,"""besiedelt""",,,52.6584801,13.4833614,03100101
12946144347,,,,52.6578183,13.4869858,03100101
12946144353,,,,52.6576679,13.4869325,03100101
12946144354,,,,52.6576389,13.4869838,03100101
12946144355,,,,52.657464,13.4864317,03100101
12946144356,,,,52.6572986,13.4864936,03100101
12946144357,,,,52.6571436,13.486591,03100101
12946148637,,,,52.6568963,13.4883609,03100101
12946184963,Zicklein,,,52.6562808,13.4892719,0
12946184965,,,,52.6557547,13.4897449,03100101
12946184966,Faltenverwerfung,,,52.6555454,13.4903842,0
12946184967,o. T.,,,52.6553893,13.4905536,0
12946189352,,,,52.654379,13.4923525,0
12946596688,,,,52.4276577,13.4525396,08300935
12950280528,Öffnung Flora,,,52.5372409,13.6056313,10200421
12951553526,Caritas,,,52.5277054,13.345556,01200625
12951628841,,,,52.6547233,13.4931282,0
12959527130,Hänschenklein,,,52.4934737,13.4583354,09100101
12959527131,Jugend,,,52.4933778,13.4558834,09100101
12959574525,,,,52.4739378,13.4582119,08100520
12961510591,,,,52.4341777,13.2541702,06300526
12961570196,,,,52.4529758,13.3360164,06100208
12969155817,,,,52.5152164,13.3467276,01100102
12982552589,,,,52.3876523,13.1169459,0
12985532201,Drehende Kugeln,,,52.6141783,13.4897903,03300411
12985740102,Gläsernes Kunstwerk,,,52.5130846,13.3959962,01100206
12994925292,,,,52.4274391,13.4288236,08200729
12997686755,,,,52.504716,13.3805413,02100101
13009679241,,,,52.5284717,13.3571379,01200623
13011270853,,,,52.4750449,13.4373692,08100207
13013882789,,,,52.4441059,13.5788814,09401534
13015607430,Maxim Gorki Statue,,,52.4045167,13.2181839,0
13021631454,,,,52.4565025,13.2986071,06400843
13021631455,,,,52.456214,13.2986549,06400843
13026093472,,,,52.5024592,13.4489721,02500835
13031018027,,,,52.430995,13.1200996,06400735
13031018028,,,,52.430827,13.1197062,06400735
13033912274,,,,52.5226847,13.3793766,01100308
13039637749,PM 20,,,52.5339852,13.4368842,03701660
13042902057,Hockendes Mädchen,,,52.5412927,13.4565767,03601450
13049087633,Rollerkinder,,,52.5559046,13.4392045,03500932
13057790219,Triton,,,52.5553744,13.4619645,03500933
13057790220,Triton,,,52.5553111,13.461759,03500933
13057911045,,,,52.5555628,13.4616003,03500933
13057911046,,,,52.5555386,13.4615614,03500933
13059587929,,,,52.5299367,13.4607198,03601450
13059633032,,,,52.4811021,13.4890471,09100203
13059635070,,,,52.4812479,13.4895951,09100203
13062122234,Affen im Dschungel,,,52.5332214,13.5486858,10100312
13063151638,,,,52.5215933,13.5064947,11300721
13063511601,,,,52.503786,13.3988075,02100103
13070823575,Sonnenuhr,,,52.4887587,13.4757895,09100101
13074073208,Graukraniche,,,52.5026162,13.5271485,11401034
13074073209,Zahnspinnerraupe,,,52.5047567,13.5284534,11401034
13074430512,Adam,,,52.504501,13.5241657,11401034
13074430513,Gazellen,,,52.5043309,13.5228391,11401034
13074430514,Gazellen,,,52.5043978,13.5228077,11401034
13074430516,Känguru,,,52.5041388,13.529189,11401034
13074430526,Fuchs,,,52.5020024,13.5302259,11401034
13074430527,Wildschwein,,,52.5025056,13.528035,11401034
13074430532,Panther,,,52.4996942,13.5335282,11401034
13074430533,Kronenhirsch,,,52.499825,13.5317297,11401034
13074430538,Sechs liegende Elefanten,,,52.5000511,13.5317056,11401034
13074430539,Sechs liegende Elefanten,,,52.5000377,13.5316895,11401034
13074430540,Sechs liegende Elefanten,,,52.4999781,13.5315654,11401034
13074430541,Sechs liegende Elefanten,,,52.4999719,13.5315366,11401034
13074430542,Sechs liegende Elefanten,,,52.4999609,13.5313817,11401034
13074430543,Sechs liegende Elefanten,,,52.4999654,13.5313502,11401034
13076121342,Bube mit Zickel,,,52.4995757,13.5286922,11401034
13076121343,Karl Foerster,,,52.5055796,13.526531,11401034
13076121344,Carl von Linné,,,52.5049664,13.5245138,11401034
13076121345,Urania,,,52.5063829,13.5229979,11401034
13076121346,Vase mit Blüten- und Blattschmuck,,,52.5049454,13.5235158,11401034
13076121347,Vase mit Blüten- und Blattschmuck,,,52.5049204,13.5233877,11401034
13076121348,Vase mit Blüten- und Blattschmuck,,,52.5060669,13.5228991,11401034
13076121349,Vase mit Blüten- und Blattschmuck,,,52.5060398,13.522771,11401034
13076121350,Putte-Der Choleriker,,,52.5056647,13.5229798,11401034
13076121351,Putte-Der Sanguiniker,,,52.5056913,13.5231079,11401034
13076121352,Putte-Der Melancholiker,,,52.5057491,13.5230713,11401034
13076121353,Putte-Der Phlegmatiker,,,52.5057228,13.5229459,11401034
13076121354,Putte Frühling-Allegorie,,,52.5053249,13.5233091,11401034
13076121355,Putte Sommer-Allegorie,,,52.5052975,13.5231826,11401034
13076121356,Putte Winter-Allegorie,,,52.5052402,13.5232106,11401034
13076121357,Putte Herbst-Allegorie,,,52.5052666,13.5233399,11401034
13087297067,Radschlagender Pfau,,,52.5062077,13.5262724,11401034
13087297068,Bocksvase,,,52.5039649,13.521432,11401034
13087297069,Bocksvase,,,52.5040104,13.5216579,11401034
13087297070,Ziegen,,,52.4994938,13.5285243,11401034
13087297075,Fish,,,52.5029133,13.5299948,11401034
13087297076,Giraffe,,,52.5037571,13.5296183,11401034
13087297077,Owl,,,52.5041012,13.5234056,11401034
13087297078,Pelican,,,52.5030552,13.5245458,11401034
13087297079,Bird,,,52.5019302,13.5251554,11401034
13087297080,Elegant Birds,,,52.5007627,13.5257879,11401034
13087297081,Pelican Family,,,52.4993402,13.526558,11401034
13087483727,Formengruppe,,,52.5385622,13.2804745,04100101
13102373727,,,,52.5567023,13.470465,03501037
13102379788,,,,52.556757,13.4882678,03501038
13102379789,,,,52.5570865,13.4891835,03501038
13120886573,Four Parts of a Cube,,,52.4825459,13.3574933,07200413
13127609721,,,,52.4509013,13.6913612,09501838
13135941240,,,,52.4274573,13.5535825,09200715
13138114982,,,,52.5118118,13.4038744,01100312
13140626953,Anna Elisabeth Louise,,,52.517222,13.3512069,01100102
13140626954,,,,52.5173014,13.3511535,01100102
13142891089,,,,52.5485522,13.4667257,03500936
13152260955,Große Stele II,,,52.5250482,13.3216408,01200517
13153415131,,,,52.4859577,13.3544254,07200409
13155212843,Fußballer,,,52.5503266,13.3939297,01300733
13167028932,,,,52.5154636,13.4513475,02400624
13167094253,Europarc,,,52.4086307,13.1909072,0
13169351706,,,,52.4069417,13.1878511,0
13175126154,,,,52.501977,13.3202353,04501041
13175126550,Fasan,,,52.4998133,13.3272156,04501045
13176869529,Element Wasser Fee und Leo,,,52.4991049,13.3303171,04501045
13178978978,,,,52.5276454,13.420319,03701659
13180463907,Äskulap,,,52.4455983,13.3791281,07501029
13183659876,Springendes Pferd,,,52.5388372,13.20044,05100316
13184656638,,,,52.3975036,13.4015882,07601442
13188227827,,,,52.5168865,13.4556922,02500727
13197999895,,,,52.5250602,13.3593721,01200627
13198107179,Herz der Hoffnung,,,52.5352542,13.3879191,01300835
13200761676,Araberjährling,,,52.4202689,13.4467972,08200833
13200761677,Araberjährling,,,52.4202314,13.4468114,08200833
13201305567,Schrippe,,,52.5357087,13.3892921,01300835
13206680770,,,,52.4750536,13.4371127,08100207
13227622867,,,,52.4959342,13.3555847,07100103
13244317353,Der Steinhändler,,,52.5684356,13.4121396,03400723
13254184467,Kleist-Museum,,,52.4673822,13.5272584,09200512
13254184468,Brandenburger Tor,,,52.4676229,13.5278896,09200512
13254184469,Burg Rabenstein,,,52.4681157,13.5275953,09200512
13254184470,Steintorturm,,,52.4681224,13.5278509,09200512
13254184471,Siegessäule,,,52.4676801,13.5279534,09200512
13254184472,Gatower Mühle,,,52.4677863,13.5281219,09200512
13254184473,Wehrkirche & Kampehler Schloss,,,52.4674729,13.5284277,09200512
13254184474,Stiftskirche,,,52.4677229,13.5281915,09200512
13254184475,St. Nikolai-Kirche,,,52.467543,13.5281853,09200512
13254184476,Kyritz,,,52.4675026,13.5283849,09200512
13254184477,Uhrenturm Wittenberge,,,52.4674194,13.5286555,09200512
13254184478,Dorfkate,,,52.4673524,13.5277375,09200512
13254184479,Mies Van Der Rohe Haus,,,52.4673574,13.5277806,09200512
13254184480,Dannenwald/Zehdenick,,,52.4671966,13.5280237,09200512
13254184481,Borsigturm & Borsigtor,,,52.467426,13.5279805,09200512
13254184482,Kulturkirche,,,52.4673639,13.5281507,09200512
13254184483,Sechserbrücke,,,52.46755,13.5280944,09200512
13254184484,Schinkelkirche,,,52.4673843,13.5283571,09200512
13254184485,Hi-Flyer Ballon,,,52.467675,13.5276999,09200512
13254184486,Dorfkirche Fretzdorf,,,52.4673086,13.528437,09200512
13254184487,Wittstock / Dosse & Umgebung,,,52.467261,13.5285698,09200512
13254184488,Fachwerkkirche Kreuzburg,,,52.4673787,13.528593,09200512
13254184489,Neue Kommandatur,,,52.4675837,13.5278273,09200512
13254184490,Rathaus Lichtenberg,,,52.4674393,13.527584,09200512
13254184491,Archenhold Sternwarte,,,52.4675861,13.5276737,09200512
13254184492,Dorfkirche Stralau,,,52.4675939,13.5276075,09200512
13254184493,Kiezspinne FAS,,,52.467535,13.5275339,09200512
13254184494,St.-Laurentius-Stadtkirche,,,52.4675722,13.52741,09200512
13254184495,Neue Wache,,,52.4675757,13.5278854,09200512
13254184496,Schloss Biesdorf,,,52.4674124,13.5274764,09200512
13254184497,Museum Kesselhaus,,,52.4673992,13.5275404,09200512
13258952844,Begrüntes Tor der Handwerker,,,52.5389976,13.241822,05300737
13261093036,Stehender Jüngling,,,52.588944,13.324142,12500927
13275457389,,,,52.5129497,13.4141741,01100312
13282645550,Windspiel,,,52.5338408,13.4688293,11300616
13285806413,,,,52.5169357,13.192311,05200633
13285810379,,,,52.501712,13.1852526,05200634
13287760685,,,,52.5708981,13.4140028,03400723
13289087831,Malort Friedrichshain,,,52.5257334,13.4516409,02500726
13294303860,Athene,,,52.3942474,13.2700728,0
13296681101,"Woher kommen wir, wohin gehen wir...",,,52.4997158,13.3915957,02100102
13299077646,Erlebnispfad Stadtnatur,,,52.5444754,13.2909427,04100101
13299077647,Erlebnispfad Stadtnatur,,,52.5438934,13.2921235,04100101
13299077648,Erlebnispfad Stadtnatur,,,52.5449263,13.2820987,04100101
13299092952,,,,52.4439742,13.3827542,07501030
13304492287,,,,52.5262404,13.5082908,11300721
13304530457,,,,52.42068,13.4806276,08401242
13304713424,,,,52.4400965,13.4489066,08200727
13305304545,,,,52.5141607,13.3233581,04300622
13308092683,,,,52.5264716,13.5077208,11300721
13328334206,Just a game,,,52.4055669,13.1870111,0
13333339606,,,,52.395879,13.3747738,07601341
13336533565,Papageienmann,,,52.5505191,13.4134766,03601141
13346680001,Buddy Bear,,,52.5274463,13.2009911,05200629
13347816186,,,,52.411486,13.320497,06200419
13357510839,Philippus und Nathanael,,,52.4742093,13.3371273,07300517
13357665536,,,,52.5370018,13.6005553,10200420
13367091771,Gruppe 84,,,52.4404866,13.3949098,07501031
13367091772,Großes Idol,,,52.4403664,13.3947989,07501134
13368896028,Reiher,,,52.4426205,13.3875817,07501031
13369397718,,,,52.6229758,13.4837156,03300411
13369397719,,,,52.6228487,13.4835671,03300411
13371967737,,,,52.4315861,13.3889877,07501133
13376045806,,,,52.4398234,13.3448482,06200313
13376045807,,,,52.439883,13.3447687,06200313
13383834263,,,,52.4530216,13.3133851,06100101
13385835030,,,,52.4848726,13.3802788,07400720
13392429681,,,,52.5417638,13.3839816,01300835
13395276531,,,,52.5684996,13.5499808,10100101
13410379601,,,,52.672719,13.5152687,0
13416507149,Buchstabengruppe,,,52.6197513,13.4866733,03300411
