id,lat,lon,name,street,zip_code,city,planning_area_id
28968294,52.489074,13.322506,Deutsche Post,Uhlandstraße 85,10717.0,Berlin,4501147
29040540,52.5245043,13.3465302,"Alt-Moabit 98, 10559 Berlin",,,,1200626
64888570,52.5646771,13.5071817,Deutsche Post,Prerower Platz 1,13051.0,Berlin,11100307
89274887,52.5196982,13.4115537,Deutsche Post,,,,1100310
97877441,52.6357854,13.4938163,Postbank Finanzcenter,Wiltbergstraße 21,13125.0,Berlin,3100103
203621424,52.5420425,13.5421872,Postbank,,,,10100210
251290430,52.441346,13.6889878,,,,,9501838
257705263,52.5338083,13.1980106,Postbank Finanzcenter,,,,5200629
258888571,52.5651108,13.5713372,Deutsche Post,Wittenberger Straße 76-80,12689.0,Berlin,10100103
259609019,52.548998,13.2010183,Post,,,,5100314
267079782,52.4622822,13.5137504,Postbank Finanzcenter,Edisonstraße 63,12459.0,Berlin,9200510
268072806,52.5889268,13.287191,Deutsche Post,,,,12200515
269477697,52.5114603,13.4169551,Deutsche Post,,10179.0,Berlin,1100313
270320951,52.4347533,13.3426964,Postbank Filiale 506,Kaiser-Wilhelm-Straße 60-62,12247.0,Berlin,6200313
270766888,52.4383621,13.7199883,,,,,9501838
278361796,52.5133719,13.5226685,Postbank,,,,11401033
292396766,52.6172587,13.4886389,Schmökerzeit,,,,3300411
297885281,52.5139735,13.6123814,,Hönower Straße 102,12623.0,Berlin,10400938
298637247,52.5264124,13.4511435,Postfiliale,Ebertystraße 5,10249.0,Berlin,2500726
304897129,52.4126136,13.5721788,Deutsche Post,Bruno-Taut-Straße 1,12524.0,Berlin,9301024
308811060,52.5495837,13.4161206,,,,,3601243
322541059,52.5965584,13.3506157,Deutsche Post,Königshorster Straße 150,13439.0,Berlin,12601134
345546409,52.4586959,13.5766157,Deutsche Post,Bahnhofstraße 33-38,12555.0,Berlin,9501939
370131144,52.4506878,13.3398208,Deutsche Post,Steglitzer Damm 24,12169.0,Berlin,6100205
481148749,52.4187952,13.1573476,,,,,6400735
552357265,52.5754596,13.2839542,Postfiliale,Bernauer Straße 69,13507.0,Berlin,12200412
587825470,52.5392631,13.2994262,Postfiliale,Heckerdamm 225-331,13627.0,Berlin,4100102
597557763,52.4522325,13.56951,pin MAIL,Lindenstraße 32B,12555.0,Berlin,9501939
617635368,52.3868153,13.4064906,Postbank Finanzcenter,,12305.0,Berlin,7601544
618020076,52.469814,13.4630769,k kiosk,Grenzallee 4d,12057.0,Berlin,8100520
643073980,52.5281122,13.5391965,,Helene-Weigel-Platz 5,12681.0,Berlin,10100312
644659553,52.5504533,13.3788501,Zeitungsladen Parlak,Pankstraße 42,13357.0,Berlin,1300836
674019820,52.5430615,13.3926865,Kiosk,,,,1300834
701061833,52.419186,13.4978456,DHL Deutsche Post,,,,8401243
746857707,52.5795237,13.3971108,Pressewelt Tiede Zeitungen & Tabakwaren,Pastor-Niemöller-Platz 10,,Berlin,3200206
768474205,52.4678902,13.4901655,presse,,,,9100305
774497620,52.5089181,13.4042915,pin,,,,1100207
784381064,52.5745377,13.3548466,,,,,12100205
841168448,52.4173989,13.399183,Postbank Finanzcenter,,,,7601442
912607021,52.446644,13.3846626,Postbank,Königstraße 27 - 28,12105.0,Berlin,7501030
945142182,52.4210328,13.5389405,,,,,9300920
1024127218,52.4265887,13.3033321,Zeitungskiosk und Postagentur,,,,6300632
1028152134,52.4149913,13.347647,,,,,7601236
1056915626,52.4350788,13.2589726,Deutsche Post,Potsdamer Straße 52,14163.0,Berlin,6300526
1066055936,52.5359348,13.4754318,Post-Shop,,,,11200514
1068842530,52.4174527,13.2866287,,,,,6300631
1119746019,52.4133804,13.3142288,Hermes Shop,,,,6200419
1157595126,52.5695204,13.3610124,Postbank,,,,12100204
1208142483,52.5226229,13.4287363,Lotto-Post-Schreibwaren,,,,2400520
1251071263,52.5066446,13.4160886,tabaCCenter,,,,1100313
1303454849,52.5627652,13.3272852,Deutsche Post im Clou,,,,12200309
1334894394,52.5681909,13.4399318,DHL,,,,3300516
1336764318,52.4416735,13.5879786,Deutsche Post,,,,9401431
1338232283,52.4974325,13.5222608,Postbank Finanzcenter,,,,11401137
1370144820,52.515231,13.468602,Deutsche Post,Frankfurter Allee 73-77,10247.0,Berlin,2500729
1385782504,52.5090881,13.3236314,,,,,4300624
1490227873,52.5218706,13.1648243,Deutsche Post,Obstallee 28-30,13593.0,Berlin,5200527
1519869624,52.4367716,13.4470463,Deutsche Post / Postbank,,,,8200730
1552575486,52.5128124,13.4176257,StoExpress Germany GmbH,Brückenstraße 5-6a,10179.0,Berlin,1100313
1617243582,52.5250711,13.466216,Post-Shop,,,,11300618
1641970531,52.4617546,13.3853338,Postbank Finanzcenter,Tempelhofer Damm 171-173,12099.0,Berlin,7400927
1652675145,52.4468262,13.5071709,,Sterndamm 67,12487.0,Berlin,9100408
1660300165,52.5387081,13.602865,Postbank Finanzcenter,,,,10200421
1667160188,52.4628371,13.4834482,Baumschulen Späti,Baumschulenstraße 70,12437.0,Berlin,9100304
1672551315,52.4498642,13.6243324,Deutsche Post Partnerfiliale,Bölschestraße 117,12587.0,Berlin,9501737
1734450896,52.5902736,13.397812,Poststelle,,,,3200205
1802756295,52.4364707,13.5444834,Monis Postshop,,,,9200716
1881516186,52.5048715,13.3319097,Deutsche Post,Joachimsthaler Straße 41,10623.0,Berlin,4501042
1963129660,52.4679454,13.4307313,Deutsche Post,Hermannstraße 111,12051.0,Berlin,8100104
2014284804,52.4298452,13.5205736,Zok Regattahandel,,,,9200715
2021286592,52.4989616,13.3135951,Kiosk,,,,4501043
2032547417,52.4839559,13.3612903,Zeitungen & Tabakwaren Barth,Leberstraße 24,10829.0,,7200413
2046262883,52.5021696,13.3529111,PIN Mail AG,Karl-Heinrich-Ulrichs-Straße 11,10785.0,Berlin,7100102
2053207124,52.4888853,13.3858172,,,,,2200209
2075875010,52.5240318,13.4618807,kkiosk,Hermann-Blankenstein-Straße 38,10249.0,Berlin,3601453
2260558395,52.4330593,13.2425952,,,,,6300526
2322990543,52.5199928,13.616877,Hermes,,,,10400938
2398075984,52.4420837,13.4562593,,,,,8401139
2429502439,52.5101116,13.4583614,Quick Store Aquarium Lounge Postagentur,Gabriel-Max-Straße 4,10245.0,Berlin,2500833
2485492744,52.492694,13.4219892,DHL BVG Kiosk,,10967.0,Berlin,2200213
2724240147,52.5187292,13.3428175,P&P Bürobedarf,,,,1200629
2756763441,52.5531383,13.3792651,Deutsche Post,Badstraße 35,13357.0,Berlin,1401045
2778210536,52.4654765,13.3833792,UPS Paketshop,Alt-Tempelhof 31-33,,,7400824
2834832470,52.5322847,13.4352557,Lotto Post Tabak,Bötzowstraße 36,10407.0,Berlin,3701660
2868082584,52.4499593,13.2528595,Post-Agentur,Ladenstraße 38-49,14169.0,Berlin,6400840
2960514674,52.6075417,13.4203494,Postfiliale,,,,3200310
3046472102,52.4823778,13.4320943,Postbank Filialcenter,,,,8100206
3168436654,52.445645,13.455373,DPD Paketshop,,,,8200728
3188602341,52.5101275,13.2799282,Postcon Konsolidierungs GmbH,Kaiserdamm 29,14057.0,Berlin,4200311
3209199436,52.490785,13.4218009,TC-Elektronik,Boppstraße 6,10967.0,Berlin,2200213
3333071085,52.6078582,13.2349572,Kiosk,,,,12400619
3619536287,52.6200794,13.2372447,,,,,12400618
3673269309,52.4529434,13.1430531,,Sakrower Landstraße 1A,14089.0,Berlin,5400945
3811297499,52.4566061,13.4531846,FedEx Station,,,,8200623
3842659812,52.5449746,13.5501366,Post office and newspaper shop,,,,10100210
4119774790,52.5676599,13.3786637,Post & DHL,,,,12100101
4185092145,52.4688956,13.3423088,Steffis Futterkeks,Cranachstraße 63,12157.0,Berlin,7300619
4200389800,52.5511069,13.3811016,Lotto,Bastianstraße 5,,,1300836
4296515828,52.40204,13.5434356,,,,,9300923
4316817351,52.541846,13.2365302,Postfiliale Haselhorst,,,,5300737
4318587242,52.5209051,13.197067,Schreibwarengeschäft und Post,,,,5200630
4323171151,52.5164585,13.4402307,,Straße der Pariser Kommune 41,10243.0,Berlin,2400623
4367412762,52.4395815,13.21592,Lotto,,,,6400838
4423331984,52.4150998,13.6588336,,,,,9401635
4464077285,52.416409,13.3617254,Postbank Filiale,Malteserstraße 170 - 172,12277.0,Berlin,7601236
4464537690,52.5155797,13.3903399,,Behrenstraße 29,10117.0,Berlin,1100206
4513962127,52.5088106,13.3044232,Deutsche Post,,,,4300623
4537589635,52.566924,13.5279664,Deutsche Post,Randowstraße 3,13057.0,Berlin,11100203
4607553084,52.5276719,13.3276124,Post-Point,,,,1200518
4622109990,52.5328365,13.4269508,Pinguin Druck,,,,3701659
4762523479,52.440392,13.601405,,Müggelschlößchenweg 44,12559.0,Berlin,9401433
4862561442,52.5334891,13.4568123,,,,,3601450
5042418153,52.6146271,13.2442914,,,,,12400618
5047369165,52.5856164,13.2267748,Postfiliale am Falkenplatz,Falkenplatz 9A,13505.0,Berlin,12400616
5153424275,52.4860299,13.3389674,Uni-Shop,Wartburgstraße 25,10825.0,Berlin,7200307
5191726020,52.5212709,13.1976208,Pens & Scissors,,,,5200630
5502910918,52.5153223,13.4608202,DPD Store Friedrichshain,Frankfurter Allee 31,10247.0,Berlin,2500728
5647743619,52.4393676,13.3158901,Post,,,,6300633
5785192448,52.5698892,13.4035839,Postbank,Breite Straße 20,13187.0,Berlin,3400722
5785203531,52.5527368,13.4331207,Kiez-Markt,Streustraße 67,13086.0,Berlin,3500934
5785211205,52.5501644,13.4523376,Post,Charlottenburger Straße 140,13086.0,Berlin,3500935
5856191985,52.5271703,13.3393661,DHL,Jonasstraße 4,10551.0,Berlin,1200520
5864239948,52.540692,13.1319997,Deutsche Post,Torweg 148,13591.0,Berlin,5200418
5945635505,52.4854838,13.3544066,Filiale 529,,,,7200409
6071379212,52.5007715,13.4943154,Hermes Paketshop,Lückstraße 44,10317.0,Berlin,11400929
6128936593,52.4937443,13.5060029,,,,,11401135
6137936121,52.50655,13.5034597,Hermes Paketshop,,,,11400930
6143283756,52.5087707,13.4973297,DHL,,,,11400929
6143283757,52.5014478,13.4934068,DHL,Weitlingstraße 117,10317.0,Berlin,11400929
6145999781,52.5097154,13.5038766,DHL Paketshop,,,,11400931
6148127067,52.4996676,13.4970858,DHL,,,,11400928
6167489563,52.4825298,13.5248732,DHL Paketschop,,,,11501339
6379030640,52.4679737,13.3859853,UPS Access Point,Tempelhofer Damm 129,,,7400927
6379040132,52.4899907,13.4003831,UPS Access Point,Baerwaldstraße 44,10961.0,,2200211
6388092786,52.5940143,13.33383,Deutsche Post,Roedernallee 88-90,,,12500926
6434326540,52.5597754,13.349359,Hermes Paketshop,,,,1400940
6463564996,52.4942603,13.4340792,Späti,,,,2300418
6694854105,52.4960547,13.5102344,Hermes Paketshop,Sewanstraße 176,10319.0,Berlin,11401135
6928783065,52.4686518,13.4910555,ATM EXTRAS,Baumschulenstraße 6,12437.0,Berlin,9100305
6967210416,52.4524686,13.5288084,,,12439.0,Berlin,9200613
6967210420,52.4564682,13.5109911,DHL,,,,9200613
6967210423,52.4362795,13.5432009,,,,,9200716
6967210426,52.4456675,13.5630358,DHL,,,,9200819
7025879067,52.5340949,13.436712,Hermes Paketshop,Danziger Straße 150,10407.0,Berlin,3701660
7025879082,52.5356612,13.4334547,DHL,Danziger Straße 122,10407.0,Berlin,3701660
7249782635,52.5435809,13.4428902,DHL,Greifswalder Straße 90,10409.0,Berlin,3601449
7454045232,52.5074265,13.39452,Deutsche Post,,,,2100102
7752757116,52.4955374,13.2859012,PIN AG - Depot Wilmersdorf,,,,4500937
7781356468,52.517514,13.582289,Lotto/Tabak/Presse Raschel,Lion-Feuchtwanger-Straße 21,12619.0,Berlin,10200629
7895952499,52.4835153,13.2671875,Deutsche Post - DHL Hagenplatz,Hagenplatz 3a,14193.0,Berlin,4400728
7937449612,52.4908243,13.5273363,DHL,,,,11501339
8084634934,52.5040963,13.3429837,"Deutsche Post, DHL",,,,7100101
8112899380,52.4871276,13.3747693,UPS Access Point,,,,2200209
8442976872,52.4980887,13.4648382,GSL Paketshop,Markgrafendamm 35,,,2500835
8459440165,52.532564,13.4694341,Deutsche Post,Landsberger Allee 171,10369.0,Berlin,11300616
8672702142,52.5127208,13.5892628,Post im Kiosk,,,,10400835
8775336717,52.5934068,13.4394161,MMD Paketshop,Pankstraße 8,13127.0,,3200309
8811638327,52.478825,13.4270788,Deutsche Post,,,,8100206
8852547909,52.4825915,13.6021114,Deutsche Post,Hultschiner Damm 84a,12623.0,Berlin,10400941
9006816146,52.5294384,13.3841886,,Chausseestraße 121,10115.0,Berlin,1100308
9022437762,52.4440288,13.5674393,DHL,,,,9200819
9022437763,52.4446059,13.5681367,DHL,,,,9200819
9035861377,52.5555819,13.5579099,,,,,10100208
9083898246,52.5401287,13.6105001,Hermes PaketShop,Quedlinburger Straße 23-37,12627.0,Berlin,10200422
9142542531,52.4481895,13.3055003,,,,,6300629
9174631310,52.5117794,13.3131284,Pin Mail,,,,4300623
9201575258,52.6164243,13.3067987,,,,,12400722
9222266686,52.5103696,13.2777301,,Fredericiastraße 17-19,14050.0,Berlin,4200311
9237900833,52.5153381,13.4648779,Post,Samariterstraße 3,,,2500728
9270388136,52.5062606,13.4962301,UPS Access Point,,,,11400929
9324986266,52.5037141,13.450597,Pen & Paper,Rotherstraße 20,,,2500835
9329133969,52.4963273,13.3865182,DHL,,,,2200208
9329137097,52.4985219,13.3879268,DHL Paketshop 444,Hallesches Ufer 24,10963.0,Berlin,2100101
9652203760,52.5475071,13.4487001,DHL Paketshop,,,,3500935
9856797501,52.5094882,13.499631,Filiale 413,Irenenstraße 22,10317.0,Berlin,11400929
9991258483,52.4981499,13.3532289,Hermes,Nollendorfstraße 10,10777.0,Berlin,7100102
10015764560,52.5332463,13.424969,The Winsy Späti,Winsstraße 14,10405.0,Berlin,3701659
10089839259,52.525912,13.3005338,Lotto-Tabak-Presse Türkmann,Osnabrücker Straße 24,10589.0,Berlin,4300517
10152401251,52.5100468,13.4679814,Paketshop 651,Weichselstraße 23,10247.0,Berlin,2500832
10159421697,52.5009399,13.4126777,,Ritterstraße 4-5,10969.0,Berlin,2100104
10661022115,52.488669,13.4244578,Hermes PaketShop,,,,2200213
10673727945,52.5224879,13.378427,,Reinhardtstraße 46,10117.0,Berlin,1100308
11045663311,52.5732562,13.5627281,DHL,,,,11100102
11201033450,52.5258311,13.3036619,Nova Post,,,,4300517
11230676460,52.4334595,13.5377305,,,,,9200715
11306087269,52.6078363,13.2349419,Deutsche Post Filiale 536,Bekassinenweg 20,13503.0,,12400619
11388269536,52.4604947,13.522316,,,,,9200511
11388269537,52.46331,13.5136281,,,,,9200510
11398404302,52.4572667,13.508119,DHL,,,,9200613
11468861516,52.4474354,13.315032,Speditionsshop Steglitz,,,,6300633
