id,lat,lon,name,street,zip_code,city,planning_area_id
63253672,52.4993218,13.2961178,Späti Joe,Joachim-Friedrich-Straße 39,10711.0,Berlin,4500937
141469102,52.5408415,13.1474707,,,,,5200419
253616592,52.5110467,13.4626981,Mein Markt Pham,,,,2500833
266629404,52.5092086,13.5874999,...nah und gut,Mädewalder Weg 45,12621.0,Berlin,10400836
269475044,52.5017902,13.4165385,Milchladen,Dresdener Straße 20,10999.0,Berlin,2300314
277681454,52.4990942,13.3931869,Bagdad Lebensmittel,,,,2100102
278124916,52.5083552,13.4529561,Drinks & more,Revaler Straße 9,10245.0,Berlin,2500834
282406641,52.5108993,13.4611651,Drink Oase,Gärtnerstraße 14,10245.0,Berlin,2500833
286210165,52.4992044,13.4635638,Spätverkauf,,,,2500835
287297820,52.5291171,13.4094976,Midnight Shop,Schönhauser Allee 188,10119.0,Berlin,3701554
298676294,52.5376931,13.2035603,Reformhaus,,,,5100316
304897065,52.3934584,13.5726195,Nhat Long,Waltersdorfer Straße 47,12526.0,Berlin,9301025
310267641,52.4924848,13.4175963,E Markt,Dieffenbachstraße 55,10967.0,Berlin,2200213
310377176,52.4808992,13.3430964,Mein Markt,Innsbrucker Straße 37,10825.0,Berlin,7200308
312820851,52.5429183,13.376473,Spätkauf,Gerichtstraße 78,13347.0,Berlin,1300836
313874489,52.5257591,13.4519646,Asia Supermarket,,,,2500726
313874493,52.5262878,13.4516579,Eren,Ebertystraße 52,10249.0,Berlin,2500726
314401614,52.5231705,13.4531781,Asia Lebensmittel,Straßmannstraße 41,10249.0,Berlin,2500726
314401618,52.5227042,13.4513021,Mini Markt 25,,,,2500726
314401620,52.5223054,13.4509232,Ja Dilo,Petersburger Straße 45,10249.0,Berlin,2500726
314401622,52.5231896,13.4503447,Asia Shop,,,,2500726
322153511,52.5270002,13.3983598,Kiezmarkt,Große Hamburger Straße 39,10115.0,,1100309
331347585,52.5087187,13.4616129,Nice 2 See U,Wühlischstraße 19,10245.0,Berlin,2500833
364135228,52.4756969,13.4247724,Orange,,,,8100103
411899540,52.5282633,13.3430149,All in One Shop,,,,1200520
420512359,52.4550699,13.375534,Spätkauf am Atillaplatz,Alarichstraße 1,12105.0,Berlin,7400826
427670051,52.5120271,13.4964222,Späti,,,,11300725
427670062,52.5117432,13.4974878,Kiez-Shop,Frankfurter Allee 246-248,,,11300725
429729075,52.4899925,13.3602113,City-Kiosk,Hauptstraße 160,10827.0,Berlin,7200411
430126697,52.5028638,13.4543186,Obst und Gemüse,,,,2500835
431655696,52.5097543,13.4622583,LPG,Seumestraße 12,10245.0,Berlin,2500833
434492758,52.5374568,13.2033126,Supermarkt Rose,,,,5100316
438150623,52.503197,13.4914514,Mini Markt,,,,11400929
440971671,52.5510932,13.3564031,Mini Market Alper,,,,1401048
441513730,52.4609503,13.4346275,Huzur Gida,,,,8200624
442749323,52.4673029,13.4403109,Spät-Shop,Silbersteinstraße 9,12051.0,Berlin,8100209
448594622,52.5011115,13.4410845,Späti am Schlesi,,,,2300316
452385593,52.5509168,13.5100245,Multi Spätkauf,,,,11200410
454251024,52.4860909,13.4351467,Spätcampus,Weichselstraße 54,12045.0,Berlin,8100312
458138650,52.5211339,13.4465218,Spätkauf Olive,,,,2400522
458752207,52.4405026,13.3878363,Mariendorfer back & spätkauf,,,,7501031
461624503,52.5171097,13.4466536,Markt an der Weberwiese,,10243.0,Berlin,2400522
470319897,52.5885762,13.2855387,Steinshop,,,,12200515
473629401,52.5578099,13.3900362,Soldiner Späti,Soldiner Straße 14,13359.0,Berlin,1300732
476259949,52.4816447,13.4441313,Heimgetränke,Innstraße 9,12045.0,Berlin,8100418
506197795,52.544033,13.4242868,Lateshop Café Roj,Stargarder Straße 50,10437.0,Berlin,3601348
530715886,52.541734,13.3575427,,,,,1401047
530715910,52.542862,13.3590534,Spätkauf & Backwaren,Sprengelstraße 2,,,1401047
560524658,52.5472275,13.4157637,Asia Markt Frischekorb,Stargarder Straße 6,10437.0,Berlin,3601346
560525457,52.5454075,13.4204087,Verbrauchermarkt,Stargarder Straße 21,10437.0,Berlin,3601347
567169596,52.5436171,13.416199,RK Markt,Raumerstraße 2,10437.0,Berlin,3601347
567546833,52.5227373,13.4496607,Petersburger Getränke Shop,,,,2400522
567546844,52.523981,13.4527734,Eberty Point,Ebertystraße 15,10249.0,Berlin,2500726
573381061,52.5128191,13.4673128,Quang Loi,Scharnweberstraße 20,10247.0,Berlin,2500831
576051172,52.5129377,13.4658832,Lebensmittel,,10247.0,Berlin,2500831
576051178,52.514379,13.4659476,Euro Spätkauf,Frankfurter Allee 60,10247.0,Berlin,2500831
577380846,52.5461354,13.4180767,Papki,,10437.0,Berlin,3601347
586663202,52.5132812,13.4713536,,,,,2500832
618021342,52.4682342,13.4672291,MiniMarkt,,,,8100521
620704357,52.4825323,13.4409421,laube shop,,,,8100312
620704359,52.483436,13.4360938,,,,,8100314
626304112,52.5344555,13.4305661,Corner,,,,3701658
627105732,52.5520383,13.3842605,Spätkauf,,,,1300733
639566330,52.4933967,13.2958852,Backshop & Kiosk,Joachim-Friedrich-Straße 1,10711.0,Berlin,4500938
667858504,52.5033624,13.4121295,Kiezkauf,Oranienstraße 54,10969.0,Berlin,2100104
678967934,52.5514691,13.3578197,Bonbonwasser,,,,1401048
685354675,52.5094753,13.4985107,Oma Wenda,Irenenstraße 1,10317.0,Berlin,11400929
697714204,52.5342305,13.4086992,La Bodega,Schwedter Straße 17,10119.0,Berlin,3701554
697907411,52.5488264,13.4140802,Spätkauf -Late Shopping,Schönhauser Allee 72c,10437.0,Berlin,3601346
699713742,52.5082964,13.480045,Späti Backshop,,,,11300826
700775294,52.5067828,13.4965201,Trang Asia Supermarket,,,,11400929
703744109,52.4031371,13.5072516,,,,,8401245
707353241,52.5508319,13.3787053,Spätkauf Öztep,Pankstraße 61,13357.0,Berlin,1401044
707452472,52.5463987,13.3696159,Backwaren,Reinickendorfer Straße 26,13347.0,Berlin,1401044
707490367,52.552227,13.3821164,Kiosk,Badstraße 25,13357.0,Berlin,1300733
725621498,52.4727399,13.3140969,,Rüdesheimer Straße 8,14197.0,Berlin,4400834
736620808,52.4746659,13.4232927,Kiezladen,,,,8100103
736787803,52.5278285,13.4101407,Pi pa po,Rosa-Luxemburg-Straße 45,10178.0,Berlin,1100310
745733025,52.4879348,13.430489,small all,Weserstraße 205,12047.0,Berlin,8100311
746478626,52.4875623,13.4375216,Honigbienchen Späti & Bakery,Weichselstraße 30,12045.0,Berlin,8100312
746853061,52.5802548,13.3988194,Babylon Café Bar,,,,3200206
747845608,52.4553748,13.5765726,Café Kiez,Bahnhofstraße 49,12555.0,Berlin,9501939
753361458,52.5704399,13.410203,Flick Flack,Berliner Straße 1,13187.0,Berlin,3400723
769270131,52.5745998,13.357608,Naturkost,Alt-Reinickendorf 6,13407.0,Berlin,12100205
769849999,52.566405,13.3632915,Resis Spät Shop,,,,12100102
778710944,52.5374494,13.408254,Spätkauf,Kastanienallee 26,10435.0,Berlin,3701554
778710967,52.5401664,13.4111403,Polats Minimarkt,Kastanienallee 5,10435.0,Berlin,3701554
790502632,52.532597,13.4207405,Dilek,Prenzlauer Allee 26,10405.0,Berlin,3701659
838429741,52.506133,13.4655484,Käptn Kiez,Sonntagstraße 28,10245.0,Berlin,2500834
838429759,52.5049744,13.4674633,Kiosk 24,,,,2500834
838429794,52.5046457,13.4678618,Die Späti Brüder,Sonntagstraße 2,10245.0,Berlin,2500834
846251052,52.4713935,13.3231813,Bio Grande,Wiesbadener Straße 82,12161.0,Berlin,7300516
847907650,52.4669419,13.5133836,Spätkauf 63,Edisonstraße 29 A,12459.0,Berlin,9200511
848169211,52.4668756,13.3198096,Kreuznacher Markt,Kreuznacher Straße 7,14197.0,Berlin,6100103
861837755,52.4575426,13.3843486,Karam Al-Sham,Tempelhofer Damm 207,12099.0,Berlin,7400927
863962594,52.5058829,13.4703076,Kiez Shop,,,,2500834
863962795,52.5072131,13.4684572,Boxi Spätshop,,,Berlin,2500832
863962912,52.5053759,13.4698461,Svennis Nachtshop,,,,2500834
867497539,52.5255327,13.3303661,Pamuk Shop,Gotzkowskystraße 30,10555.0,Berlin,1200521
867848037,52.499861,13.4191728,36boys,Adalbertstraße 4,10999.0,Berlin,2300314
886089002,52.4982415,13.4288427,Checkpoint Ali,Wiener Straße 14,10999.0,Berlin,2300417
886154881,52.4987698,13.4273223,,,,,2300417
920664308,52.4981816,13.3848148,Ökotussi,Großbeerenstraße 11,10963.0,Berlin,2200208
939667428,52.5414875,13.3487169,Late Shop am Virchow,,,,1401046
939667458,52.5416669,13.3494233,Media Point,Föhrer Straße 12,,,1401046
947301033,52.5533409,13.4083302,Lebensmittel und Getränke,,,,3601141
947978148,52.4895097,13.4084576,C@ll Shop,Körtestraße 35,10967.0,Berlin,2200212
975312186,52.5227533,13.4012964,BisSpäter,Neue Promenade 7,10178.0,Berlin,1100309
988401415,52.445943,13.500479,Mini-Markt,,,,9100407
991750714,52.4938895,13.4218188,latenight shop,,,,8100310
1003885734,52.5272929,13.4500121,Panorama Spätkauf,,,,3601452
1028138858,52.4885157,13.4287783,Backshop Tabak&Presse,Reuterstraße 56,12047.0,Berlin,8100311
1085324528,52.5469121,13.406241,Mauermarkt,Gleimstraße 11,10437.0,Berlin,3601142
1092250109,52.5154783,13.290879,Kiezmarkt mediterrane Welt,Danckelmannstraße 52,14059.0,Berlin,4300413
1095435039,52.5402467,13.4158448,Asia Mini Shop,Danziger Straße 20,10435.0,Berlin,3701555
1100350416,52.5394809,13.4238961,Danziger Express,Danziger Straße 71,10435.0,Berlin,3601348
1109675825,52.4854176,13.4268834,Asien Supermarkt Hao Cai Lei,Karl-Marx-Straße 15,12043.0,Berlin,8100314
1116716789,52.5348523,13.4379797,Lebensmittel,,,,3601451
1140906805,52.5065512,13.4698185,Ellîka Spätkauf,Neue Bahnhofstraße 69,10245.0,Berlin,2500832
1140914372,52.5100791,13.4620544,City Kiosk,Seumestraße 20,10245.0,,2500833
1140926746,52.5157165,13.4399122,K Mini Markt,Straße der Pariser Kommune 31,10243.0,Berlin,2400623
1140927943,52.5110245,13.4356582,Spätkauf am Ostbahnhof,Erich-Steinfurth-Straße 6,10243.0,Berlin,2400623
1140928753,52.5230609,13.4344701,Spätkauf Lebensmittel,,,,2400521
1140930611,52.519883,13.4516496,Spätshop 68,Petersburger Straße 68,10249.0,Berlin,2400522
1140935486,52.5222261,13.449453,Para Spätkauf,,,,2400522
1161375510,52.5534498,13.3921872,Aksu Kiosk,Jülicher Straße 24,13357.0,Berlin,1300733
1165884653,52.4870859,13.4291663,I ♥️ Drinks Kiosk,Reuterstraße 29,,,8100311
1172023257,52.6069342,13.4217062,Wohnung Werkstatt Garten Shop,,,,3200310
1181625810,52.5091058,13.4555933,Esperanto,Simon-Dach-Straße 18,10245.0,Berlin,2500834
1203130347,52.5624301,13.4133838,Tilia Naturkost,Berliner Straße 101a,13189.0,Berlin,3400829
1212618126,52.4800079,13.5214776,Müllers,,,,11501341
1213234319,52.5469795,13.4071727,Gleim Shop,Gleimstraße 13A,10437.0,Berlin,3601142
1221375859,52.5087859,13.4973357,Sipan Spätverkauf,,,,11400929
1225127392,52.5196117,13.1712485,Mias Späti,Sandstraße 66,13593.0,Berlin,5200527
1229435273,52.5102675,13.3053735,Borsa,Wilmersdorfer Straße 44,10627.0,Berlin,4300623
1251129216,52.5375585,13.4111971,Spätkauf,,,,3701554
1254238967,52.5887885,13.2856406,"Asia Lebensmittel, Tee & Geschenkartikel",,,,12200515
1255588542,52.4923613,13.4169147,kinzi discount,,,,2200213
1258615840,52.5236611,13.4391265,Spätshop,Landsberger Allee 38,10249.0,,2400521
1259381388,52.5014008,13.4934074,Minimarkt Mura,Weitlingstraße 117,10317.0,Berlin,11400929
1262166743,52.4568134,13.384211,24 H Shop,,,,7400927
1269798909,52.5541616,13.3397118,Kiosk 21,Otawistraße 21,13351.0,Berlin,1400937
1274104691,52.5211006,13.4470268,Schmidt´s Laden,,,,2400522
1293209218,52.5143319,13.4929949,Minimarkt,Fanningerstraße 18,10365.0,,11300724
1294929416,52.5258885,13.3070269,@y mierendorff net,,10589.0,Berlin,4300518
1305230438,52.518017,13.3168638,Sultan Shop,Guerickestraße 36,10587.0,Berlin,4300619
1305796906,52.4290688,13.341326,Back & Späti,,,,6200314
1307115292,52.4687842,13.4302906,Sarikiz Spätkauf 44,,,,8100104
1311121901,52.5062656,13.3113681,Iran Shop,Kantstraße 124,10625.0,Berlin,4300623
1313284328,52.5546103,13.4153894,neon Spätkauf,,,,3400827
1315201887,52.489136,13.4509862,Global Kontakt,,,,9100101
1320138052,52.4980049,13.4211603,Eis Mari,Reichenberger Straße 26,10999.0,Berlin,2300417
1324860212,52.4591429,13.5253076,Spätkauf,,12459.0,Berlin,9200511
1327231904,52.4916836,13.4169394,Bioladen,Graefestraße 69,10967.0,Berlin,2200213
1332197461,52.47496,13.3428619,,Rubensstraße 28,12159.0,Berlin,7300618
1335736683,52.5813689,13.4016524,Penny,,,,3200206
1344436749,52.475761,13.339905,Spätkauf,Hähnelstraße 11A,12159.0,Berlin,7300517
1345222866,52.5006355,13.4316495,The Shops,Lausitzer Platz 11,10997.0,Berlin,2300315
1346939681,52.5069169,13.4234636,Mini Markt,,,,1100313
1346939765,52.5029232,13.4202891,Spätkauf Olive,Adalbertstraße 80,10997.0,Berlin,2300314
1346939892,52.5117259,13.4167008,Asia Markt,,,,1100312
1348552225,52.4682986,13.4302019,Azzam Supermarkt,,,,8100104
1350982088,52.5485711,13.500718,Spätverkauf,,,,11200411
1356032933,52.5030129,13.3956038,Asia Super Shop,Lindenstraße 17,10969.0,Berlin,2100103
1356471635,52.4708586,13.3439672,Kevser,Rubensstraße 53,12157.0,Berlin,7300619
1372320330,52.4700074,13.4254726,Spätkauf,Warthestraße 16,12051.0,Berlin,8100104
1374234428,52.511525,13.4610655,Lebensmittel Getränke Tabakwaren Zeitungen,,,,2500833
1377854757,52.5035281,13.3842362,Ela Spätkauf,Stresemannstraße 72,10963.0,Berlin,2100101
1389043771,52.5295875,13.4258675,City Spätkauf,Greifswalder Straße 9,10405.0,Berlin,3701660
1389043782,52.5283516,13.425387,Spätkauf am Märchenbrunnen / Dogan Markt,Am Friedrichshain 33,10407.0,Berlin,3701660
1389419270,52.5282926,13.3937035,Spätkauf,,,,1100309
1389926121,52.5446717,13.2463188,,Gartenfelder Straße 58,13599.0,Berlin,5300737
1397070387,52.5049434,13.3679278,Staabi Back & Bistro Kiosk,,,,1100104
1412188997,52.547506,13.2597088,,,,,5300839
1420865586,52.5395099,13.2723203,Akman Feinkost,,,,5300839
1424999184,52.497054,13.4322378,Day & Night Shop,,,,2300418
1445299193,52.5141024,13.5543949,Biesm,,,,10300731
1453872495,52.4981356,13.2956324,Night Shop,,,,4500937
1455764529,52.5085725,13.4660361,MultiMarkt3,,,,2500833
1458646421,52.5541857,13.4142353,,Schönhauser Allee 99,10439.0,Berlin,3601139
1464069051,52.5146738,13.4629626,Regenbogen Späti,Frankfurter Allee 42,10247.0,Berlin,2500830
1471202665,52.5531116,13.3620341,Imbiss-Punjab;Punjab Spätkauf,Groninger Straße 28,13347.0,Berlin,1401049
1472157627,52.4884033,13.4270259,Robinhoodstore,Weserstraße 212,12047.0,Berlin,8100311
1476141581,52.5450604,13.4123349,7/24 Market,Schönhauser Allee 131,,,3601142
1500108107,52.4927794,13.4445307,Junkys Point,Karl-Kunger-Straße 1,12435.0,Berlin,9100101
1500156141,52.4802885,13.4375394,Pyza,,,,8100415
1515489375,52.5426837,13.3562697,Bioladen Café,Tegeler Straße 30,13353.0,Berlin,1401046
1531118797,52.5095164,13.4996572,Nazar Getränkeshop,,10317.0,Berlin,11400929
1531118804,52.5065556,13.5034289,Kiezladen,Zachertstraße 14,10315.0,Berlin,11400930
1535593154,52.4349246,13.5412763,ServiceStore DB,,,,9200715
1578269286,52.5714856,13.408441,Der Obstmann,,,,3400722
1578857510,52.4796484,13.4256815,Gizem,,,,8100206
1584563390,52.5391505,13.4229654,Spätmarkt,,,,3701555
1597742298,52.5313486,13.3457172,Spätkauf,Birkenstraße 21,10559.0,Berlin,1200623
1614361190,52.5006325,13.4220527,Lebensmittel Hillmann,Oranienstraße 20,10999.0,Berlin,2300314
1614528079,52.517851,13.4618701,Olive,,,,2500728
1625174234,52.4654868,13.4866565,Kiez-Kiosk,Baumschulenstraße 89,12437.0,Berlin,9100304
1633204905,52.513557,13.4740244,Hoa Mai Asia-Supermarkt,Frankfurter Allee 104,10247.0,Berlin,2500832
1637021706,52.5000597,13.4408296,Shisha Kiosk,Oppelner Straße 3,10997.0,Berlin,2300419
1653339106,52.5235713,13.4053774,Latino Point,Dircksenstraße 45,10178.0,Berlin,1100309
1657989689,52.5478164,13.3512729,,Brüsseler Straße 9,13353.0,Berlin,1400942
1667160188,52.4628371,13.4834482,Baumschulen Späti,Baumschulenstraße 70,12437.0,Berlin,9100304
1667160189,52.4630329,13.4836908,Baumschulen Späti,,,,9100304
1668788004,52.476671,13.3200611,We Love Späti,Hanauer Straße 80,14197.0,Berlin,4400835
1687719675,52.5579509,13.5538411,ServiceStore DB,,,,10100205
1692613261,52.4558558,13.5774293,Alan Minimarket,,,,9501939
1692613275,52.4556392,13.5772838,Obst Gemüse Getränke Lebensmittel,,,,9501939
1713176030,52.4901887,13.3612234,Azzam,,,,7100206
1713177124,52.4902201,13.3615476,நாகம்மா புடவையகம்,Willmanndamm 17,10827.0,Berlin,7100206
1721152114,52.532324,13.3405799,Merhaba Discount Ali,Birkenstraße 44,10551.0,Berlin,1200520
1742948314,52.5429314,13.4232484,Bäckerei Ergün,,,,3601348
1743741230,52.5062656,13.2835133,Spätkauf,,,,4300415
1758891018,52.5122969,13.4697138,MEY,,,,2500831
1766031942,52.4973075,13.4452756,späti,,,,2300419
1769968053,52.543873,13.4120203,,,,,3601142
1807541768,52.497357,13.4249683,Bäckerei & Café 36,,,,2300417
1831972687,52.550518,13.418591,Vervielfältigungsservice Breitfeld,Rodenbergstraße 33,10439.0,Berlin,3601243
1843136483,52.5495578,13.4238982,Spektrum Lebensfreude,Erich-Weinert-Straße 63,10439.0,Berlin,3601244
1845262965,52.5647786,13.3942494,pir Getränke,Wollankstraße 102,13187.0,Berlin,3400721
1847156092,52.5637284,13.3923484,Tausend Dinge,Wollankstraße 97,13359.0,Berlin,1300732
1848909329,52.4814436,13.4295163,Eck Oase,,,,8100206
1862169692,52.5102529,13.459522,Kiezladen,,,,2500833
1866365545,52.5254005,13.3415781,Internet-Telecafe,Alt-Moabit 86,10555.0,Berlin,1200522
1907577425,52.4853925,13.43274,Spätkauf,,,,8100312
1909902419,52.5177636,13.4688049,Back&Caffee Eck,,,,2500728
1912183755,52.5324805,13.3287154,GP GetränkeMarkt,Beusselstraße 43,10553.0,Berlin,1200519
1915389772,52.5167912,13.3077481,Keno,,,,4300621
1923316601,52.4724586,13.4592904,cebe Werksverkauf,Sonnenallee 227,12057.0,Berlin,8100520
1923320817,52.4107485,13.5184591,Milchhof Mendler,Lettberger Straße 94,12355.0,Berlin,8401246
1928634713,52.533499,13.406941,Presseshop&Spätkauf,,,,1100416
1928636123,52.5328558,13.4070136,Spätkauf,Choriner Straße 11,10119.0,Berlin,3701554
1948899764,52.518686,13.2877301,Sidar Mini Market,,14059.0,Berlin,4300413
1964250493,52.5330094,13.4223583,,,,,3701659
1965270924,52.4848909,13.4279806,Kiosk 23,,,,8100314
1965270960,52.4842379,13.4285263,CAN Getränke,,,,8100206
1965863431,52.4968006,13.4331118,Spätverkauf und Internet,Wiener Straße 28,10999.0,Berlin,2300418
1966836915,52.5176047,13.3179411,Michas Marktplatz,Guerickestraße 10,10587.0,Berlin,4300622
1979735269,52.4965201,13.3198419,Weltladen A Janela,,,,4501044
1979799014,52.439069,13.5509485,Sibir,Dörpfeldstraße 62,,,9200717
1980987092,52.5149112,13.4648549,Kiez Shop,Frankfurter Allee 51,,,2500728
1981140798,52.515992,13.4824955,Mini Markt,Normannenstraße 6,10367.0,Berlin,11300722
1985536781,52.4909025,13.325004,Chuchichäschtli,,,,4501149
1988000838,52.5537373,13.3391054,Jashims Tante-Emma-Laden,Otawistraße 23,13351.0,Berlin,1400937
2018958606,52.4494832,13.2519251,Reformhaus Demski,Onkel-Tom-Straße 99,14169.0,Berlin,6400840
2018959799,52.4420764,13.2410664,Reformhaus Demski,Fischerhüttenstraße 64,14163.0,Berlin,6400839
2029768594,52.5065814,13.3119339,Kantshop,Kantstraße 46,10625.0,Berlin,4300623
2072375894,52.4869402,13.35674,Kaiser Kiosk,Hauptstraße 18,10827.0,Berlin,7200409
2072853940,52.486351,13.4350101,Späti International,Weserstraße 190,12045.0,Berlin,8100312
2098290154,52.4355659,13.3449495,Reformhaus Demski,Kaiser-Wilhelm-Straße 77,12247.0,Berlin,6200313
2126092520,52.4883647,13.4265249,Trinko Store,,,,8100311
2127393893,52.5504744,13.363221,Backshop,,,,1401049
2127409174,52.5445952,13.3684959,Spätkauf - Sinan,Gerichtstraße 57,13347.0,Berlin,1300836
2131565441,52.4554898,13.32583,Feinkost Häusler,Albrechtstraße 120,12167.0,Berlin,6100208
2148260152,52.5657292,13.3969445,Spätkauf,Florastraße 4,13187.0,Berlin,3400721
2165164688,52.4862917,13.356029,Viani,Akazienstraße 1,10823.0,Berlin,7200409
2181178527,52.506863,13.394766,Tobacco & Drinks,,,,2100102
2183841807,52.505174,13.3862351,Spätkauf am Anhalter Bahnhof,,,,2100101
2190106003,52.4903911,13.3862445,Intern@net Call-Center,,,,2200209
2266759473,52.4909141,13.3961061,Aqua Getränke- und Weinhandlung,Gneisenaustraße 30,10961.0,Berlin,2200211
2285962041,52.4593252,13.3765862,Kısmet Market,Manteuffelstraße 45,12103.0,Berlin,7400825
2286884682,52.462517,13.1587273,Weichardts Hofladen,Kladower Damm 221,14089.0,Berlin,5400942
2287699197,52.51037,13.408449,Asia Markt,Alte Jakobstraße 77,10179.0,Berlin,1100312
2296927807,52.564078,13.4025395,Doppelpack Handels GmbH,Heynstraße 9,13187.0,Berlin,3400721
2297383210,52.5465572,13.3624695,Ultra Kiosk,Antonstraße 42,13347.0,Berlin,1401043
2300052118,52.5498899,13.3642803,First Class Telecafe,,,,1401049
2300052127,52.5500164,13.3640322,Max-Multi Shop,,,,1401049
2301610392,52.5500185,13.3644884,Sen Market,Schulstraße 117,13347.0,Berlin,1401049
2301610395,52.5515966,13.3669496,Spätshop,,,,1401049
2303114798,52.5490483,13.3638703,Abritus,,,,1401043
2303114813,52.5492312,13.3641607,Afroshop Marula,,,,1401043
2305236082,52.5474713,13.3649186,Backshop Spätverkauf,Prinz-Eugen-Straße 21,,,1401043
2306426962,52.5420164,13.3553233,,,,,1401046
2332757501,52.4638287,13.4337581,Antipasto,,12051.0,Berlin,8100209
2335083233,52.5123328,13.4540704,Day & Night Shop,Grünberger Straße 35,10245.0,Berlin,2500833
2335091426,52.5120577,13.4557455,Mini Markt,Grünberger Straße 49,10245.0,Berlin,2500833
2335267123,52.4914079,13.425735,Späti,,,,8100310
2342347250,52.469581,13.438672,Spätkauf,Emser Straße 11;10,12051.0,Berlin,8100208
2346564175,52.5162946,13.4461864,Ungarische Spezialitäten,,10243.0,Berlin,2400624
2352412654,52.5060444,13.3151924,T.G.E.,Kantstraße 133,10625.0,Berlin,4300624
2352673943,52.4754348,13.4395206,Bioase44,Karl-Marx-Straße 162,12043.0,Berlin,8100207
2361021964,52.5136918,13.3817259,Berlin City Market,Wilhelmstraße 84,,,1100205
2361562308,52.4838713,13.3833386,Elas Spätkauf 35,Manfred-von-Richthofen-Straße 10,12101.0,Berlin,7400720
2402339483,52.4900644,13.405571,Cennet,Südstern 2,10961.0,Berlin,2200210
2402905128,52.5042531,13.3435149,Spätkauf,,,,7100101
2403972911,52.5023513,13.4564495,Getränkeshop,,,,2500835
2420799063,52.5521543,13.4119221,Clerks Späti,Paul-Robeson-Straße 43,10439.0,Berlin,3601141
2420872154,52.5266575,13.3411538,Kiezshop All in one,,,,1200520
2420918363,52.584,13.3023832,Mini Markt Tieba,,,,12500825
2423398551,52.5104141,13.2440033,Stevos,Flatowallee 16,14055.0,Berlin,4200205
2429480918,52.5112438,13.4654553,Jung Shop,Jungstraße 19,10247.0,Berlin,2500831
2429501927,52.5099712,13.4579456,Meet Kiosk Spätverkauf,Gabriel-Max-Straße 20,10245.0,Berlin,2500833
2432876317,52.5022754,13.4326809,Kiosk Burhan Aykut,Wrangelstraße 24,10997.0,Berlin,2300315
2438849736,52.5090686,13.4591398,Select Drinks & More,Wühlischstraße 38,10245.0,Berlin,2500834
2454290040,52.4842094,13.3616064,Spätkauf,,,,7200413
2477057968,52.4775872,13.4253287,Tuna Naturwaren,Herrfurthstraße 2,12049.0,Berlin,8100102
2479053633,52.5015275,13.3214942,B&Y 7 Days Late Shop,,,,4501041
2484347004,52.4868603,13.4307177,Heil Quelle,,,,8100311
2484347012,52.4861775,13.4305783,Havin,,,,8100312
2496651179,52.4923797,13.3878394,Café Tinto,,10961.0,Berlin,2200211
2496841605,52.5101364,13.4583749,Quick Store Aquarium Lounge,Gabriel-Max-Straße 4,10245.0,Berlin,2500833
2538714890,52.5429975,13.4405078,Tele-Internetcafé Duman,Greifswalder Straße 159,10409.0,Berlin,3601245
2560422686,52.5527614,13.4331239,Kiez Eck,Streustraße 67,13086.0,Berlin,3500934
2566382658,52.5457718,13.3796045,Back & Späti,,,,1300836
2571168397,52.5167129,13.4654773,Samariter Tourist Shop,Samariterstraße 10,10247.0,Berlin,2500728
2591225594,52.4881174,13.4263919,Alpha and Omega International Afro Shop,Weserstraße 3-4,12047.0,Berlin,8100311
2618499940,52.4381824,13.5491157,ASIA Lebensmittel,Dörpfeldstraße 46,12489.0,Berlin,9200717
2625393031,52.4958735,13.4156315,Bauerngarten,Admiralstraße 21,10999.0,Berlin,2100106
2631445467,52.4694557,13.4375405,Spätkauf Stadt-Kiosk,Emser Straße 15,12051.0,Berlin,8100208
2641521427,52.4994276,13.4275171,Drinkshop,,,,2300315
2650259956,52.565193,13.445584,Paintballaden,,13089.0,Berlin,3300516
2654574019,52.5243154,13.3300717,Spätkauf Gotzkowsky,,,,1200521
2663080756,52.5041947,13.4791072,Kiez Einkaufseck,Kaskelstraße 28,,,11400927
2688507896,52.4709529,13.4456029,Azam Getränkeshop Spätkauf,Braunschweiger Straße 58,12055.0,Berlin,8100417
2690026209,52.506498,13.4703422,Best of Späti,,,,2500832
2720511292,52.5185335,13.3424145,Spätkauf,,,,1200629
2729010572,52.466622,13.4315906,Semsur,,,,8100105
2736043858,52.5396596,13.3712046,Spät & Backshop,,,,1300836
2745722989,52.5269513,13.3401211,Asia - asiatische Lebensmittel Geschenkartikel,Bredowstraße 2,10551.0,Berlin,1200520
2752211152,52.5567265,13.3851562,Akso Export,Prinzenallee 25-26,13359.0,Berlin,1300732
2752211158,52.5559834,13.3875475,Balkan,Osloer Straße 7,13359.0,Berlin,1300732
2752211176,52.557266,13.3855919,Orientshop,Prinzenallee 30,13359.0,Berlin,1300732
2756495812,52.5244792,13.39243,Spätkauf,,,,1100309
2756763461,52.5564501,13.3843315,Yiğido 58 Spätkauf,,,,1300730
2756763474,52.5638849,13.3916306,Spätkauf,,,,1300731
2769572946,52.5052313,13.379004,T.I.C 2,,,,2100101
2796270178,52.4995723,13.4431934,Kult Späti,Falckensteinstraße 5,10997.0,Berlin,2300419
2801187847,52.4979731,13.3190554,7 days Late Shop,,,,4501044
2813482370,52.4878189,13.4259311,Drinks Shop Hermann Platz,,,,8100311
2827585866,52.5278526,13.3258011,Ed & Fred Nussdepot,Huttenstraße 8,10553.0,Berlin,1200518
2860326047,52.537134,13.3971706,Tam Phuc Asia Shop Spätkauf,,,,1100416
2862295897,52.5198802,13.4525636,Djangos Place,Petersburger Straße 69,10249.0,Berlin,2500726
2874686038,52.4957469,13.3634199,Infinity,,,,7100205
2874686040,52.4951614,13.365856,Schland Night Shop,,,,7100205
2877252373,52.5266172,13.6116911,Spätverkauf,,,,10400835
2881543413,52.4768463,13.2902977,Hofladen im Kiez (Bioladen),,,,4400830
2926167818,52.4872469,13.4264387,Späti47,Sonnenallee 12,12047.0,Berlin,8100314
2935214601,52.5014304,13.4236592,Akasya Spätkauf,,,,2300314
2935221701,52.5422818,13.4118253,Shop 140,Schönhauser Allee 140,10437.0,Berlin,3601142
2935241502,52.4998177,13.4270118,Abschnitt 36,Manteuffelstraße 88,10997.0,Berlin,2300315
2935386822,52.4840417,13.4400067,Elbe Getränke,Weserstraße 171,12045.0,Berlin,8100312
2935555501,52.5085877,13.4622046,MultiMarkt,,,,2500833
2953781233,52.5645334,13.3635767,Spätkauf,Residenzstraße 48,,,12100204
2953846658,52.5608633,13.37182,Kaufshop Bafi,Reginhardstraße 34,13409.0,Berlin,12100101
2958353241,52.5859354,13.4022828,SpätiPate,Dietzgenstraße 57,13156.0,Berlin,3200205
2962777900,52.5060271,13.3021728,Späti am Stutti,,,,4300416
2973862795,52.4881456,13.3019098,#mein Spaetkauf,Hohenzollerndamm 156,10713.0,Berlin,4501146
3004064464,52.455164,13.576912,Weltladen Köpenick,Bahnhofstraße 9,12555.0,Berlin,9501939
3008816618,52.5156423,13.2935635,Gemeinwohl-Bioladen Lylla,Seelingstraße 18,14059.0,Berlin,4300413
3072013563,52.5177493,13.453781,Botan Späti,Petersburger Straße 87,,,2500727
3073260197,52.4994382,13.4395831,Spätkauf Wrangelkiez,Wrangelstraße 44,10997.0,Berlin,2300419
3073291314,52.4992017,13.4407618,Spätverkauf,Wrangelstraße 87,10997.0,Berlin,2300419
3113099753,52.4571231,13.5808138,Spätkauf,,12555.0,,9501940
3140301723,52.5434051,13.3638855,Müller Eck,Müllerstraße 163A,,,1401047
3147455157,52.5416403,13.3535499,Spätkauf King,,,,1401046
3149431447,52.5423337,13.3538487,,Samoastraße 23,,,1401046
3157747970,52.524287,13.3764534,Kiosk,Virchowweg 6,10117.0,Berlin,1100308
3194403750,52.4144672,13.2667275,Kiosk,Teltower Damm 213,14167.0,Berlin,6300528
3209504900,52.5014884,13.4415781,Late Shop,,,,2300316
3215985724,52.5026914,13.4222961,Uli’s Spätkauf,,,,2300314
3221929062,52.5450464,13.3777723,Der kleine Laden Spätkauf,Wiesenstraße 62,13357.0,Berlin,1300836
3225762385,52.4708617,13.3852966,ServiceStore DB,,,,7400720
3239265254,52.5030542,13.4888767,"Stern Backshop, Stehcafe, Kiosk",,,,11400929
3244632333,52.4367663,13.2618642,Reformhaus Demski,,,,6400841
3267343770,52.4239772,13.4576292,Kwik Markt,,,,8300935
3286264361,52.5385789,13.3980036,Mauerkiosk,Bernauer Straße 32,10115.0,Berlin,1100416
3294052242,52.4493869,13.6242669,Unverpackt,Bölschestraße 120,12587.0,Berlin,9501737
3306498748,52.5528632,13.4062087,Kietzmarkt,,,,3601141
3312315281,52.4791939,13.441365,Kiosk Carli 77,,,,8100415
3333071085,52.6078582,13.2349572,Kiosk,,,,12400619
3344202100,52.4985709,13.4417015,Kiez-Kiosk Spätkauf,Wrangelstraße 52,10997.0,Berlin,2300419
3348712211,52.5008448,13.408786,Kiezkiosk,,,,2100105
3362345317,52.5657443,13.3203746,Familia Market,,,,12200309
3373144216,52.4835558,13.4423444,JWANspäti,Wildenbruchstraße 83,12045.0,Berlin,8100312
3383020379,52.5540195,13.423999,Spätshop + Bäckerei,Neumannstraße 3a,13189.0,Berlin,3400828
3384540738,52.5565726,13.4148027,Spätkauf,,,,3400827
3393706957,52.5533974,13.4148642,Spätkauf,Schönhauser Allee 90,10439.0,Berlin,3601243
3393947819,52.5519495,13.3578031,Tabak Presse,,13347.0,,1401048
3398525115,52.5202364,13.4691729,Eldenaer Spätkauf 28,Eldenaer Straße 28,10247.0,Berlin,2500728
3409123517,52.5163714,13.4789615,Früchte & Asia-Lebensmittel,,,,11300722
3442711034,52.4899211,13.4555955,Mamas Spätkauf,,,,9100101
3442719667,52.4917023,13.4463661,Kiosk,,,,9100101
3442721070,52.4893607,13.4542337,Asia Lebensmittel,Elsenstraße 25,12435.0,Berlin,9100101
3442739322,52.4887011,13.4421223,Ost-West Späti,Onckenstraße 16,12435.0,Berlin,9100101
3465014815,52.5534542,13.4138249,Almaraii,Bornholmer Straße 96,10439.0,Berlin,3601141
3465036384,52.5541364,13.414996,Deutsche Post Filiale 600 Kiosk Späti,Schönhauser Allee 91,,,3400827
3499262003,52.4937138,13.4213641,Spätkauf,,,,2200213
3518024330,52.539707,13.4192635,We [love] Spät[i],Danziger Straße 44,10435.0,Berlin,3701555
3525872327,52.5375121,13.4236475,,Prenzlauer Allee 50,10405.0,Berlin,3701658
3530849181,52.5057276,13.3209924,Spätkauf Astier,Kantstraße 145,10623.0,Berlin,4300624
3578282893,52.5401614,13.4047421,Minimarkt,,,,3701554
3578321975,52.4740238,13.4240611,Oker Markt,Okerstraße 12,12049.0,Berlin,8100103
3590230294,52.5053915,13.3270228,Spätshop,,,,4300622
3602855064,52.5039591,13.3314855,KompaktKauf,,,,4501042
3615273496,52.5187962,13.4439393,,Auerstraße 12,,,2400522
3632641125,52.4872311,13.3577362,Haupt Getränke,,,,7200411
3644133594,52.5105338,13.4567401,Tobacco & Drinks,Simon-Dach-Straße 38,10245.0,Berlin,2500833
3670161824,52.4290924,13.3290394,Kiosk,,,,6200422
3677450357,52.5620681,13.2087876,Spätie,,,,5100103
3686251705,52.477875,13.4473738,Sonnen Spätkauf,,,,8100415
3710407323,52.5110557,13.3021293,Mini Market,Bismarckstraße 76,10627.0,Berlin,4300623
3712223331,52.4986146,13.3626548,Spätkauf,Potsdamer Straße 117/119,10783.0,Berlin,7100205
3712391645,52.5119635,13.3016627,Kaiser Spätkauf,Kaiser-Friedrich-Straße 78,10585.0,Berlin,4300414
3717599468,52.5215326,13.4111495,Yorma’s,,,,1100310
3721863451,52.5067185,13.3089922,Späti Bull,Kantstraße 52,10627.0,Berlin,4300623
3750154925,52.5038328,13.4473675,Spätkauf,,,,2400625
3757302128,52.5567564,13.3774997,Prime Shop,Koloniestraße 143,13359.0,Berlin,1300730
3789168245,52.4624408,13.5170444,Asia Supermarkt,Schillerpromenade 5,12459.0,Berlin,9200511
3789200614,52.4617007,13.517886,Spätkauf 30,Wilhelminenhofstraße 30,12459.0,Berlin,9200511
3792656709,52.4625301,13.5144455,Spätkauf,Wilhelminenhofstraße 16a,12459.0,Berlin,9200511
3798391366,52.4991411,13.3659567,Späti Wood,Kurfürstenstraße 164,10785.0,Berlin,7100205
3803590073,52.5508943,13.3477348,Multi Shop,,,,1400938
3811248574,52.5870126,13.2853657,Mini-Markt,,,,12200515
3826013967,52.498849,13.3537781,Late Night Shop,Nollendorfplatz 7,10777.0,Berlin,7100102
3837575417,52.4927196,13.3304108,Silla,Bundesallee 23,,,4501149
3855567146,52.4973293,13.3615177,DiVan,Potsdamer Straße 146,10783.0,Berlin,7100103
3862836914,52.5010418,13.3077052,,Wilmersdorfer Straße 93,,Berlin,4501040
3874366757,52.5064312,13.3999609,Späti Mustafa,Oranienstraße 105,10969.0,Berlin,2100103
3884577676,52.5242811,13.4176708,Spätkauf 24/7,,,,1100310
3886927364,52.5125551,13.4067388,Kiosk,,,,1100312
3888332839,52.5162234,13.2937195,Asia-Markt Lo,Nehringstraße 4 A,14059.0,Berlin,4300413
3896292628,52.5124095,13.4520316,Day & Night Shop,Grünberger Straße 32,10245.0,Berlin,2400624
3901340571,52.5388554,13.410288,Späti,,,,3701554
3902729686,52.5294395,13.4003701,24/7 shop,,,,1100309
3906183599,52.4637641,13.5135992,Internet/Spätkauf,Edisonstraße 54,12459.0,Berlin,9200510
3909159026,52.4641989,13.510527,Spätkauf Watt-Eck 81,Siemensstraße 12,12459.0,Berlin,9200510
3909557432,52.4574614,13.5111972,Russische Lebensmittel Christina,Brückenstraße 5,12439.0,Berlin,9200613
3912873852,52.4350743,13.5597093,,,,,9200717
3914046328,52.4524213,13.3333997,@lbrecht,Albrechtstraße 95,12167.0,Berlin,6100208
3933415411,52.5123866,13.4615435,B&P Spezialmarkt,,,,2500830
3933417011,52.5126319,13.4617026,Späti Reisebedarf & Souvenirs,,,,2500830
3937515257,52.5304925,13.4008212,Internetcafe,,,,1100416
3937876893,52.5321673,13.3947646,7. Himmel,Invalidenstraße 149,10115.0,Berlin,1100415
3954780447,52.5601414,13.3802921,Perle Spätkauf,Soldiner Straße 65,13359.0,Berlin,1300730
3968793066,52.5667036,13.4153573,Mini-Markt „Tante Emma Laden 2.0“,Stubnitzstraße 32,13189.0,Berlin,3400830
3982921773,52.5123086,13.4979315,Spätkauf,,,,11300725
3987047647,52.4539824,13.5189305,Schneller Back & Spätkauf,,,,9200613
3987051080,52.5313867,13.420016,Spätkauf,,,,3701659
3987051081,52.5114739,13.4165742,Mercan,,,,1100312
3987051082,52.4672956,13.4401302,Berliner Späti e.V.,,,,8100209
4004578362,52.4284692,13.3274133,Die Abfüller Lust auf Genuss,,,,6200422
4050299293,52.550019,13.3457554,Naturkost,Kameruner Straße 12,13351.0,Berlin,1400938
4066840139,52.5051104,13.4673053,Spätkauf OstX,,,,2500834
4083481126,52.5887962,13.2889889,Mini Markt Tegel,,,,12200515
4098463845,52.4881701,13.3676831,Pano Bakery,,,,7200414
4100572573,52.5461198,13.3903162,Youssef - Orientalische Lebensmittel,Brunnenstraße 98,,,1300834
4100572574,52.5457552,13.3905897,Townies,Brunnenstraße 95,,,1300834
4102963961,52.5340393,13.4054143,Soda,Kastanienallee 60,10119.0,Berlin,1100416
4109578506,52.5641319,13.3921666,Halal for you,Wollankstraße 27,13359.0,Berlin,1300731
4109584179,52.5643397,13.3925917,Späti,Wollankstraße 25,13359.0,Berlin,1300731
4111804289,52.4798299,13.4458594,Spätkauf,,,,8100418
4116116392,52.513245,13.4533273,Big Café & Kiosk,Warschauer Straße 78,,,2500833
4131336489,52.5221331,13.3272761,My Shop Kiosk,Helmholtzstraße 21,10587.0,Berlin,4300620
4135097790,52.461851,13.4452674,Spätkauf,Buschkrugallee 26,12359.0,Berlin,8200622
4138569081,52.4333295,13.1971641,Hans Nierlich Haus + Garten,Alemannenstraße 4a,14129.0,Berlin,6400737
4138580438,52.5454693,13.3581119,Atti Asia Markt,Luxemburger Straße 31,13353.0,Berlin,1401047
4139402061,52.5577242,13.3786754,Kiosk 45,Koloniestraße 20,13359.0,Berlin,1300730
4139411321,52.5574078,13.3778815,Spätkauf,,,,1300730
4139464889,52.5531673,13.3870306,Adanas Spätkauf,Bellermannstraße 83A,13357.0,Berlin,1300733
4149934389,52.5514807,13.4052058,Kiosk Beycani,Schivelbeiner Straße 18,10439.0,Berlin,3601140
4153062563,52.517248,13.465326,SoSo,,,,2500728
4155950167,52.5414938,13.3931469,Orsa Discount,Brunnenstraße 117,13355.0,Berlin,1300835
4157153871,52.5183818,13.4654159,Der Laden,,,,2500728
4185555186,52.5261484,13.4517394,KGB - Koschys Gemüse Butze,Ebertystraße 51,10249.0,Berlin,2500726
4188120734,52.4924697,13.4581773,Spätkauf,,,,9100101
4188213618,52.5346252,13.3588877,Späti 38,Lehrter Straße 38,10557.0,Berlin,1200624
4200072390,52.4749729,13.4270512,Kiosk Area 44,,,,8100103
4222272402,52.5307498,13.3832747,,,,,1100415
4223491592,52.5126792,13.4504279,Loans Supermarkt,Grünberger Straße 22,10243.0,,2400624
4225752738,52.5337388,13.3712985,Der kleine Laden,Scharnhorststraße 8,,,1100308
4244678196,52.5354907,13.35759,Spätkauf,,,,1200623
4250113292,52.5175346,13.3066551,Kompaktkauf,,,,4300619
4298702900,52.5426099,13.3620533,Drinks House,Burgsdorfstraße 3,13353.0,Berlin,1401047
4304138890,52.4896772,13.3612647,Shop & Specialities,,,,7200411
4304290491,52.5111832,13.458509,Maxi Spätkauf,Gabriel-Max-Straße 15a,,Berlin,2500833
4304633635,52.5446146,13.3604421,Trift Späti,Triftstraße 4,,,1401047
4304633809,52.5445521,13.3602681,Triftpunkt,Triftstraße 5,,,1401047
4311940492,52.5198684,13.414405,Friese Tabakwaren,,,Berlin,1100311
4318605968,52.5166872,13.197356,Spätkauf,,,,5200630
4320997490,52.5164703,13.4401422,Kiosk / Tabakwaren,Straße der Pariser Kommune 41,10243.0,,2400623
4321019535,52.5089349,13.3218533,Spätkauf,Goethestraße 6,10623.0,Berlin,4300624
4329431021,52.4937139,13.3991837,Umuts Spätshop,,,,2200210
4331556368,52.4812552,13.3201158,Aris Internet-Spätkauf & Presse,,,,4501148
4336215193,52.4794167,13.4442714,Multi Shop II,Sonnenallee 136,12059.0,Berlin,8100415
4339053529,52.5499582,13.3686152,Marhaba Supermarkt,,,,1401044
4339053530,52.5505343,13.3683263,Mos Spätkauf,,,,1401044
4340695690,52.517252,13.5556141,Papeterie Biesdorf,Oberfeldstraße 178,12683.0,,10300731
4351511594,52.5535135,13.376283,Contact Point,,,,1401044
4351511613,52.5488148,13.3634973,Kiosk Deika,Schulstraße 19,,,1401043
4351511616,52.5538644,13.3734706,Spätkauf,,,,1401044
4377515806,52.4853106,13.3453313,Nishi’s Späti & Asia World,,,,7200409
4381394723,52.5407447,13.3509937,Afro Asia,,,,1401046
4381394724,52.5412109,13.3503722,Afro Market,,,,1401046
4381394733,52.5410682,13.3505539,Jamal Afro Shop,,,,1401046
4381394738,52.5411515,13.3504451,Non Stop 24,,,,1401046
4396230903,52.5282692,13.3885394,,,,,1100415
4396230907,52.5295852,13.3800959,Spätkauf - Café - Backshop,Invalidenstraße 100,10115.0,Berlin,1100308
4409599066,52.4717958,13.4292161,Spätkauf 178,Hermannstraße 178,12051.0,Berlin,8100208
4411267178,52.5090049,13.3089785,Spätkauf Goethe,Goethestraße 31,10625.0,Berlin,4300623
4411487606,52.5271966,13.3324334,Spätkauf,Turmstraße 49,10551.0,Berlin,1200519
4412294194,52.5472505,13.3503121,Getränkemarkt Robin,Brüsseler Straße 12,13353.0,,1400942
4426987586,52.5336786,13.4050796,am2pm,Kastanienallee 58,10119.0,Berlin,1100416
4427992984,52.4851931,13.3760499,Späti for you,,,,2200209
4428728829,52.5129671,13.4172783,All In One Shop,Brückenstraße 10A,,,1100312
4429164789,52.5475615,13.4103123,Kiezshop day&night,Gleimstraße 39,10437.0,Berlin,3601142
4433827990,52.5400156,13.4243108,,Prenzlauer Allee 193,10405.0,Berlin,3601348
4436482287,52.5530442,13.3797404,Alo Spätkauf,,,,1401045
4436486384,52.5528933,13.3804693,Spätkauf,,,,1401045
4437587810,52.5542674,13.384554,Späti 030,,,,1300733
4439716023,52.556411,13.3731336,,,,,1401045
4440326607,52.5488787,13.2004694,Candy Shop,,,,5100312
4448386320,52.567858,13.3130606,,,,,12200309
4520970753,52.5248046,13.4505297,Kiosk,Kochhannstraße 30,10249.0,Berlin,2500726
4524897429,52.4755953,13.4399372,El-Fi,Karl-Marx-Straße 163,12043.0,Berlin,8100416
4533857105,52.5127092,13.4588488,Spätkauf,Boxhagener Straße 105,10245.0,Berlin,2500830
4534097102,52.5074247,13.4670986,Presse & Shop,,,,2500833
4537589639,52.5441031,13.547627,E&B,,,,10100210
4539206648,52.5526328,13.3799311,Naher el-Bred,,,,1401044
4542090687,52.5097257,13.5038489,Big Kiosk,Einbecker Straße 39,10315.0,Berlin,11400931
4542090688,52.5090188,13.5024592,,,,,11400929
4552123091,52.51907,13.3005531,Multishop @ Schloss,Otto-Suhr-Allee 143,10585.0,Berlin,4300621
4554002046,52.5127062,13.3048422,Emmas Markt,,,,4300621
4556060726,52.4499777,13.3457222,,,,,6100205
4558385311,52.5266687,13.3530311,ESEN,Turmstraße 6,10559.0,Berlin,1200625
4567083814,52.4473862,13.3155664,Spätkauf,,,,6300630
4589778490,52.4959997,13.5106044,Lial,Sewanstraße 178,10319.0,Berlin,11401135
4611035325,52.4765702,13.4263245,Kiosk,,,,8100102
4639783993,52.4449616,13.5757918,Lebensmittel Markt,,,,9401534
4641736546,52.5889204,13.2888342,Mini Markt,,,,12200515
4641736547,52.5899935,13.2877737,Mini Markt,,,,12200515
4642493362,52.5335506,13.3280416,Freundlicher Kiosk,Beusselstraße 44R,10553.0,Berlin,1200517
4672691085,52.4981159,13.464862,PrivatKoch.berlin,,,,2500835
4672835104,52.4989464,13.4644209,mini Getränkemarkt Tabakwaren,Corinthstraße 58,10245.0,Berlin,2500835
4686702513,52.5245585,13.3352403,Spätkauf,,,,1200522
4687270489,52.4576979,13.5114153,Spätkauf/GLS Paketshop,Brückenstraße 7,12439.0,,9200613
4689341990,52.4815726,13.4392257,Kanki-Shop,Erkstraße 16,12043.0,Berlin,8100314
4693388095,52.5202548,13.4132573,ALX,,,,1100310
4698884701,52.4588412,13.5269622,Asia Mini Market,Rathenaustraße 3,12459.0,Berlin,9200511
4707272047,52.4988145,13.3419925,Café Sawanna,Welserstraße 25,10777.0,Berlin,7100101
4709611465,52.4374786,13.2615262,Liebe Asia,Clayallee 333,14169.0,Berlin,6400841
4712129081,52.4661971,13.4875061,1000 kleine Dinge,Baumschulenstraße 92,12437.0,Berlin,9100304
4712129084,52.4664014,13.4877569,Q&T Sparland,Baumschulenstraße 93a,12437.0,Berlin,9100304
4712129085,52.4664729,13.4878481,Kiosk,Baumschulenstraße 93a,12437.0,Berlin,9100304
4774716422,52.5444905,13.368703,Spätkauf,Lindower Straße 14,13347.0,Berlin,1300836
4775130216,52.5063052,13.3107241,Kant123,Kantstraße 123,10625.0,Berlin,4300623
4789968670,52.5293739,13.3361377,Späti,,,,1200520
4799571388,52.5414444,13.3702322,Souvenir & more,Reinickendorfer Straße 8,,,1300836
4809992561,52.5687489,13.3994855,Wollank Minimarket,,,,3400721
4821450686,52.4337301,13.5380283,Kiosk,,,,9200715
4839177786,52.4864674,13.355819,Am Akazien Spätkauf,Akazienstraße 2,10823.0,Berlin,7200409
4846024710,52.5233456,13.4800036,Spät 63,,,,11300620
4870088447,52.5115755,13.4169426,Späti Spass,Brückenstraße 1A,,,1100313
4874345415,52.500459,13.4445106,M99 - Gemischtwarenladen für Revolutionsbedarf,Falckensteinstraße 46,10997.0,,2300419
4879044506,52.4781727,13.3281608,Spätkauf,Bundesplatz 9,10715.0,Berlin,4501151
4881993956,52.5081984,13.4627232,Gula Sor,Wühlischstraße 49,10245.0,Berlin,2500834
4887801413,52.4927514,13.4282575,Friedel Kiosk,,,,8100310
4889196428,52.5098726,13.4666474,Spätkauf,,,,2500831
4889866554,52.5131957,13.4821132,Spätkauf,,,,11300722
4902369112,52.5167241,13.4612204,Spätkauf,Proskauer Straße 8a,10247.0,Berlin,2500728
4907995176,52.5119567,13.4563393,md Mein Markt,Grünberger Straße 55,10245.0,Berlin,2500833
4908049915,52.5114605,13.4578312,Spätkauf 24h,Grünberger Straße 64,10245.0,Berlin,2500833
4908694246,52.5713594,13.379651,Multi-Shop,,,,12100102
4920773047,52.5084681,13.4595634,I Love Späti,Gärtnerstraße 33,10245.0,Berlin,2500834
4938816056,52.5392153,13.4116717,Erdbär,Schönhauser Allee 148,10435.0,Berlin,3701554
4965896087,52.5264704,13.3506553,u Zosi – Polnische Delikatessen,,,,1200625
4970236429,52.5002188,13.4442601,Kiezladen,,,,2300419
5008946464,52.4394263,13.2151357,Loki Regional Lokal,Breisgauer Straße 1a,14129.0,Berlin,6400838
5014542324,52.5373136,13.1878604,Kiosk 65,,,,5100316
5016416505,52.5306734,13.3280745,REWE To Go,,,,1200518
5032732330,52.5593926,13.3844073,BG MN Market Capris,Soldiner Straße 33,13359.0,Berlin,1300731
5036098432,52.5018627,13.3886359,Amira Market,,,,2100102
5036973213,52.5424785,13.414123,No Wodka,Pappelallee 10,10437.0,Berlin,3601347
5043097053,52.5012709,13.4189159,Spätkauf,,,,2300314
5061136924,52.4424452,13.4570782,EFE Backshop,Rudower Straße 7,,,8401138
5062318206,52.5012096,13.5015582,Lebensmittel,Rummelsburger Straße 57E,10315.0,Berlin,11401136
5089978455,52.5494487,13.4588849,Herr Buschmann - Alles in BIO,Smetanastraße 5,13088.0,Berlin,3500936
5111954943,52.4894421,13.3616577,Schwälmer Stube,Langenscheidtstraße 5a,10827.0,Berlin,7200411
5132524521,52.4170179,13.5811286,Naturkost Grünau,Regattastraße 133,12527.0,Berlin,9301126
5142881719,52.4801608,13.3525311,Spätkauf 06,,,,7200410
5154083340,52.5101013,13.5017875,H&E Spätkauf,Einbecker Straße 24,10317.0,Berlin,11400929
5167689747,52.4891132,13.353594,The Market,Akazienstraße 15,10823.0,Berlin,7200409
5190012435,52.5806306,13.4014062,Spätkauf,,,,3200206
5191728946,52.5243458,13.1972842,Yasmin,,,,5200630
5191729396,52.5226585,13.1974718,Zaman Al Khair,,,,5200630
5193755040,52.5264396,13.3369125,Spätkauf 80,Turmstraße 80,10551.0,Berlin,1200521
5223291544,52.5409488,13.4113238,Konsum Kutte,,,,3701554
5223291550,52.5407918,13.4130886,Snacks Drinks Factory,,,,3701555
5226545175,52.5314714,13.3816775,Bollywood Mini Market,,,,1100308
5239619469,52.497481,13.3615827,Potsdamer Getränke,,,,7100103
5248627028,52.5573857,13.3733445,Osteuropäische Spezialitäten,,,,1300730
5248627030,52.5573648,13.3733595,Asiatische Lebensmittel,,,,1300730
5250090818,52.4788187,13.3448333,Inn’s Eck,,,,7200308
5329414776,52.5276017,13.3870132,Mitte Clock,,,,1100415
5340487003,52.5282929,13.3861382,Night Shop Amir,Chausseestraße 9,,,1100415
5346650984,52.4553968,13.3260388,Spätkauf Steglitz,Albrechtstraße 119,12167.0,Berlin,6100208
5351286162,52.5517974,13.414541,Tonys Kiosk,Schönhauser Allee 86,10439.0,Berlin,3601243
5352674977,52.4998035,13.4243347,Spätkauf 36,,,,2300315
5363333353,52.5212337,13.3221721,Tabak & Getränke Shop,,,,4300620
5424941701,52.4797085,13.345952,jungenspäti,Hauptstraße 102,10827.0,Berlin,7200308
5424941706,52.4847772,13.3541632,Spätkauf Zu Spät,Hauptstraße 134,10827.0,Berlin,7200410
5471841985,52.525485,13.3569722,REWE To Go,Rathenower Straße 8,,Berlin,1200627
5486308621,52.498851,13.4458608,,Schlesische Straße 17,10997.0,Berlin,2300419
5489585701,52.4991696,13.4407955,Wrangel Shop,,,,2300419
5502001883,52.4994017,13.426962,Späti Kreuzberg,,,,2300315
5503456919,52.5167677,13.4623235,Trinkbar Spätkauf,,10247.0,Berlin,2500728
5528648737,52.5235442,13.4008739,AZ Minimarkt,Oranienburger Straße 90,10178.0,Berlin,1100309
5536638823,52.5332802,13.2064741,Minimarkt Stresow,Stresowplatz 16A,13597.0,Berlin,5100317
5548671621,52.5006832,13.4419836,,,,,2300419
5548816495,52.5429689,13.3694793,Late Night Spätkauf68,Reinickendorfer Straße 116,13347.0,Berlin,1300836
5571881938,52.4862013,13.3649725,Spätkauf Kopal,,,,7200414
5580923311,52.5249407,13.4012965,Eat Berlin,Rosenthaler Straße 40-41,10178.0,Berlin,1100309
5582920980,52.4913469,13.3939561,Call&More,,,,2200211
5582920981,52.491449,13.3934123,Spätkauf 54,Gneisenaustraße 19,10961.0,Berlin,2200211
5587090931,52.4610411,13.3851452,Vitaminchen,,,,7400927
5613723540,52.4887967,13.376466,,Katzbachstraße 12,10965.0,Berlin,2200209
5627611219,52.497781,13.3846856,,,,,2200208
5630437213,52.5255384,13.3073832,Eddis Späti,,,,4300518
5632343912,52.4931538,13.4253134,Bürkner 7/24,Bürknerstraße 24A,12047.0,Berlin,8100310
5641834848,52.4938405,13.3887301,Daye Spätkauf,,,,2200210
5648395321,52.5480192,13.3520847,Trinkstelle,Brüsseler Straße 49,13353.0,,1400942
5716675886,52.5443367,13.4180039,Der Sache Wegen,Lychener Straße 47,10437.0,Berlin,3601347
5754956329,52.5114944,13.2819373,Yellow Spätkauf,Königin-Elisabeth-Straße 10,14059.0,Berlin,4200311
5782596481,52.5157756,13.2621031,Reformhaus,,,,4200308
5782598629,52.5370324,13.1886819,Ro-Markt,,,,5100316
5796921742,52.5103521,13.2702711,Demski,,,,4200310
5806630454,52.565574,13.4075727,Asia-Markt,Florastraße 37,13187.0,Berlin,3400723
5807513622,52.4921356,13.4239469,Mira Food Store,Sanderstraße 4,,,8100310
5813033922,52.5294594,13.4043736,Spätkauf / Postshop,Torstraße 98,10119.0,Berlin,1100309
5820609154,52.5264256,13.3492921,Mini-Markt,,,,1200625
5885018033,52.5039961,13.3072677,SpätShop,,,,4501040
5889885346,52.5066135,13.3020308,Spätshop,,,,4300416
5908587153,52.5301502,13.4006576,,,,,1100415
5908587155,52.5297391,13.4003442,M.K. Spätshop,,,,1100415
5913018250,52.5278644,13.4085289,Heimgetränke,Alte Schönhauser Straße 4,10119.0,Berlin,1100309
5913018255,52.5257894,13.4068812,24-Seven Market,Alte Schönhauser Straße 25,10119.0,Berlin,1100309
5923190751,52.5428874,13.3757646,Bäckerei Spätkauf,Neue Hochstraße 30,,,1300836
5998109885,52.5488599,13.4127221,Asia-Markt,Kopenhagener Straße 2,10437.0,,3601142
6005003081,52.5023268,13.4314936,Sirplus,Eisenbahnstraße 42-43,10997.0,Berlin,2300315
6013588182,52.5102614,13.2967319,Deine Charlotte Späti,,,,4300416
6042233508,52.4894131,13.390699,Bella Späti,,,,2200211
6073186260,52.5023641,13.4563875,Back Shop,,,,2500835
6083287708,52.4640263,13.4436026,All in one Shop,Karl-Marx-Straße 278,12057.0,Berlin,8100209
6124908036,52.5392229,13.40017,Economat,,,,1100416
6135203779,52.5599961,13.3809377,Spätkauf,,,,1300730
6157289423,52.5677415,13.3786244,Lotto,,,,12100101
6157289433,52.5649852,13.3779262,Cafe All in one,,,,12100101
6157289437,52.5639742,13.3776416,Spätkauf Duki,,,,12100101
6221609397,52.505676,13.4470757,25 h shop,,,,2400625
6223462329,52.4860681,13.4297716,Taha Minimarkt Spätkauf,,,,8100314
6264712200,52.5104007,13.2841928,Bärlin Shop,Kaiserdamm 21,14057.0,Berlin,4200311
6274765726,52.5017546,13.3129938,The Market,Leibnizstraße 48,10629.0,Berlin,4501040
6284246624,52.5058318,13.3066662,25hours,,,,4300623
6284510342,52.4475867,13.3414904,City Spätkauf,,,,6100205
6289113659,52.4895302,13.4245241,Naz Spätkauf,Kottbusser Damm 70,10967.0,Berlin,8100311
6289209485,52.4947058,13.3524772,Glückskäfer,,,,7100204
6297137063,52.5337027,13.4365626,Max & Moritz,Bötzowstraße 51,10407.0,Berlin,3701660
6316591610,52.47124,13.4407467,Körner Spätkauf,,,,8100208
6331736857,52.4759444,13.4392843,Helin Spätkauf,Karl-Marx-Straße 156,12043.0,Berlin,8100207
6353225400,52.4774664,13.330302,Bundesmarkt,,,,4501153
6401271960,52.5087893,13.3146236,Asia Land Obst-Gemüse & Asia Lebensmittel,Goethestraße 65a,10625.0,Berlin,4300624
6418054532,52.5211194,13.5883966,Dream Shop,,,,10200629
6430624973,52.5331986,13.3287084,,Beusselstraße 44a,10553.0,Berlin,1200517
6457639384,52.5090101,13.460391,Baris-Ta,Wühlischstraße 22,10245.0,Berlin,2500833
6464021199,52.5154548,13.4677196,Hao Hao,Voigtstraße 40,10247.0,Berlin,2500728
6464021202,52.5150197,13.4675393,Schnell Minimarkt,Voigtstraße 43,10247.0,Berlin,2500728
6467627416,52.4628634,13.3195658,Getränke Shop Spätkauf,Lepsiusstraße 35,12163.0,Berlin,6100102
6501199795,52.510124,13.3062383,Spätkauf,Schillerstraße 40,10627.0,Berlin,4300623
6503854377,52.4540898,13.3292883,Spätkauf M & A,Albrechtstraße 107,12167.0,Berlin,6100208
6506856191,52.5517584,13.3708557,Afro International Markt,,,,1401044
6532305042,52.5505054,13.346582,Juniors Spätkauf,,,,1400938
6532305047,52.5512504,13.3482236,Monsieur Ebeny Africa Market,,,,1400938
6540660464,52.5152782,13.2880061,Sp@tkauf,,,,4300413
6548214376,52.5403563,13.40546,Bis Späti,Oderberger Straße 30,,,3701554
6569710892,52.5318196,13.3495937,Jiby,Perleberger Straße 54,10559.0,Berlin,1200623
6570389927,52.5041759,13.3753355,Yusufs Späti,,,,1100102
6571876492,52.5355659,13.3563111,Spätshop,Perleberger Straße 3,10559.0,Berlin,1200623
6580040823,52.4733481,13.4478031,frugibus,Zwiestädter Straße 10,12055.0,Berlin,8100416
6581421551,52.4808969,13.4344097,Champa Center,Boddinstraße 65,12053.0,Berlin,8100206
6593074839,52.4210154,13.1781712,Minimarkt,,,,6400735
6596706590,52.5459278,13.3448983,Von morgens bis Späti,,,,1400942
6596977798,52.5494561,13.3533154,Spätkauf Gönül,,,,1400942
6632057685,52.531583,13.3616685,Posty,Lehrter Straße 24E,10557.0,Berlin,1200624
6638517570,52.5134282,13.4554422,Ce Ba Supermarket,,,,2500833
6638539748,52.51384,13.4541743,City Spätkauf Mini Markt,Boxhagener Straße 13,,Berlin,2500833
6695121386,52.5523776,13.3792173,Som Afro Shop,,,,1401044
6700773085,52.5566572,13.3659415,Tante Emma Laden,Reinickendorfer Straße 59B,13347.0,Berlin,1401049
6709895166,52.5568894,13.4666418,Lycamobil Day & Night,Berliner Allee 209,13088.0,Berlin,3500933
6721933782,52.5153721,13.396898,Bundes Späti,,,,1100206
6739388160,52.5177495,13.3067802,Night Shop Richi,,,,4300619
6743813422,52.547049,13.3751367,Wiesen Back und Späti,Wiesenstraße 17,,,1300836
6744258498,52.5136297,13.2659222,REWE To Go,,,,4200310
6757978245,52.5067873,13.3324825,Spar Express,,,,4501042
6761500187,52.5452457,13.3691604,Kiosk & Backshop,,,,1401043
6783961355,52.4835867,13.4308644,latenight shop,,,,8100314
6795294506,52.5329386,13.4287575,Kiosk,Greifswalder Straße 206,,,3701659
6825107608,52.4934561,13.3650984,Spätkauf,,,,7100206
6846691466,52.5137269,13.4217724,REWE To Go,,,,1100311
6868834335,52.5287282,13.4021977,24-Seven Market,Rosenthaler Straße 69,10119.0,Berlin,1100309
6927919632,52.5062598,13.496215,Kiosk 47,Weitlingstraße 55,10317.0,Berlin,11400929
6932885261,52.5028036,13.3657508,P71,,,,1100104
6932885264,52.5031173,13.3662205,Berlin - Tag & Nacht Spätkauf,,,,1100104
6938259809,52.5014049,13.4419024,Drink Shop,,,,2300316
6949145452,52.4578468,13.3838808,Spice Village International Supermarkt,,,,7400825
7025879081,52.5356481,13.4334779,Central Food + Getränkemarkt,Danziger Straße 122,10407.0,Berlin,3701660
7053084877,52.5270468,13.3340028,Späti by Sticky,Turmstraße 47,10551.0,Berlin,1200519
7132010678,52.5063313,13.4503962,REWE To Go,,,,2500835
7143783086,52.4921123,13.4172698,Graefe Späti,Graefestraße 73,10967.0,Berlin,2200213
7152122818,52.5001116,13.3985682,BACK & TABAK SHOP,,,,2100105
7195094855,52.4937495,13.507647,Tante Emma Laden,Dolgenseestraße 8A,10319.0,Berlin,11401135
7229104069,52.4923657,13.4236297,,,,,8100310
7233140300,52.5073868,13.4609738,Späti 04,Simplonstraße 29,10245.0,Berlin,2500834
7233815683,52.4851352,13.3846162,Duden Spätkauf,,,,2200209
7237064969,52.5506605,13.4148913,Asia Mekong,,,,3601243
7239671331,52.47188,13.4455819,GOP Market,Schöneweider Straße 11,,,8100417
7252363283,52.4733372,13.426349,G-K Kiosk,Leinestraße 6,12049.0,Berlin,8100103
7252377714,52.5048929,13.4688097,,,,,2500834
7253103663,52.4744434,13.4273338,Späti 70,,,,8100103
7253123115,52.473685,13.4277362,Yörem Baklava,,,,8100103
7260706585,52.4959,13.3215,Fair unverpackt,Düsseldorfer Straße 12,10719.0,Berlin,4501044
7261229893,52.4769961,13.4242529,lieberspätiealsnie!,,,,8100102
7273899887,52.5170947,13.4540216,JaDilo,,,,2500727
7273899891,52.5170204,13.4540466,Mini Markt,,,,2500727
7289003922,52.5420621,13.4228421,La Bodega,Senefelderstraße 27,10437.0,Berlin,3601348
7291373630,52.5456231,13.4206904,Biomeile,Stargarder Straße 63,10437.0,Berlin,3601347
7296525277,52.5147816,13.4619901,Spätkauf Olive,Frankfurter Allee 36B,10247.0,Berlin,2500830
7296855673,52.5635744,13.3640125,Time to Shop,,,,12100204
7308566114,52.5418025,13.4208702,Asialebensmittel,Raumerstraße 16,10437.0,Berlin,3601348
7331366121,52.4925449,13.4211554,Firat Spätkauf,,,,2200213
7347092785,52.4771625,13.4488006,,,,,8100415
7353865378,52.4837245,13.3839439,Grünschnabel,Manfred-von-Richthofen-Straße 9,12101.0,Berlin,7400720
7399471666,52.506611,13.2939666,Kiosk Shop,,,,4300416
7476846914,52.4479264,13.4842132,Kiosk,,,,9100306
7501213965,52.5520684,13.3842909,Spätkauf,,,,1300733
7526958135,52.5192928,13.1713645,Supermarkt Tabarak,,,,5200527
7533520606,52.5267464,13.3514996,Beron Market,,,,1200625
7541757198,52.513565,13.4534698,SB MyBro,Warschauer Straße 80,,,2500833
7590570269,52.4933643,13.4178183,Hane,,,,2200213
7598149826,52.4746042,13.3287763,Romania Markt,Bundesallee 134,12161.0,Berlin,7300517
7598895276,52.4693807,13.3321452,dein Markt,Schmiljanstraße 18,12161.0,Berlin,7300517
7605882339,52.5543561,13.3446507,Multi Shop,Müllerstraße 120,13349.0,Berlin,1400937
7609092403,52.553844,13.3455819,,Müllerstraße 122A,13349.0,Berlin,1400938
7612272366,52.5564623,13.3418179,Eko Market,Müllerstraße 66,13349.0,Berlin,1400939
7619972077,52.4913924,13.4233919,Daily Shop,Kottbusser Damm 79,10967.0,Berlin,8100310
7627025801,52.5434887,13.3968566,Multishop Eisenkralle,Swinemünder Straße 86,13355.0,Berlin,1300834
7650143968,52.4701257,13.4313706,Back Shop,Schierker Straße 23,12051.0,,8100208
7660503822,52.5074724,13.30919,Späti 4 You,Krumme Straße 41,10627.0,Berlin,4300623
7682218085,52.5211636,13.411378,(hub)convenience,,,,1100310
7709526506,52.5011467,13.491734,Kiez Shop,Lückstraße 22,10317.0,Berlin,11400928
7710976602,52.5603455,13.3808334,Backshop,,,,1300731
7728924601,52.5520885,13.3914105,Jülicher Minimarkt,Jülicher Straße 8,13357.0,Berlin,1300733
7749865515,52.5240803,13.4137336,Berlinshop,Alexanderstraße 1,10178.0,Berlin,1100310
7761726675,52.5474168,13.3469841,Arino Spätkauf,,,,1400942
7764085885,52.512938,13.3972399,Adriano & Rach,Hausvogteiplatz 13,10117.0,Berlin,1100207
7764085985,52.5113005,13.4069519,,,,,1100312
7767847100,52.4793893,13.3104642,Spät Shop,Mecklenburgische Straße 24a,14197.0,Berlin,4400830
7773607314,52.5464417,13.3488192,Afroshop Casa-Tropical,,,,1400942
7775194172,52.4885166,13.3946276,Spätkauf 25,Friesenstraße 25,10965.0,Berlin,2200211
7797154083,52.4963105,13.4155983,Spätkauf,,,,2100106
7798400776,52.4862728,13.3229522,Berliner Kiosk,,,,4501150
7804824563,52.4639137,13.4256744,Lädchen im sunpark,Mariendorfer Weg 24,12051.0,,8100105
7867810046,52.5370955,13.4280663,,Winsstraße 41,10405.0,Berlin,3701658
7869333375,52.4810374,13.4371154,fast shop,Erkstraße 5,12043.0,Berlin,8100415
7877976455,52.5487969,13.3496502,Weltladen Wedding,Seestraße 35,13353.0,Berlin,1400942
7948555755,52.5557347,13.5639969,Asia-Shop,Mehrower Allee 36,12687.0,Berlin,10100208
7951876010,52.5000633,13.4433719,Smoke Drink,,,,2300419
8039726233,52.5109746,13.3055846,Spätshop,Wilmersdorfer Straße 134,,,4300623
8075423310,52.4774231,13.428831,Aimys Backshop,,,,8100207
8095094763,52.4809682,13.4366464,Afro Shop - Tropical Markt,Erkstraße 3,12043.0,Berlin,8100415
8165308848,52.460471,13.5222507,Spätkauf 63,,,,9200511
8177206746,52.4624278,13.3263509,The 25 Hours Store,Schloßstraße 117,12163.0,Berlin,6100103
8205928789,52.499854,13.3021278,Damaschke Shop,,,,4500936
8222300375,52.4856413,13.3515127,Ährensache,Eisenacher Straße 56,10823.0,Berlin,7200409
8223127022,52.4851141,13.3521526,city Market,Eisenacher Straße 59,10823.0,Berlin,7200409
8245997132,52.4843859,13.3206479,REWE To Go,,,,4501150
8255148508,52.5479217,13.5041232,Juvit Natur,Hauptstraße 9,13055.0,Berlin,11200411
8257529783,52.4869406,13.3281402,Balkan Minimarkt EU 2,Berliner Straße 17,10715.0,Berlin,4501149
8264923018,52.4952316,13.3349458,Spätkauf am Nachodeck,Nachodstraße 5,10779.0,Berlin,4501045
8264923020,52.4953025,13.3343477,Carpatia Markt,,,,4501045
8281283699,52.4190628,13.1589363,Aral,,,,6400735
8285839578,52.5582845,13.3656044,Späti,,,,12100101
8290426019,52.5043185,13.4276101,Kreuzberger,,,,2300315
8290426023,52.5021214,13.4290356,Büdchen,,,,2300315
8290426028,52.5035506,13.4295046,Späti 36,,,,2300315
8320408698,52.4823291,13.4431764,Kiosk Backshop Tunc,Finowstraße 9,,,8100418
8320782399,52.5161836,13.1972158,Huppiduppi Spätkauf,Pichelsdorfer Straße 29,13595.0,Berlin,5200630
8323288146,52.4819696,13.4399523,Kiosk mit Lotto,Sonnenallee 105,,,8100312
8389925453,52.4925816,13.3312131,Spätkauf,Bundesallee 199,10717.0,Berlin,4501152
8398386453,52.6133651,13.4332586,Hem,,,,3200309
8413213041,52.4529939,13.5141699,Spar Express,Michael-Brückner-Straße 25,12439.0,Berlin,9100409
8423624620,52.4804662,13.3509311,Mandachi Afromarkt,Dominicusstraße 46,10827.0,Berlin,7200308
8432385311,52.5685054,13.3622282,Spätkauf,,,,12100103
8437854118,52.4678126,13.4418287,Spätkauf Silbereck,,,,8100209
8478519167,52.5352982,13.5227802,Total,,,,10100311
8483279509,52.4192256,13.3192762,Total,,,,6200422
8516433535,52.5585895,13.3708729,Spätkauf,Hansastraße 17,13409.0,Berlin,1300730
8588995991,52.5199112,13.3550098,Shell,,,,1200626
8622320265,52.5110521,13.2947579,Alan,,,,4300414
8686629766,52.5388135,13.4924356,"Obst, Gemüse, Getränke",,,,11200514
8728828814,52.5718244,13.3803503,Spätkauf,,,,12100102
8735608879,52.5017546,13.3129938,The Market,Leibnizstraße 56,10629.0,Berlin,4501040
8735688397,52.5050383,13.3176509,Spätkauf 59,Schlüterstraße 59,10629.0,Berlin,4300624
8766255537,52.4179609,13.5798336,Tommys Minilädchen,Regattastraße 120,12527.0,Berlin,9301126
8766255543,52.4199942,13.5785091,Tuans Späti,Regattastraße 89,12527.0,Berlin,9301126
8775512439,52.485462,13.4258668,Oriental Shop,Karl-Marx-Straße 12,12043.0,Berlin,8100206
8775512441,52.4854094,13.4259762,Marx shop 12,Karl-Marx-Straße 12,12043.0,Berlin,8100206
8783823473,52.5153286,13.4715926,Späti,Rigaer Straße 57,10247.0,Berlin,2500729
8829476449,52.4934992,13.5066456,Asia 9,,,,11401135
8833770016,52.4434355,13.3154091,Siriketha,Hindenburgdamm 92,12203.0,Berlin,6300633
8833792861,52.4441728,13.3153061,Ayoob Market,Hindenburgdamm 88,12203.0,Berlin,6300633
8839649642,52.4988108,13.2960555,Kiosk & Kaffeehaus,Joachim-Friedrich-Straße 42,10711.0,Berlin,4500937
8857125302,52.4824704,13.4414,Berlin Spätkauf,Wildenbruchstraße 5,,,8100418
8890286247,52.5421037,13.39272,Nidos Späti,Brunnenstraße 113,,,1300835
8896048660,52.5246035,13.3396995,Back- und Getränkeshop Yasar,Krefelder Straße 18,10555.0,Berlin,1200522
8918782091,52.4899624,13.425536,L5 Späti,Lenaustraße 5,,,8100311
8952325667,52.4606183,13.3769334,Spätkauf,,,,7400824
8989690899,52.4826253,13.381665,Ronya Minimarkt Spätkauf,,12101.0,Berlin,7400720
9015007575,52.5329554,13.3275975,Le prunier,Sickingenstraße 1,10553.0,Berlin,1200517
9051713158,52.4722994,13.3775921,Spätkauf & Back Shop,,,,7400720
9073418329,52.5487016,13.4499628,Minimarkt,,,,3500935
9073418330,52.5499864,13.445876,Mini Markt,,,,3500935
9073418332,52.5487163,13.4520471,Späti to go,,,,3500935
9073606224,52.5499705,13.4578066,Kany Getränke,Berliner Allee 95,13088.0,Berlin,3500935
9073812247,52.5597554,13.4128012,Spätkauf,Berliner Straße 49,,,3400826
9073823860,52.5518023,13.4662136,Bäckerei & Cafe - Leo,Berliner Allee 158,13088.0,Berlin,3501038
9077238488,52.503322,13.4380163,Baba Späti II,,,,2300316
9091314041,52.5487018,13.3478032,Minimarket Bulgaria,Seestraße 105,,,1400938
9097623441,52.4814301,13.4311722,Магазин Родина,,,,8100206
9114794715,52.4256948,13.4633031,,,,,8300935
9160600487,52.554596,13.3977442,ServiceStore DB,,,,3601140
9160651387,52.554609,13.3980107,ServiceStore DB,,,,3601140
9166121509,52.55922,13.413635,Spätkauf,,,,3400827
9178061413,52.509047,13.314067,Ak Spätshop,Leibnizstraße 82,10625.0,Berlin,4300623
9198286166,52.5554203,13.3749103,Spätkauf,,,,1401045
9201250436,52.5715757,13.3737396,,,,,12100102
9225259021,52.5584232,13.4327762,Total,,,,3300516
9262040839,52.5492766,13.3489436,Spätkauf Sunside,Seestraße 102,,,1400938
9264363463,52.4396254,13.3516159,Rewe to go,,,,6200313
9286853352,52.4529551,13.4387484,Britzer Spätkauf,,,,8200623
9298567404,52.4264522,13.3318003,Kebe,Lorenzstraße 58,12209.0,Berlin,6200422
9355733804,52.5045995,13.4952382,Alan Späti,,,,11400929
9408430207,52.5609764,13.3811221,Backshop Kiosk 38,Koloniestraße 38,13359.0,Berlin,1300731
9410449829,52.4895086,13.4148135,DMX Shop,Graefestraße 38,10967.0,Berlin,2200212
9420708664,52.5494778,13.4584145,,,,,3500936
9421237667,52.4895548,13.3487739,Spätkauf,,,,7100204
9421237669,52.4890896,13.3488826,Späti Wunderlampe,Eisenacher Straße 42,10823.0,Berlin,7200409
9423507588,52.5490036,13.454938,Flink,Berliner Allee 70,13088.0,Berlin,3500936
9429184186,52.4981276,13.2954425,,,,,4500937
9431768938,52.5501676,13.4600182,Helin Spätkauf,,,,3500936
9436615201,52.5494296,13.4146269,ServiceStore DB,,,,3601243
9442262038,52.5207694,13.3335452,REWE To Go,,,,1200522
9458740130,52.4802767,13.3525697,Spätkauf,,,,7200410
9461311198,52.5669204,13.3623696,Woolworth,,,,12100204
9461313721,52.5743856,13.3598899,Klemke Kiosk,,,,12100103
9482041531,52.4772428,13.4350519,Sp*ti Kiezladen,,,,8100207
9609536118,52.4871035,13.3233769,Chawla Store Kiosk,,,,4501149
9651437284,52.5360263,13.2039572,u Zosi - Filialie Nr. 2,Breite Straße 63,13597.0,Berlin,5100316
9655515803,52.4838581,13.3552811,Baba Späti,Feurigstraße 55,10827.0,Berlin,7200410
9657884217,52.4853083,13.3629026,SpeedySpäti,Kolonnenstraße 14,10829.0,,7200413
9668647516,52.4545008,13.624856,Karls manufakturen MARKT,,,,9501737
9675677189,52.565593,13.3734825,Unser Kaufmann,Reginhardstraße 98,13409.0,Berlin,12100101
9710866805,52.451746,13.4385183,Rewands Mini Market,Britzer Damm 121,12347.0,Berlin,8200726
9721099214,52.5524486,13.3881865,The Rabbit,Bellermannstraße 79,,,1300733
9741677658,52.5433004,13.376407,Minimarkt Wedding,Gerichtstraße 10,,,1300836
9762108276,52.4752777,13.2916571,Night Shop,Breite Straße 22A,14199.0,Berlin,4400832
9794512254,52.4641408,13.3173966,Lateshop,Schildhornstraße 21,12163.0,Berlin,6100103
9797339523,52.5663363,13.5198514,Syriana Halal Supermarket,Warnitzer Straße 6,13057.0,Berlin,11100204
9815364428,52.4440097,13.3863579,Spätkauf Kaffee & Kuchen,Mariendorfer Damm 97,12109.0,Berlin,7501031
9823829854,52.5539769,13.3875942,Flip Flop,Stettiner Straße 20,13357.0,Berlin,1300733
9844455057,52.5067491,13.4964999,Trang Asia Supermarkt,Weitlingstraße 49,10317.0,Berlin,11400929
9846839540,52.4994903,13.4164685,Cankat Späti,,,,2100105
9851080877,52.527275,13.3281364,Alamir,Huttenstraße 72,10553.0,Berlin,1200518
9917944555,52.5865129,13.3673521,Kiezladen Wilhelmsruh,Hauptstraße 24,13158.0,Berlin,3400619
9929107284,52.4561705,13.3836036,Spätkauf 222 Tempelhof,Tempelhofer Damm 222,12099.0,Berlin,7400825
9937044800,52.5481224,13.3983783,3 Brüder - Feinmarkt,Bärbel-Bohley-Ring 2,13355.0,Berlin,1300834
9963977597,52.5533981,13.4350349,Botan Shop,Langhansstraße 94,,,3500934
9982099019,52.5349049,13.4236558,Schätzchen,Marienburger Straße 5a,10405.0,,3701659
10003644032,52.5293355,13.3385369,Day-n-night Späti,Bremer Straße 11,10551.0,Berlin,1200520
10015418517,52.5472988,13.3583897,Späti am Leopold,Nazarethkirchstraße 53,13347.0,,1401048
10015764560,52.5332463,13.424969,The Winsy Späti,Winsstraße 14,10405.0,Berlin,3701659
10035647561,52.5474668,13.4140894,,Stargarder Straße 2,10437.0,Berlin,3601346
10035799726,52.5457547,13.4132813,Mate Mate Spätshop,Schönhauser Allee 62,10437.0,Berlin,3601346
10035842243,52.5439948,13.4128254,Multishop,Schönhauser Allee 57,10437.0,Berlin,3601346
10035890556,52.5424177,13.4126322,meinspätkauf.de,Schönhauser Allee 49,10437.0,Berlin,3601346
10045257317,52.5449548,13.4267595,Ari Mini Markt,Kanzowstraße 17,,,3601244
10053826429,52.5457019,13.417076,Yonkel Ork,Pappelallee 63,10437.0,Berlin,3601346
10061362362,52.4945129,13.4597253,MUCA Kiosk,Martin-Hoffmann-Straße 16,,,9100101
10067171638,52.4512314,13.3385777,alpha ousies,,,,6100204
10074966372,52.5381175,13.415034,Erna,Knaackstraße 69,10435.0,Berlin,3701555
10075119373,52.5461139,13.4125811,Ali Baba Späti,Schönhauser Allee 127A,10437.0,Berlin,3601142
10078364349,52.5647813,13.3782758,La Neamtu,,,,1300731
10080410456,52.5237454,13.3991498,Kaya.P,,,,1100309
10080485097,52.4932469,13.4346448,Ganesa Spätkauf,,,,2300418
10098812512,52.4740166,13.3388093,REWE To Go,Hauptstraße 86,12159.0,Berlin,7300618
10103240876,52.5319371,13.6028974,Hellersdorfer Minimarkt,Schneeberger Straße 3,12627.0,Berlin,10200526
10106683990,52.5037784,13.40279,BBK Backshop,Ritterstraße 41,10969.0,Berlin,2100103
10106683991,52.5039841,13.4021066,Berks Backshop,,,,2100103
10111578842,52.5027416,13.3953945,Berlin Kiosk,Lindenstraße 16,10969.0,Berlin,2100103
10124884263,52.489661,13.3534564,Kiez Kiosk Späti,Akazienstraße 18,10823.0,Berlin,7200409
10128949517,52.482043,13.4236478,Nil,Karlsgartenstraße 20,12049.0,,8100101
10141301394,52.5230044,13.1988745,Spätkauf,,,,5200631
10142874192,52.4995933,13.4089126,Furkan Market,,,,2100105
10159421696,52.5008713,13.4126871,"Tabakwaren, Zeitungen, Lotto",Ritterstraße 4-5,10969.0,Berlin,2100104
10169580366,52.4633847,13.4341398,Kiezstore 44,,,,8100209
10228989617,52.5503754,13.3626743,Anas Multishop,,,,1401048
10276611650,52.5416613,13.4132583,hutfabrik,Pappelallee 4,,,3601347
10282680209,52.5184763,13.4152782,Americanfood4u.de,Dircksenstraße 97,10178.0,Berlin,1100311
10290515369,52.4808295,13.4339179,Afro-Shop,Boddinstraße 64,12053.0,Berlin,8100206
10291361388,52.4677974,13.3859994,Yildiz market,,,,7400927
10291960053,52.564819,13.3280379,Masala Market,,,,12200309
10292188833,52.5509128,13.4428238,Ossi,Langhansstraße 122,13086.0,Berlin,3500935
10311152256,52.4548771,13.3273309,Sweets & Paper,Albrechtstraße 114,12167.0,Berlin,6100208
10540009034,52.4826635,13.4320124,Späti 61,Karl-Marx-Straße 60,12043.0,Berlin,8100206
10559266027,52.5244782,13.3490165,Siri Späti,,,,1200626
10595269898,52.4474487,13.3856534,Lotto Toto Kilic,Mariendorfer Damm 59,12109.0,Berlin,7501031
10595706365,52.5392935,13.4219175,Minimarkt,Danziger Straße 60,10435.0,Berlin,3701555
10603028959,52.5531315,13.4333835,Botan Shop,Gustav-Adolf-Straße 160,,,3500934
10604555729,52.5405217,13.3909481,I. Café @ Kiosk,,,,1300835
10656566373,52.4474341,13.3851889,Spati Shop,Mariendorfer Damm 60,12109.0,Berlin,7501030
10674188131,52.5271444,13.3411645,Tele Center,Wilhelmshavener Straße 70,10551.0,Berlin,1200520
10680707413,52.4976502,13.346378,Vital Spätkauf,,,,7100102
10685954216,52.5390493,13.4052355,,,,,1100416
10688182967,52.5477226,13.4342272,Minimarkt 39,,,,3601245
10693140814,52.5023103,13.4202202,treffpunkt,,,,2300314
10710895029,52.5842805,13.2879358,REWE To Go,,,,12200515
10719447727,52.5242824,13.3317078,Bazarche Hafez,Alt-Moabit 45,,,1200521
10743721439,52.5237001,13.387221,,,,,1100308
10748234853,52.5137055,13.4554472,Boximarkt,Boxhagener Straße 116,10245.0,Berlin,2500830
10755840510,52.5440904,13.3627229,Barakat Supermarkt,Müllerstraße 160,,,1401047
10761677079,52.5379404,13.2040852,Spar,,,,5100316
10770738600,52.5327276,13.3332264,Spätimo,Siemensstraße 13,10551.0,Berlin,1200519
10770790453,52.5534828,13.4131995,,,,,3601141
10791281758,52.5307543,13.4308969,,Käthe-Niederkirchner-Straße 11,,,3701660
10804788435,52.4987028,13.4071056,Prinzen-Späti,,,,2100105
10814372130,52.5407536,13.3945494,bangla bazar,Brunnenstraße 65,,,1300834
10815812084,52.4606602,13.4323118,Kiez Shop,,,,8200624
10914516039,52.4560686,13.3209873,DAN Asia Markt,,,,6100102
10931265400,52.538473,13.206815,Diyar Späti,,,,5100316
10956460956,52.5371348,13.6204289,Louis Späti,,,,10200524
10982675038,52.5503578,13.3846537,,Badstraße 66,,,1300836
11014773819,52.5201193,13.3875247,Yorma’s,,,,1100206
11016426972,52.5352969,13.3557663,Aksaray Späti & Backshop,,,,1200623
11025761916,52.5251037,13.328004,Spätkauf Spree,,,,1200521
11030379594,52.5171008,13.3043667,City Shop Kiosk,,,,4300621
11057524271,52.5112179,13.4935277,REWE To Go,,,,11300826
11065758287,52.5118756,13.3070973,,Bismarckstraße 38,10627.0,Berlin,4300621
11084323704,52.4919412,13.3947362,E-Market,Zossener Straße 38,10961.0,Berlin,2200210
11084372226,52.5302703,13.401478,Rosenback 23h Markt,,,,1100416
11091254505,52.5276639,13.4133166,MYCONBINI,Torstraße 18,10119.0,,1100310
11108713287,52.5420134,13.4245987,Nubras Markt,Stubbenkammerstraße 3,10437.0,Berlin,3601348
11112405543,52.43391,13.3907948,REWE To Go,,,,7501134
11118514949,52.5208623,13.4041395,Lido Multishop,Spandauer Straße 2,10178.0,Berlin,1100310
11123415219,52.4878763,13.4257545,Späti-Kiosk,,,,8100311
11153203140,52.4761353,13.2791162,REWE To Go,Kronberger Straße 26,14193.0,Berlin,4400729
11166253805,52.4962012,13.3370605,Bamberger Späti,Bamberger Straße 7,10777.0,,4501045
11182105036,52.5608674,13.5097725,Mellis Shop,,,,11100309
11189704381,52.5104053,13.4529311,Asia station,,,,2500834
11194689281,52.4985508,13.4463553,Nightshop Spätkauf Schlesi,,,,2300419
11199678483,52.5421903,13.3752912,Zwischen Bier und Angel,Neue Hochstraße 31,,,1300836
11219298525,52.5098113,13.4570759,Kiez-Späti,,,,2500833
11225237887,52.5481811,13.3597551,Minimarkt Am Leo,,,,1401048
11227904770,52.5055052,13.3761926,Yusuf´s Späti,,,,1100102
11245474874,52.5406942,13.4058763,E4,Eberswalder Straße 4,,,3701554
11272983110,52.4888146,13.453461,Internet-Kiosk 23h,,,,9100101
11282028696,52.45326,13.5237946,Minikauf,Schnellerstraße 99,,,9200613
11283116057,52.5639022,13.3776578,Madara Market BG,,,,12100101
11306617628,52.5083856,13.4630905,,,,,2500833
11331558371,52.4680407,13.4306904,Kiez Kiosk,,,,8100104
11341365196,52.5905474,13.2833308,,,,,12200515
11373954350,52.5232762,13.3379329,Tojo-Spätkauf,Bochumer Straße 7,10555.0,Berlin,1200522
11407518394,52.4903905,13.3365996,bambergerkiez,,,,4501152
11429217966,52.4553661,13.5117972,Spätkauf,,,,9200613
