id,lat,lon,name,street,zip_code,city,planning_area_id
252204472,52.5495479,13.571724,Sportanlage Schönagelstraße,,,,10100209
281426523,52.4612367,13.5126209,Bowling Spreehöfe,Wilhelminenhofstraße 89,12459.0,Berlin,9200510
282743483,52.5195649,13.4670158,Bowlero,,,,2500728
291656876,52.5201789,13.209132,Ruder-Club Hevella,,,,5200632
315240798,52.5313803,13.4251219,Nautilus Training,Immanuelkirchstraße 14,10405.0,Berlin,3701659
354513937,52.5284363,13.1338082,Pacific Fitness Studio,,,,5200524
579988110,52.5368636,13.2701899,Miss Sporty,Nonnendammallee 92,13629.0,Berlin,5300841
632385089,52.4973462,13.3439273,Geisberghalle,,,,7100101
638751846,52.4964457,13.4221664,Shinson Hapkido Berlin e.V.,Paul-Lincke-Ufer 41,10999.0,Berlin,2300417
648259075,52.5109192,13.2101239,Ruderverein Berlin von 1878,"Brandensteinweg 2,2A",13595.0,Berlin,5200634
652418750,52.5646251,13.3249268,Fitness Center,,,,12200309
653165262,52.5106334,13.5345727,Frauenfitness balance,Alt-Friedrichsfelde 65 D,10315.0,Berlin,11401033
654202879,52.4908163,13.3084939,Combat Berlin e.V.,Ruhrstraße 12A,10709.0,Berlin,4500939
678967898,52.5508931,13.3539279,Fit im Wedding,,,,1401048
693826342,52.4595265,13.3150105,Schwimmschule Wassermeloni,Grunewaldstraße 14a,12165.0,Berlin,6100101
703744109,52.4031371,13.5072516,,,,,8401245
802697163,52.4797986,13.3454215,Shaolin Kungfu Berlin,Hauptstraße 60,10827.0,Berlin,7200308
852868183,52.4190685,13.3592598,Budo Academy Berlin,,,,7601236
913133075,52.536244,13.3989044,Yoga Delta Berlin,"Anklamer Straße 33, 2.Hinterhof",10115.0,Berlin,1100416
978426577,52.4616006,13.5127271,Der Wellness Club,Wilhelminenhofstraße 89,12459.0,Berlin,9200510
986525060,52.5054221,13.3674272,therapiezentrum working motion physio/ergo,Potsdamer Straße 58,10785.0,Berlin,1100103
1103266295,52.53338,13.198009,MeridianSpa,,,,5200629
1111632078,52.4794909,13.4327678,Berlin Kart,Werbellinstraße 50,12053.0,Berlin,8100206
1172019472,52.6073684,13.4199703,Vital One,Hugenottenplatz 4,13127.0,Berlin,3200310
1223849541,52.5573727,13.3638597,Luise-Schröder-Halle,,,,1400940
1336704980,52.5372216,13.2060342,Sportpark Budokan KG,Breite Straße 25,13597.0,Berlin,5100316
1575010825,52.4089916,13.3775391,Insel Sports Club,Motzener Straße 5,12277.0,Berlin,7601341
1610111889,52.4897726,13.3930155,Yoga-Institut Berlin,Bergmannstraße 91,10961.0,Berlin,2200211
1673191293,52.4227228,13.539715,Frauenfitness Ladies Pur,Köpenicker Straße 11,12524.0,Berlin,9300920
1710197750,52.5694066,13.3711999,Shuri-Ryu Berlin,Amendestraße 79,13409.0,Berlin,12100102
1742989893,52.422859,13.264092,Verein für Leibesübungen Zehlendorf e.V.,,,,6300528
1766636057,52.6114835,13.2495195,Reit- und Fahrverein Diakoniezentrum Heiligensee e.V.,Diakonieweg 6,13503.0,Berlin,12400618
1773500987,52.4586076,13.3274617,Sera-fit Pilates,,,,6100208
1800383252,52.6178117,13.3357798,Freibad Lübars,Am Freibad 9,13469.0,Berlin,12500929
1814665856,52.5277833,13.4031487,John Reed,Rosenthaler Straße 63/64,10119.0,Berlin,1100309
1814675572,52.5203424,13.3884666,Pink Frauen Fitness,,,,1100206
1914072612,52.5175363,13.2793437,Kimuras Karate Schule,,,,4200311
1914078567,52.5250025,13.3274483,Tezentao Kampfkunst,,,,1200518
1914078965,52.4554479,13.3206811,Sportschule Randori,,,,6100102
1914079256,52.5098876,13.3240444,Taekwondo-Institut Berlin,,,,4300624
1914079546,52.4875006,13.3613567,MMA Berlin Mixed Martial Arts,,,,7200411
1914080650,52.5279387,13.4504508,Siu Lam Wing Chun Schule,,,,3601452
1914080779,52.4842868,13.3618779,Kampfkunstschule Ichi Geki,,,,7200413
1914085781,52.4867086,13.318198,Chen-Taichi-Berlin,,,,4501146
1914552746,52.497067,13.3232138,FitbyFerro - Personal Training,Pariser Straße 46,10719.0,Berlin,4501044
1918476296,52.488898,13.3873151,Aikido Kreuzberg,,,,2200211
1918480806,52.5270373,13.3908582,Ju Jutsu @ HU-Berlin,,,,1100309
1918482388,52.5322268,13.380451,Kampfsportschule Randori-Pro Mitte GmbH,,,,1100308
1918483212,52.5316773,13.3993936,"Aikido-Zentrum, Horst Späthling",,,,1100415
1918483826,52.5335481,13.407098,Tai Chi Schule Dang Lang,Zionskirchstraße 57,10119.0,Berlin,1100416
1918485997,52.5392911,13.4131216,Chen Tai-Chi-Chuan (Taijiquan) des CTND Berlin,,,,3701555
1918486517,52.5395753,13.4135412,Seon Taekwondo,,,,3701555
1918487036,52.5464752,13.4161267,Aikido für Kinder Tanden Dojo,,,,3601346
1918487574,52.5467577,13.4206583,Chen Taiji Berlin,,,,3601347
1918491864,52.5529818,13.3802493,"Chen Taiji Berlin - Kampfkunst, Meditation, Philosophie",,,,1401045
1918493379,52.5319166,13.429726,ChoHwa,,,,3701660
1918506060,52.5078725,13.4728466,Thaiboxgym Berlin e.V.,,,,2500832
1918506398,52.5082083,13.4726101,Ringside Gym,,,,2500832
1918511401,52.5120465,13.4487702,Wing Tai Akademie für Kampfkunst & Selbstverteidigung Berlin - Friedrichshain,,,,2400624
1918511544,52.5182348,13.4397386,Kikentai-Berlin,,,,2400521
1918513971,52.5179533,13.465553,Karate Club Nord e.V,,,,2500728
1918515872,52.5046545,13.4296632,Capoeira in Berlin,,,,2300316
1918519134,52.500867,13.4159323,Taiji Weg - Isolde Schwarz,,,,2300314
1918520393,52.5020611,13.4139305,Gym Fist and Kick,,,,2100104
1918525780,52.4704052,13.3242967,Schule für Tai Chi Chuan und Qi Gong,,,,7300516
1918527003,52.4462602,13.3849036,Sportschule Bernd Grossmann,Mariendorfer Damm 72,12109.0,Berlin,7501030
1918530253,52.4405364,13.3909488,Kung Fu - Choy Lee Fut,,,,7501134
1918534365,52.4542261,13.3262147,"Nippon - Gesundheit, Fitness & Kampfkunst",Mittelstraße 34,12167.0,Berlin,6100207
1918542673,52.4085231,13.2652251,Kampfkunstakademie Berlin,Kleinmachnower Weg 9-11,14165.0,Berlin,6300525
1948112263,52.5154091,13.2874053,Sportstudio Maximus,,14059.0,Berlin,4300413
2010391329,52.4628098,13.3801975,Tempelhofer Tennis Club e.V.,Bosestraße 3,12103.0,Berlin,7400824
2047311677,52.5531063,13.3614293,IMAG e.V. Berlin,Groninger Straße 27,13347.0,Berlin,1401048
2059798815,52.4879655,13.3567272,Yoga in der Schwangerschaft Frauke Stadali,Belziger Straße 7,10823.0,Berlin,7200409
2115582888,52.5348405,13.4118414,Kinder- und Jugendclub go,Schönhauser Allee 165,10435.0,Berlin,3701554
2126006003,52.588898,13.286528,Sportschule Bushido,Grußdorfstraße 5-6,13507.0,Berlin,12200515
2142710470,52.5419862,13.3551346,Ergotherapie im Sprengelkiez,Sprengelstraße 14,13353.0,Berlin,1401046
2142712447,52.5419589,13.3548313,Fit4age,Sprengelstraße 15,13353.0,Berlin,1401046
2291424796,52.4937134,13.3430574,Aikido Schule Berlin,Hohenstaufenstraße 47,10779.0,Berlin,7200307
2325901153,52.4991015,13.3056727,Kampfkunstakademie Berlin-Wilmersdorf,,,,4500938
2329751488,52.5318854,13.4296923,Aikido Prenzlauerberg,Greifswalder Straße 29,10405.0,Berlin,3701660
2347288661,52.4583408,13.4547339,Rudergesellschaft Wiking e.V. Berlin,Haarlemer Straße 45e,12359.0,Berlin,8200623
2419879256,52.530506,13.413411,Jugendhaus Königstadt,Saarbrücker Straße 24,10405.0,Berlin,3701556
2466034524,52.5377466,13.6038724,Bergwerk Berlin,Stendaler Straße 25,12627.0,Berlin,10200421
2489339161,52.5296048,13.5933044,Kampfkunst Studio Pham,Etkar-André-Straße 4,12619.0,Berlin,10200628
2641805244,52.4794081,13.4189959,Jahn-Sportplatz,,,,8100102
2657573291,52.5029734,13.407743,Spree Crossfit,,,,2100104
2756088537,52.4304169,13.4342731,SV Stern Britz 1889 e.V.,,,,8200729
2827715473,52.5219698,13.349009,Shogun,Helgoländer Ufer 7B,10557.0,Berlin,1200626
2875570228,52.5247674,13.209265,Turngemeinde in Berlin 1848 e.V. Rudern Tiefwerder,Tiefwerderweg 17,13597.0,Berlin,5200632
2917748026,52.5485758,13.3818333,Magic Mountain,Böttgerstraße 20,13357.0,Berlin,1300836
2967292333,52.5069325,13.3262444,Sporthalle im Freizeitzentrum am Steinplatz,Uhlandstraße 194,10623.0,Berlin,4300622
3037805664,52.5038258,13.3251553,ICE Aesthetic - Zentrum Kryolipolyse Berlin,Uhlandstraße 20-25,10623.0,Berlin,4501041
3081225428,52.5431788,13.376891,taykan Sports Arena,,,,1300836
3186272257,52.4869489,13.3182979,Boulderworx,Berliner Straße 46,10713.0,,4501146
3202080069,52.4918674,13.3890452,Tung Dojo Karate- und Jiu Jitsu-Verein,Gneisenaustraße 2a,10961.0,Berlin,2200211
3234859877,52.5808982,13.2205398,Ruder-Club Tegelort,,,,12400616
3235489272,52.3783891,13.6513924,Eisenbahn-Sportverein Schmöckwitz,,,,9301228
3238139982,52.5003917,13.4326878,Turngemeinde in Berlin 1848 – Budozentrum,,,,2300315
3303132312,52.5243415,13.3046153,jugendkunstschule,Nordhauser Straße 22,10589.0,Berlin,4300518
3317552338,52.4553612,13.3878899,Super Women,Tempelhofer Damm 227,12099.0,Berlin,7400927
3347694569,52.5151052,13.3806119,Adlon Spa,,,,1100205
3442698430,52.4901185,13.4488498,Yoga und Körperarbeit,Karl-Kunger-Straße 21,12435.0,Berlin,9100101
3767184831,52.5059378,13.4601592,Lady Company Fitness für Frauen GmbH,Revaler Straße 33,10245.0,Berlin,2500834
3819522964,52.5037245,13.3252108,Lagoa Yoga,,,,4501041
3826452464,52.5004396,13.3478256,Maximus Sportstudio + Wellness,Kalckreuthstraße 1,10777.0,Berlin,7100102
3966842994,52.4951304,13.4286748,Boulderklub Kreuzberg,Ohlauer Straße 38,10999.0,Berlin,2300417
3989801753,52.5421112,13.221067,Cliffhanger,,13599.0,Berlin,5300736
4021566749,52.4882441,13.4230337,Lowkick,Urbanstraße 70A,10967.0,Berlin,2200212
4128610990,52.5849505,13.2859281,Superfit,,,,12200515
4261575759,52.5266821,13.389507,Chimosa,Linienstraße 127,10115.0,Berlin,1100309
4392774819,52.50045,13.3041481,The Eight,,,,4500936
4420389490,52.4620074,13.5124714,Lasergame Berlin,Wilhelminenhofstraße 89,12459.0,Berlin,9200510
4424022530,52.5106479,13.3974279,McFit,Leipziger Straße 46/47,10117.0,,1100207
4520986013,52.5185242,13.4520872,Yogastudio Körperklang,Weidenweg 51,10249.0,Berlin,2400522
4524667531,52.5273544,13.4459319,SEZ,,,,2400520
4564107683,52.4188392,13.3590907,Trampolinpark Sprung.Raum,,,,7601236
4962961839,52.5523555,13.3739271,The Base,Uferstraße 8,13357.0,Berlin,1401044
5054068393,52.4986333,13.290212,Gymnastikstudio Schlanke Linie,,,,4500937
5054068398,52.4980802,13.2905842,Top Ten Budo Akademie,Georg-Wilhelm-Straße 3,10711.0,Berlin,4500937
5525004972,52.4515425,13.3844084,Fit Woman,,,,7501030
5549151400,52.6043218,13.3548088,TSV Berlin-Wittenau 1896 e.V.,,,,12601134
5597962250,52.5214094,13.4067191,Woodcutter,Karl-Liebknecht-Straße 9,10178.0,Berlin,1100310
5869100123,52.5055035,13.4299959,Boxfabrik,Köpenicker Straße 154,10997.0,Berlin,2300316
5969166959,52.4882271,13.3884686,Yoga Sky Berlin,Am Tempelhofer Berg 7d,10965.0,Berlin,2200211
6027199452,52.5217464,13.4465225,iyengaryoga,,,,2400522
6490332529,52.4448538,13.3740001,Kampfkunstwerkstatt,Gersdorfstraße 62,12105.0,Berlin,7501029
6984344179,52.4966839,13.4140441,Yvonne Haug,Erkelenzdamm 59/61,10999.0,Berlin,2100106
7148689662,52.4702612,13.3280697,WingTsun Kampfkunst Akademie Steglitz,Bundesallee 79,12161.0,Berlin,7300516
7280505360,52.5464914,13.4204341,Tanden Aikido,Lychener Straße 73,10437.0,Berlin,3601347
7580713139,52.4334048,13.7040005,,,,,9501838
7773837709,52.481914,13.3271356,Tao Taekwondo,Hildegardstraße 5,10715.0,Berlin,4501151
8231739132,52.4788768,13.4506564,Shuffleboard Club,,,,8100418
9215893418,52.4208929,13.5391467,Kungfufabrik,Köpenicker Straße 40,12524.0,Berlin,9300920
9569467386,52.4953281,13.3048109,Urban Tribe,,,,4500939
9733504166,52.5119159,13.2932373,Sportevre,,,,4300414
10000526648,52.5115417,13.3018282,Believe Martial Arts,,,,4300621
10003860051,52.5133626,13.291624,Yoga & More,,,,4300413
10124308217,52.4845809,13.4083453,Hochseilarena Berlin,,,,8100101
10809220987,52.4545355,13.3295028,1. Berliner Kinder-Schwimmschule,Plantagenstraße 2,12169.0,Berlin,6100208
10946026254,52.5098856,13.4164968,Arrow Tag Berlin,Heinrich-Heine-Straße 3,10179.0,Berlin,1100313
10955712973,52.4661788,13.4427188,Laserstar,Karl-Marx-Straße 255,12057.0,Berlin,8100209
11112856978,52.43773,13.3752049,,,,,7501029
11269471641,52.5573077,13.3630088,Kombibad Seestraße,Seestraße 80,13347.0,Berlin,1400940
