id,lat,lon,name,street,zip_code,city,planning_area_id
58489979,52.5098189,13.4073729,Netto Marken-Discount,Alte Jakobstraße 83,10179.0,Berlin,1100312
79418658,52.5724174,13.3085471,Ledo,Quäkerstraße 2,13403.0,Berlin,12200310
79422426,52.5716761,13.3124756,kiezmarkt,,,,12200310
79428988,52.5664033,13.3169308,NP,Scharnweberstraße 100,13405.0,Berlin,12200309
79438509,52.5704861,13.321144,Edeka,,,,12200308
101003688,52.4913971,13.3228827,nah und gut,Güntzelstraße 40,10717.0,Berlin,4501147
151015050,52.5265407,13.5403083,NORMA,,,,10100312
175685784,52.5958262,13.3335139,Netto Marken-Discount,,13435.0,,12500927
245261389,52.5524232,13.3480665,ALDI Nord,Müllerstraße 128,13349.0,Berlin,1400938
249675570,52.5439135,13.5486135,Netto Marken-Discount,,,,10100210
251340008,52.4315738,13.7149761,Edeka Leher,Fürstenwalder Allee 314,12589.0,Berlin,9501838
251595302,52.565038,13.3706441,PENNY,Pankower Allee 47-49,,,12100101
253256553,52.5515059,13.4550894,Netto,,,,3500933
253616655,52.510061,13.4709585,EDEKA Thaut,,,,2500832
253999816,52.4873144,13.3570728,Öz-Gida,Hauptstraße 16,10827.0,Berlin,7200409
254862675,52.4701156,13.4621306,EDEKA,,,,8100520
257704877,52.5476038,13.2100323,Lidl,Neuendorfer Straße 30,13585.0,Berlin,5100313
259835062,52.5428752,13.1965568,Lidl,Falkenseer Damm 19,13585.0,Berlin,5100316
259855794,52.5085368,13.2716801,ALDI Nord,Theodor-Heuss-Platz 7,14052.0,Berlin,4200310
261743904,52.5276119,13.3291604,REWE,Turmstraße 60,10551.0,Berlin,1200519
262353263,52.457312,13.5078518,Kaufland,Schnellerstraße 21,12439.0,Berlin,9200613
262355894,52.515615,13.4623106,EDEKA,Frankfurter Allee 35 - 37,10247.0,Berlin,2500728
262363654,52.5230012,13.4645151,PENNY,Hermann-Blankenstein-Straße 40,10249.0,Berlin,3601453
264620848,52.5565629,13.5714829,REWE,Oberweißbacher Straße 2-4,12687.0,Berlin,10100206
264645629,52.4686357,13.3117953,REWE City,Südwestkorso 36,14197.0,Berlin,4400835
266623061,52.5045641,13.5903932,REWE,Alt-Kaulsdorf 64,12621.0,Berlin,10400837
266623118,52.5041188,13.5899079,ALDI,Alt-Kaulsdorf 64,12621.0,Berlin,10400837
267642274,52.4993302,13.4210651,Bio Company,Skalitzer Straße 127-128,10999.0,Berlin,2300314
268021255,52.5190008,13.3007843,REWE City,Otto-Suhr-Allee 141,10585.0,Berlin,4300621
268664135,52.563584,13.412146,Lidl,Berliner Straße 27-28,13189.0,Berlin,3400826
268844516,52.6082579,13.2353863,Edeka,,,,12400619
268845115,52.6097415,13.248277,Top Frischemarkt,,,,12400619
269478706,52.432822,13.5351004,Kaufland,Rudower Chaussee 12,12489.0,Berlin,9200715
269479009,52.513684,13.4060088,Edeka Ungefroren,Fischerinsel 12,10179.0,Berlin,1100312
270793632,52.4313775,13.7147356,ALDI Nord,,,,9501838
270814685,52.4422611,13.2404658,EDEKA,Fischerhüttenstraße 68,14163.0,Berlin,6400839
270814692,52.4268546,13.2159158,EDEKA,Potsdamer Chaussee 80,14129.0,Berlin,6400736
271738194,52.5374036,13.2047062,EDEKA,Markt 11,13597.0,Berlin,5100316
272247519,52.4560576,13.4374685,Penny,Britzer Damm 73,12347.0,Berlin,8200623
272247672,52.4574201,13.4373312,Edeka,Britzer Damm 55-59,12347.0,Berlin,8200623
273759099,52.4630725,13.3388468,Netto Marken-Discount,,,,6100209
273765898,52.523423,13.3065606,REWE,Sömmeringstraße 24-26,10589.0,Berlin,4300518
274864620,52.5246216,13.1977106,REWE City,Pichelsdorfer Straße 110,13595.0,Berlin,5200631
276145759,52.4638746,13.4858575,EDEKA Yilmaz,Baumschulenstraße 31,12437.0,Berlin,9100304
276191847,52.5194368,13.5973616,NORMA,,,,10400835
277837190,52.4639513,13.4731548,EDEKA,Sonnenallee 330,12057.0,Berlin,8100521
279224131,52.4702479,13.4617637,ALDI Nord,,,,8100520
281426281,52.4622262,13.5129345,PENNY,Wilhelminenhofstraße 89A,12459.0,Berlin,9200510
283190905,52.5021,13.4144676,Lidl,Oranienplatz 4,10999.0,,2100104
283443676,52.5208001,13.3343449,Edeka Simon,Levetzowstraße 10-10a,10555.0,Berlin,1200522
285071508,52.5126115,13.4597619,denns Biomarkt,Boxhagener Straße 103,10245.0,Berlin,2500830
286740930,52.5026043,13.3436334,Edeka Wittenbergplatz,Wittenbergplatz 4,10789.0,Berlin,7100101
289359993,52.5068475,13.5578938,Kaufland,Weißenhöher Straße 88 - 108,12683.0,Berlin,10300733
292092618,52.5254295,13.4657308,EDEKA,Franz-Jacob-Straße 4,10369.0,Berlin,11300618
293130845,52.4262609,13.3024814,REWE,,,,6300632
293130996,52.4269688,13.3036734,ALDI Nord,,,,6300632
293137288,52.6183865,13.4863459,REWE,,,,3300411
293244992,52.560815,13.3654858,EDEKA,,,,12100101
294036281,52.5947516,13.3352782,EDEKA Iden,Wilhelmsruher Damm 231,13435.0,Berlin,12500926
297477471,52.5239186,13.4467143,Netto Marken-Discount,Kochhannstraße 34,10249.0,Berlin,2400522
297803736,52.4297351,13.330048,ALDI Nord,Lankwitzer Straße 19,12209.0,Berlin,6200422
298811748,52.4433223,13.2968177,Nahkauf,Drakestraße 33a,12205.0,Berlin,6300633
300818499,52.4893173,13.3458969,Penny,Grunewaldstraße 36-37,10823.0,Berlin,7100204
301787391,52.5652376,13.3788276,Lidl,,,,1300731
301845927,52.4173898,13.3620284,Lidl,Malteserstraße 162/164,12277.0,Berlin,7601236
304367382,52.5250164,13.1414723,REWE,Heerstraße 560,13591.0,Berlin,5200524
304371509,52.5687154,13.5684842,REWE,Havemannstraße 12a,12689.0,Berlin,10100103
308019560,52.5048235,13.5150175,REWE,Alfred-Kowalke-Straße 2,10315.0,Berlin,11401137
309150372,52.4300567,13.3349701,Netto Marken-Discount,Kaiser-Wilhelm-Straße 11,12247.0,Berlin,6200314
313040127,52.5714581,13.4178738,EDEKA,,,,3400723
313080918,52.5065505,13.2930747,Edeka Neue Kantstraße,Neue Kantstraße 29-30,14057.0,Berlin,4300416
313144179,52.5251872,13.4446299,Netto Marken-Discount,,,Berlin,2400522
313144196,52.5258345,13.4469831,REWE City,Landsberger Allee 68D,10249.0,Berlin,2400522
313188999,52.4610364,13.3251331,HIT,Schloßstraße 110,12163.0,Berlin,6100103
315775250,52.5567323,13.4373178,Lidl,,,,3500932
315801862,52.4920032,13.3447835,EDEKA Martin-Luther-Straße,Martin-Luther-Straße 52-54,10779.0,Berlin,7200307
316772479,52.5890882,13.284848,Edeka,Berliner Straße 96,13507.0,Berlin,12200515
317732496,52.5047239,13.3074695,Bio Company,,,,4501040
317991364,52.5160549,13.4406783,EDEKA Kelz,Straße der Pariser Kommune 38,10243.0,Berlin,2400624
318349843,52.5305826,13.4121544,REWE,Schönhauser Allee 10-11,10119.0,Berlin,3701556
318349845,52.5282208,13.4127819,Netto Marken-Discount,Torstraße 33,,,3701556
319211583,52.5223299,13.4351805,Lidl,Friedenstraße 94a,10249.0,Berlin,2400521
319546170,52.5363802,13.2746944,REWE,Siemensdamm 43-44,13629.0,Berlin,5300841
319584630,52.52261,13.4284778,EDEKA,,,,2400520
320074857,52.5345191,13.4079979,Lidl,Choriner Straße 64/64a,10435.0,Berlin,3701554
333434552,52.4770369,13.4230397,EDEKA,Herrfurthplatz 12,12049.0,,8100102
333460025,52.4888756,13.3942017,Bio Company,Friesenstraße 1,10965.0,,2200211
336027358,52.5704705,13.4036206,Kaufland,Breite Straße 20,13187.0,Berlin,3400722
336608019,52.5517136,13.4136956,Alnatura Super Natur Markt,Schönhauser Allee 108,10439.0,Berlin,3601141
347303768,52.4294636,13.3302464,REWE,Lankwitzer Straße 19,12209.0,Berlin,6200422
348000444,52.5319807,13.3970838,REWE,Invalidenstraße 158,10115.0,Berlin,1100415
352905900,52.4856563,13.3568344,EDEKA,Richard-von-Weizsäcker-Platz 1-2,10827.0,Berlin,7200410
352905928,52.4857584,13.3574343,ALDI Nord,Richard-von-Weizsäcker-Platz 2,10827.0,Berlin,7200410
358183697,52.5488799,13.2010419,REWE,Schönwalder Straße 32,13585.0,Berlin,5100314
359096354,52.437065,13.2622014,REWE,Clayallee 336,14169.0,Berlin,6400841
359754358,52.4818248,13.3489273,Istanbul Supermarkt,Dominicusstraße 29,10827.0,Berlin,7200410
364048640,52.564445,13.5070276,ALDI Nord,Prerower Platz 1,13051.0,Berlin,11100307
371151371,52.4888458,13.4249997,PENNY,Kottbusser Damm 66,10967.0,Berlin,8100311
371817090,52.5301247,13.3373959,EDEKA,Wiclefstraße 60-62,10551.0,Berlin,1200520
373861896,52.5453707,13.4123763,REWE City,Schönhauser Allee 130,10437.0,Berlin,3601142
389081203,52.4611526,13.5164664,Lidl,Wilhelminenhofstraße 83-85,12459.0,Berlin,9200511
390384562,52.518976,13.1707459,PENNY,Heerstraße 378-382,13593.0,Berlin,5200527
390502682,52.4984121,13.4420092,REWE,,10997.0,Berlin,2300419
392352484,52.4512743,13.5087505,Netto Marken-Discount,Sterndamm 33,12487.0,Berlin,9100408
392683175,52.4859875,13.4571207,ALDI Nord,Kiefholzstraße 49,12435.0,Berlin,9100101
392683176,52.4855808,13.4568606,REWE,Kiefholzstraße 50,12435.0,Berlin,9100101
395053992,52.4528593,13.1430094,Rewe,Sakrower Landstraße 1 A,14089.0,Berlin,5400945
410135899,52.4905527,13.4342449,Edeka Vaupel,,,,8100310
410339501,52.4985137,13.3035063,PENNY,,,,4500938
410500908,52.5499503,13.577706,PENNY,,,,10100207
410506348,52.5568679,13.5715607,PENNY,Oberweißbacher Straße 2-4,12687.0,Berlin,10100206
410749696,52.6173677,13.4863442,Netto,,,,3300411
412196333,52.4123748,13.5717456,REWE,Bruno-Taut-Straße 1,12524.0,Berlin,9301024
413275520,52.4586902,13.5772772,REWE,Bahnhofstraße 33-38,12555.0,Berlin,9501939
417018788,52.5533011,13.4459428,EDEKA,Pistoriusstraße 112-114,13086.0,Berlin,3500935
417019740,52.5498309,13.4588499,Edeka Peth,Berliner Allee 100,13088.0,Berlin,3500936
417021873,52.546533,13.4429678,Edeka Ostseestraße,Ostseestraße 107-109,10409.0,Berlin,3601245
417360249,52.533316,13.4522613,Netto Marken-Discount,Storkower Straße 128b,10407.0,Berlin,3601450
418632158,52.5421045,13.4198499,Edeka Nah und Gut,,,,3601347
418632161,52.5426761,13.4184505,nah und gut,,,,3601347
419545765,52.5511375,13.3833679,Lidl,Badstraße 60,13357.0,Berlin,1300836
419545767,52.5513946,13.3828975,REWE,Badstraße 57-58,13357.0,Berlin,1300836
423485548,52.4971196,13.4240914,LPG BioMarkt,Reichenberger Straße 37,10999.0,Berlin,2300417
427043045,52.5586866,13.3749078,Punjab Supermarkt,Drontheimer Straße 32-32a,13359.0,Berlin,1300730
428142582,52.5330951,13.3454332,PENNY,,,,1200623
437190622,52.5189624,13.409903,Netto Marken-Discount,Rathausstraße 5,10178.0,Berlin,1100310
438385035,52.4787864,13.3084451,Netto,Mecklenburgische Straße 27,14197.0,Berlin,4400830
439506670,52.5006163,13.4231403,Kraut & Rüben,Oranienstraße 15,10999.0,Berlin,2300314
439771184,52.5029466,13.4136849,Brandenburger Landwaren,Oranienstraße 47a,10969.0,Berlin,2100104
440805106,52.5267978,13.3317124,PENNY,,10551.0,Berlin,1200521
441514942,52.4769707,13.4261428,Lidl,Hermannstraße 55,12049.0,,8100102
441531298,52.4741639,13.4274479,ALDI Nord,Hermannstraße 72,12049.0,Berlin,8100103
441734595,52.4816182,13.4334593,Lidl,Flughafenstraße 1,12053.0,,8100206
441736480,52.4794566,13.4369238,Baraka,Karl-Marx-Straße 100,12043.0,Berlin,8100206
442390306,52.4565369,13.3834395,Taste Hellas,Tempelhofer Damm 218,12099.0,Berlin,7400825
442392122,52.4510775,13.3852947,Netto Marken-Discount,Mariendorfer Damm 19,12109.0,Berlin,7501031
442394340,52.4453501,13.386125,Edeka Prang,Mariendorfer Damm 81,12109.0,Berlin,7501031
445820967,52.4876478,13.2645738,EDEKA,Trabener Straße 2,14193.0,Berlin,4400726
445821398,52.4425881,13.4319561,NORMA,,,,8200729
447962689,52.5615636,13.2138439,REWE,Rauchstraße 56,13587.0,Berlin,5100103
448591011,52.5591073,13.4062472,NORMA,Tiroler Straße 28,13187.0,Berlin,3400826
448814806,52.5260753,13.422959,EDEKA,Barnimstraße 18,10249.0,Berlin,2400520
449994504,52.4564251,13.3217052,EDEKA,Albrechtstraße 3,12165.0,Berlin,6100102
452002193,52.4653103,13.3831859,nah und gut Brabanski,Alt-Tempelhof 31-33,12103.0,Berlin,7400824
453394268,52.6369381,13.4914504,Netto Marken-Discount,,,,3100101
460331941,52.5105082,13.3907436,REWE City,Leipziger Straße 100,10117.0,Berlin,1100207
465318626,52.4822154,13.4316168,Kaufland,Karl-Marx-Straße 66,12043.0,Berlin,8100206
465318633,52.4850931,13.4337327,Netto Marken-Discount,,,,8100312
469876091,52.5125087,13.3048648,PENNY,Wilmersdorfer Straße 32-33,10585.0,Berlin,4300621
470471637,52.4308875,13.4561386,ALDI Nord,Johannisthaler Chaussee 200,12351.0,Berlin,8300934
471301175,52.4088869,13.5719986,EDEKA,Buntzelstraße 14,12526.0,Berlin,9301024
472501535,52.504154,13.4729988,Kaufland,Marktstraße 6,10317.0,,11400927
473611934,52.5585627,13.3858039,PENNY,Prinzenallee 55-56,13359.0,Berlin,1300730
475897824,52.4968269,13.419876,Lidl,Kottbusser Straße 16a,10999.0,Berlin,2300417
481148748,52.4189357,13.1575422,ALDI Nord,Königstraße 56/57,14109.0,Berlin,6400735
482585492,52.4917705,13.3547337,Edeka,Barbarossastraße 69,10781.0,Berlin,7100204
482647762,52.5619496,13.3656789,Lidl,,,,12100101
487485823,52.458523,13.318817,Lidl,Rothenburgstraße 38a,12163.0,Berlin,6100102
492443106,52.4794954,13.3106567,ALDI Nord,Mecklenburgische Straße 23A,14197.0,Berlin,4400830
498839307,52.547982,13.3916155,Kaufland,Brunnenstraße 105-109,13355.0,Berlin,1300834
499637619,52.459073,13.3232009,EDEKA,Schloßstraße 98,12163.0,Berlin,6100102
500057367,52.4674859,13.4418357,Asia Supermarkt,Karl-Marx-Straße 242,12057.0,Berlin,8100209
504156978,52.4728082,13.3077983,REWE M. Görlitz-Krüger,Schlangenbader Straße 25,14197.0,Berlin,4400833
505980713,52.4931501,13.3830186,REWE City,,,,2200209
505996681,52.4939285,13.3839687,EDEKA,Yorckstraße 14,,,2200208
513956597,52.5148325,13.4658799,Netto Marken-Discount,Frankfurter Allee 57-59,10247.0,Berlin,2500728
519175242,52.4416994,13.2667886,Lidl,Clayallee 278,14169.0,Berlin,6400841
521227908,52.5325693,13.429371,denns Biomarkt,Greifswalder Straße 31,10405.0,Berlin,3701660
521549245,52.5363843,13.2754091,,Siemensdamm 43,13629.0,Berlin,5300841
529709164,52.4713404,13.3371434,EDEKA Brabanski,Fregestraße 6,12159.0,Berlin,7300618
532438697,52.4093176,13.3810307,Kaufland,,,,7601341
534878184,52.4876067,13.2990759,Nah & Frisch,Hohenzollerndamm 50a,14199.0,Berlin,4400727
537588089,52.5370808,13.2862093,Netto Marken-Discount,,,,4100101
537753668,52.4716365,13.3350372,Netto Marken-Discount,Lauterstraße 17,12159.0,Berlin,7300517
544381902,52.480678,13.4265489,PENNY,,,,8100206
546677899,52.5483391,13.5039694,ALDI Nord,Hauptstraße 9,13055.0,Berlin,11200411
549739056,52.5145711,13.4763485,ALDI Nord,Frankfurter Allee 113-117,10365.0,Berlin,11300722
549739435,52.5144363,13.4772128,Kaufland,Frankfurter Allee 113-117,10365.0,Berlin,11300722
550113673,52.5565324,13.4245088,REWE,Eschengraben 47,13189.0,Berlin,3400828
550113674,52.5565272,13.4241319,Netto,,,,3400828
552357231,52.5752904,13.2837641,Edeka,Bernauer Straße 69-73,13507.0,Berlin,12200412
560903128,52.4559449,13.3871535,Edeka Center Tempelhof,Tempelhofer Damm 227,12099.0,Berlin,7400927
565034858,52.5108612,13.2918533,REWE City,Wundtstraße 26,14059.0,Berlin,4300414
565649878,52.523162,13.4041367,Bio Company,Dircksenstraße 145-147,10178.0,Berlin,1100309
577383675,52.5507087,13.38406,Bolu,Badstraße 59,13357.0,Berlin,1300836
582748267,52.5318707,13.4076249,denns Biomarkt,Templiner Straße 12,10119.0,Berlin,3701554
582854288,52.4191394,13.3683653,Aima,,,,7601237
583760234,52.5693143,13.4372904,Netto Marken-Discount,Rothenbachstraße 2,13089.0,Berlin,3300516
587835276,52.5397947,13.2963562,Netto,,,,4100102
587835279,52.5392837,13.3001834,EDEKA,Heckerdamm 225,13627.0,Berlin,4100102
602528045,52.6076495,13.43059,Netto,,,,3200310
602528055,52.6105021,13.4315153,Netto Marken-Discount,,,,3200309
602610690,52.5696053,13.4948001,REWE,Ribnitzer Straße 26,13051.0,Berlin,11100308
610199981,52.392013,13.4028107,NORMA,,12305.0,Berlin,7601544
615607311,52.4858985,13.4213275,ALDI Nord,,,Berlin,8100101
616298762,52.5096958,13.3059948,Lidl,Wilmersdorfer Straße 126,10627.0,Berlin,4300623
618269382,52.5134646,13.5222835,PENNY,Seddiner Straße 8,10315.0,Berlin,11401033
620704393,52.4809259,13.4387009,Lidl,,,,8100415
621170687,52.4379589,13.4468721,Russia,,,,8200727
621903300,52.5054126,13.3930804,Lidl,Charlottenstraße 1,10969.0,Berlin,2100102
624360866,52.4908116,13.3356896,EDEKA,Jenaer Straße 27,10717.0,Berlin,4501152
626859062,52.5501398,13.3859287,Eurogida,Badstraße 9,13357.0,Berlin,1300733
632432196,52.4991529,13.4969962,Kaufland,Sewanstraße 4-6,10319.0,Berlin,11400928
634912181,52.4759438,13.2901303,EDEKA,,,,4400830
635791562,52.4997073,13.5074501,REWE,Volkradstraße 32,10319.0,Berlin,11401136
636865176,52.4263404,13.4645036,Lidl,Lipschitzallee 50,12353.0,,8300934
646601544,52.549409,13.3884219,ALDI Nord,,13357.0,,1300733
652049372,52.4243206,13.4363341,...nah und gut,,,,8200730
652570198,52.5035654,13.4036492,EDEKA,Ritterstraße 38-40,10969.0,Berlin,2100103
653287041,52.5433967,13.4428789,Netto,Greifswalder Straße 90,10409.0,Berlin,3601449
653474129,52.4599635,13.3754022,REWE,Kaiserin-Augusta-Straße 57,12103.0,Berlin,7400823
663226297,52.5049044,13.4499188,Lidl,Warschauer Platz 14,10245.0,Berlin,2500835
663879954,52.615282,13.470382,Netto Marken-Discount,Hubertusdamm 64-65,13125.0,Berlin,3300412
664265053,52.5236849,13.4616186,Kaufland,Hermann-Blankenstein-Straße 38,10249.0,Berlin,3601453
667211334,52.5129578,13.2656846,Edeka Reichsstraße,Reichsstraße 94,14052.0,Berlin,4200310
667211364,52.5125406,13.2675793,Bio Company,Reichsstraße 10,14052.0,Berlin,4200310
667211372,52.5185318,13.2571181,Edeka,,,,4200309
667211402,52.5169689,13.2615696,Edeka Laurman,Steubenplatz 4,14050.0,Berlin,4200308
667867203,52.4529155,13.5867384,Kaufland,Friedrichshagener Straße 38,12555.0,Berlin,9501941
668246085,52.449774,13.2532595,ALDI Nord,Wilskistraße 47b,14169.0,Berlin,6400840
668246091,52.449943,13.2528091,Nahkauf,Ladenstraße 38-49,14169.0,Berlin,6400840
669239401,52.5644557,13.4712634,Lidl,,,,3501037
672147735,52.4854706,13.3408169,Nahkauf,Badensche Straße 56,10825.0,,7200308
672157091,52.5335687,13.5384595,Kaufland,"Märkische Allee 166, 168, 172",12681.0,Berlin,10100312
672732987,52.4910381,13.3170755,Netto,,,,4501147
674086082,52.5473474,13.2013286,Bulgarische Lebensmittel,,,,5100315
674100930,52.5339033,13.195608,EDEKA,,,,5200629
677581923,52.4698833,13.5723599,Netto Marken-Discount,Kaulsdorfer Straße 140,12555.0,Berlin,9502043
678968266,52.5536061,13.3607274,Netto Marken-Discount,Oudenarder Straße 14,13347.0,Berlin,1401048
681558877,52.517743,13.2926291,PENNY,,,,4300413
691484696,52.469774,13.3330975,REWE,Rheinstraße 14,12159.0,Berlin,7300517
693892008,52.4945436,13.3035449,Netto City,Albrecht-Achilles-Straße 52-53,10709.0,Berlin,4500939
695831680,52.4891517,13.2941908,Edeka,Salzbrunner Straße 18-20,14193.0,Berlin,4400727
699532383,52.4038231,13.5064629,Nahkauf,,,,8401245
699536319,52.4170906,13.4957148,REWE,Alt-Rudow 64,12355.0,,8401243
703802172,52.4858428,13.3389328,Ariston,Meraner Straße 19,10825.0,Berlin,7200307
704002983,52.4933745,13.3313064,Bio Company,Bundesallee 201,10717.0,Berlin,4501152
705513419,52.5075213,13.3002506,Nahkauf,Fritschestraße 45-46,10627.0,Berlin,4300416
707425776,52.545392,13.3690748,Bolu,Reinickendorfer Straße 108,13347.0,Berlin,1401043
707425912,52.546125,13.3696247,Alezz Market,Reinickendorfer Straße 24,13347.0,Berlin,1401044
707456082,52.5492959,13.3697076,Lidl,Reinickendorfer Straße 41,13347.0,Berlin,1401044
709045955,52.493546,13.3324318,EDEKA,,,,4501152
715040103,52.4506573,13.3399913,Edeka Gäth,Steglitzer Damm 24,12169.0,Berlin,6100205
715911599,52.5095171,13.3146146,Penny Leibnizstraße,Leibnizstraße 23,10625.0,Berlin,4300624
715911673,52.5049147,13.2974596,nah und gut,Leonhardtstraße 22,14057.0,Berlin,4300416
718143847,52.5062441,13.2840108,EDEKA,,,,4300415
721617843,52.5604742,13.4293916,Netto Marken-Discount,,13089.0,Berlin,3300516
726126776,52.4735715,13.3148363,Bio Company,Rüdesheimer Straße 3,14197.0,Berlin,4400835
728689944,52.4979503,13.3350954,nah und gut,Geisbergstraße 22,10777.0,Berlin,4501045
728707803,52.523,13.3400151,Grüner Laden,Bundesratufer 5,10555.0,Berlin,1200522
729587081,52.5518382,13.382004,Tariq Supermarkt,,,,1300836
730172943,52.4954998,13.3655932,Nahkauf,Bülowstraße 44,10783.0,Berlin,7100205
733864526,52.5248576,13.5581174,Rewe,Oberfeldstraße 138,12683.0,Berlin,10300731
747081734,52.5338138,13.1676748,Edeka Am Brunsi,Brunsbütteler Damm 196,13581.0,Berlin,5200420
747081738,52.5340022,13.1677315,PENNY,Brunsbütteler Damm 196,13581.0,Berlin,5200420
754482402,52.5629309,13.3291819,REWE,,,,12200309
766602125,52.5064837,13.3737784,REWE,,,,1100102
766742192,52.4891694,13.4091957,EDEKA,,,,2200212
768671097,52.4827099,13.5274287,EDEKA,Rheinsteinstraße 4-12,10318.0,Berlin,11501340
769364237,52.5039556,13.4091375,Denns BioMarkt,Oranienstraße 140-142,10969.0,Berlin,2100104
777083090,52.5050124,13.4076816,International Supermarket,Oranienstraße 71,10969.0,Berlin,2100104
800531142,52.4649386,13.3258786,Lidl,Schloßstraße 1,12163.0,Berlin,6100103
802000083,52.4115726,13.3121233,Nahkauf,Celsiusstraße 66,12207.0,Berlin,6200419
808390952,52.5647175,13.5236193,PENNY,Welsestraße 56-58,13057.0,Berlin,11100204
808390999,52.5671017,13.5281012,REWE,Randowstraße 3,13057.0,Berlin,11100203
808391004,52.5666263,13.5274422,Netto Marken-Discount,Randowstraße 3,13057.0,Berlin,11100203
808391009,52.5649453,13.5233157,REWE,Welsestraße 56-58,13057.0,Berlin,11100204
808406147,52.6328875,13.287041,EDEKA P. Erler,Ludolfingerplatz 6,13465.0,,12400720
808406149,52.6329513,13.2907953,EDEKA Boe,Zeltinger Platz 8,13465.0,,12400721
811921225,52.4641156,13.3267808,ALDI Nord,Schloßstraße 4-5,12163.0,Berlin,6100103
819757401,52.4996502,13.5077655,PENNY,Volkradstraße 32,10319.0,Berlin,11401136
825094074,52.5653928,13.4032278,Bioquell,,,,3400721
828287036,52.4757954,13.4272973,Bolu,,,,8100207
832835260,52.5497058,13.368043,PENNY,Reinickendorfer Straße 83,13347.0,Berlin,1401043
832835278,52.5522643,13.3665842,Kral Discount,,,,1401049
833176050,52.4659019,13.3277211,REWE,Walther-Schreiber-Platz 1,12161.0,Berlin,7300516
847029086,52.5463248,13.4134748,Kutzner & Kutzner,Schönhauser Allee 65,10437.0,Berlin,3601346
849520589,52.4418161,13.5872323,REWE,Pablo-Neruda-Straße 2-4,12559.0,Berlin,9401431
859989105,52.4515492,13.6251236,EDEKA Voigt,Bölschestraße 36,12587.0,Berlin,9501737
860022923,52.4470689,13.6245399,Bio Company,Bölschestraße 2,12587.0,Berlin,9501737
861870104,52.540119,13.6100206,NORMA,Quedlinburger Straße 31,12627.0,Berlin,10200422
865186898,52.5428018,13.4413712,Alnatura Super Natur Markt,,,,3601449
866236232,52.5191809,13.4147953,Asia Markt,Dircksenstraße 102,10178.0,Berlin,1100311
868336312,52.5456563,13.4297494,PENNY,Grellstraße 75,10409.0,Berlin,3601245
868336319,52.5452959,13.43009,REWE,Grellstraße 75,10409.0,Berlin,3601245
873462918,52.5012843,13.4240213,Nasib Gida,Naunynstraße 11,10997.0,Berlin,2300315
892779992,52.5343355,13.4456503,Lidl,Kniprodestraße 26a,10407.0,Berlin,3601452
901013001,52.5909543,13.4453656,Netto Marken-Discount,,,,3300514
901799431,52.4864287,13.4214953,EDEKA,Hasenheide 107-108,10967.0,Berlin,8100101
910429968,52.5301762,13.3838213,Bio Company,Chausseestraße 19,10115.0,Berlin,1100415
919491996,52.3928926,13.4203811,EDEKA,,,,7601545
924072123,52.516203,13.4469923,Mein Markt,Karl-Marx-Allee 116,10243.0,Berlin,2400624
941363118,52.5166668,13.2859135,Netto,Sophie-Charlotten-Straße 25,14059.0,Berlin,4300413
958150532,52.491318,13.4177006,Netto Marken-Discount,Urbanstraße 122,10967.0,Berlin,2200213
960127307,52.5104276,13.3950162,Lidl,Leipziger Straße 42,10117.0,Berlin,1100207
975312179,52.5220546,13.4011035,Asia-Mekong,Henriette-Herz-Platz 1,10178.0,Berlin,1100310
975878746,52.5575599,13.209115,ALDI Nord,Streitstraße 5-19,13587.0,Berlin,5100104
976106227,52.4294767,13.2603047,Lidl,Mühlenstraße 2,14167.0,Berlin,6300526
977283951,52.4687326,13.4444074,ALDI Nord,,12055.0,Berlin,8100209
988558155,52.5319137,13.3444505,Edeka,Stephanstraße 37-43,10559.0,Berlin,1200623
989194577,52.5525558,13.4214016,Lidl,,,,3601243
1003894168,52.5188322,13.4543654,Kiezmarkt,Weidenweg 56,10247.0,Berlin,2500727
1004082764,52.5335621,13.1554167,Rewe,,,,5200420
1004454203,52.4584693,13.3238971,Timi Asia Supermarkt,Kieler Straße 4,12163.0,Berlin,6100102
1008550282,52.5469822,13.1862505,EDEKA,,,,5100210
1029675404,52.4123187,13.3606387,ALDI Nord,Hildburghauser Straße 3,12279.0,,7601340
1030066956,52.534814,13.4968487,ALDI Nord,Landsberger Allee 277,13055.0,Berlin,11200514
1030895299,52.4412299,13.3906274,ALDI Nord,Alt-Mariendorf 16,12107.0,Berlin,7501031
1036581040,52.4954436,13.4199628,Netto Marken-Discount,,10967.0,,2200213
1039403106,52.4673513,13.3109506,nah und gut,Kreuznacher Straße 68,14197.0,Berlin,4400835
1039633309,52.5344474,13.4879509,Netto Marken-Discount,,,,11200514
1065121023,52.5377219,13.2186317,Kaufland,Am Juliusturm 42-46,13599.0,Berlin,5300736
1070129764,52.4292607,13.346614,Nahkauf,Dessauerstraße 64,12249.0,Berlin,6200315
1080863820,52.4336816,13.2600711,Bio Company,Teltower Damm 13,14169.0,Berlin,6300526
1094096941,52.5274856,13.5383825,REWE,Helene-Weigel-Platz 1,12681.0,Berlin,10100312
1110336185,52.5144935,13.4737376,EDEKA,Frankfurter Allee 105,10247.0,Berlin,2500729
1110843201,52.5295638,13.3839754,REWE,Chausseestraße 118-120,10115.0,Berlin,1100308
1111017123,52.5407418,13.4163913,Denns BioMarkt,Schliemannstraße 48,10437.0,Berlin,3601347
1112868721,52.4785578,13.4297779,REWE,Rollbergstraße 59,12053.0,Berlin,8100206
1120057646,52.5813965,13.4017946,PENNY,,,,3200206
1120057650,52.5498396,13.414376,Netto Marken-Discount,Schönhauser Allee 78,10439.0,Berlin,3601243
1143798305,52.5438032,13.4413704,REWE City,Greifswalder Straße 155A,,,3601245
1149021382,52.5643169,13.3668064,ALDI Nord,,,,12100101
1149666418,52.4743292,13.3716214,Nah und Gut,Werner-Voß-Damm 37,12101.0,Berlin,7400720
1187333066,52.5050178,13.3233806,denns Biomarkt,Grolmanstraße 48,10623.0,Berlin,4300624
1193352453,52.4349946,13.3891249,EDEKA,Mariendorfer Damm 186,12107.0,Berlin,7501133
1203692599,52.5244433,13.3795237,Lidl,Luisenstraße 52,10117.0,Berlin,1100308
1207355255,52.4913551,13.3494294,Phung,,,,7100204
1224795204,52.4937046,13.4371652,Mini Spar,,,,2300418
1224801762,52.4399784,13.4341127,REWE,Buckower Damm 50,12349.0,Berlin,8200729
1225486132,52.4857356,13.4214749,denns Biomarkt,,,,8100101
1226244579,52.5165746,13.3102746,REWE,Otto-Suhr-Allee 80-82,10585.0,Berlin,4300619
1234107297,52.5533553,13.358475,SuperCoop,Oudenarder Straße 16,13347.0,Berlin,1401048
1234547262,52.5500887,13.3533095,PENNY,Müllerstraße 40,13353.0,Berlin,1401048
1244403913,52.5332388,13.4300902,Lidl,Greifswalder Straße 33a,10405.0,Berlin,3701660
1252476612,52.5485001,13.4130942,Netto,Schönhauser Allee 119,10437.0,Berlin,3601142
1252973549,52.5322809,13.1983688,Bio Company,Klosterstraße 34,13581.0,Berlin,5200629
1254284372,52.5844268,13.2852155,REWE,,,,12200515
1256746140,52.5327995,13.4137041,LPG BioMarkt,Kollwitzstraße 17,10405.0,Berlin,3701556
1262549048,52.5065392,13.2926335,Asia Supermarkt,,,,4300415
1282080435,52.510727,13.3056473,Nazar Market,Wilmersdorfer Straße 132,10627.0,Berlin,4300623
1294273280,52.4655619,13.3286246,Bio Company,Bundesallee 104–105,12161.0,Berlin,7300516
1306177277,52.4872439,13.427558,Radhaa,,,,8100311
1307115268,52.4696138,13.4303727,Bereket Market,Hermannstraße 166,12051.0,Berlin,8100208
1311839516,52.5160394,13.4679239,Bio Company,Voigtstraße 38,10247.0,Berlin,2500728
1312144101,52.5094113,13.391561,City Supermarkt,Krausenstraße 11,10117.0,Berlin,1100207
1336718187,52.5383903,13.2072817,Eurogida,,,,5100316
1336738281,52.4994272,13.4187092,REWE,Skalitzer Straße 135,10999.0,Berlin,2300314
1349696696,52.5205382,13.3886757,REWE City,Friedrichstraße 100,10117.0,Berlin,1100206
1354602117,52.4731384,13.3368295,LPG BioMarkt,Hauptstraße 78,12159.0,Berlin,7300517
1362016421,52.5651696,13.5710175,Netto,Wittenberger Straße 76-80,12689.0,Berlin,10100103
1367969626,52.5400538,13.2490546,REWE,Nonnendammallee 120,13629.0,Berlin,5300840
1370691440,52.5526675,13.3476614,Edeka Fromm,Müllerstraße 127,13349.0,Berlin,1400938
1379344535,52.4283842,13.3773195,Centro Italia,,,,7501133
1379836611,52.5664899,13.3461341,Netto,,,,12100204
1383599532,52.536064,13.4324034,nahcity Duong,Greifswalder Straße 119,10405.0,Berlin,3701658
1389419217,52.5290087,13.3951425,Kauf Markt,,,,1100415
1391580006,52.4576732,13.3208595,REWE,Schloßstraße 33-36,12163.0,Berlin,6100102
1394709850,52.5414602,13.2618045,nah und gut,,13629.0,Berlin,5300839
1397070330,52.482083,13.3491516,Afghan Zamin Supermarkt,Hauptstraße 114-115,10827.0,Berlin,7200410
1402023314,52.4979408,13.4438854,Nahkauf,,,,2300419
1415880278,52.5278268,13.3917759,EDEKA Kiemarkt,Torstraße 206,10115.0,Berlin,1100309
1417005880,52.4018551,13.54297,...nah und gut,Ehrenfelder Platz 3,12524.0,Berlin,9300923
1446159103,52.5322898,13.3957694,Bio-Deli,Invalidenstraße 153,10115.0,Berlin,1100415
1446214034,52.4951473,13.4284148,PENNY,,,,2300417
1463883876,52.5809357,13.4027152,denns Biomarkt,Hermann-Hesse-Straße 4,13156.0,Berlin,3200206
1465074342,52.5113295,13.4680466,Wurzelwerk Bioladen,Oderstraße 10,10247.0,Berlin,2500831
1465075423,52.5047115,13.477134,Wurzelwerk Bioladen,Kaskelstraße 16,10317.0,Berlin,11400927
1468082518,52.467044,13.3299032,REWE City,Rheinstraße 30,12161.0,Berlin,7300516
1487167492,52.5069507,13.468918,Bio Company,Boxhagener Straße 73,10245.0,Berlin,2500832
1493309776,52.6039283,13.4324718,REWE,Hauptstraße 70,13127.0,Berlin,3200309
1500162209,52.4798626,13.4357683,REWE,Karl-Marx-Straße 92-98,12043.0,Berlin,8100206
1500162675,52.4797665,13.4362242,ALDI Nord,Karl-Marx-Straße 92-98,12043.0,Berlin,8100206
1534211674,52.5309093,13.5372987,Lidl,Märkische Allee 140A,12681.0,Berlin,10100312
1535054255,52.5232644,13.5867296,EDEKA Friedrich,Hellersdorfer Straße 83,12619.0,Berlin,10200629
1544191098,52.5488448,13.4092108,miniladen,,,,3601142
1544191099,52.5488213,13.4094069,Sugafari,,,,3601142
1557191076,52.5122262,13.495272,Natur Pur,Frankfurter Allee 231,10365.0,Berlin,11300725
1585630534,52.5493785,13.4161791,EDEKA,,10439.0,,3601243
1588155369,52.5117711,13.3839109,HIT,Mohrenstraße 69,10117.0,Berlin,1100205
1588325816,52.5345492,13.5513842,Grüne Geiß,Allee der Kosmonauten 151,12685.0,Berlin,10100314
1617419907,52.4271339,13.3027848,Biomarkt Viverte,Glarner Straße 62,12205.0,Berlin,6300632
1618669788,52.4507291,13.3393904,Penny,Steglitzer Damm 20,12169.0,Berlin,6100205
1628715657,52.5383977,13.5901733,EDEKA,,12629.0,,10200420
1641888176,52.4935036,13.4220871,Bio Company,,,,8100310
1644065979,52.4732677,13.290462,ALDI Nord,,,,4400832
1659884040,52.5482851,13.3563325,Eurogida,,,,1401048
1663969749,52.3972377,13.5415199,ALDI Nord,Alexander-Meißner-Straße 1,12526.0,Berlin,9301025
1669841847,52.6110395,13.3179908,Denns BioMarkt,,,,12500928
1680198582,52.4563043,13.3843266,Lidl,,,,7400927
1681303281,52.4617585,13.3396427,REWE City,Bismarckstraße 68-69,12157.0,Berlin,6100210
1698191227,52.484614,13.433672,Bio Company,,,,8100314
1699353556,52.5417248,13.3496751,Baskent,Föhrer Straße 13,,,1401046
1713393011,52.4296195,13.1930625,Netto Marken-Discount,Alemannenstraße 40,14129.0,Berlin,6400737
1718182244,52.5425148,13.197201,Edeka Schiwik,Flankenschanze 32,13585.0,Berlin,5100316
1720474146,52.5768477,13.2781392,Nahkauf,,,,12200413
1733863104,52.5327469,13.420034,Bio-Berlin,,,,3701556
1734279076,52.4466275,13.371653,Nahkauf,,,,7501029
1754558319,52.467423,13.432653,Netto Marken-Discount,,,,8100209
1766338470,52.5095102,13.2704127,Ledo,,14052.0,Berlin,4200310
1767243397,52.5747487,13.3146512,Intermarkt,Kienhorststraße 156,13403.0,Berlin,12200308
1768055811,52.5440207,13.4265698,Bio Company,Prenzlauer Allee 180,10405.0,Berlin,3601348
1773431934,52.503656,13.348668,Netto City,Kurfürstenstraße 75,10787.0,Berlin,1100101
1776155102,52.4916049,13.4232761,Edeka M. Fiebig,Kottbusser Damm 80,10967.0,Berlin,8100310
1778043747,52.5363423,13.4366983,Rewe City,John-Schehr-Straße 20-24,10407.0,Berlin,3601451
1779257032,52.4674138,13.4330094,REWE,Hermannstraße 158a,12051.0,Berlin,8100209
1794592994,52.5437308,13.4264854,PENNY,Prenzlauer Allee 181,10405.0,Berlin,3601348
1807535657,52.4969839,13.4261018,Intergida Supermarkt,,,,2300417
1809578947,52.5434199,13.2406593,EDEKA,Gartenfelder Straße 86,13599.0,Berlin,5300737
1812280451,52.5065406,13.4162889,ALDI Nord,Heinrich-Heine-Platz 8-12,10179.0,Berlin,1100313
1812280461,52.5076492,13.4144581,Denns BioMarkt,Annenstraße 48,10179.0,Berlin,1100313
1816817789,52.5227661,13.4123665,Go Asia,Alexanderplatz 8,10178.0,Berlin,1100310
1818862981,52.5215397,13.4093779,Asia-Mekong,Panoramastraße 1,10178.0,Berlin,1100310
1819928545,52.4734406,13.3275613,Nahkauf,Görresstraße 3,12161.0,Berlin,7300515
1824743955,52.4936482,13.3322422,ALDI Nord,Prager Platz 2a,10779.0,Berlin,4501152
1835293283,52.4476974,13.3054039,Penny,,,,6300629
1846516833,52.5865177,13.368014,EDEKA,Hauptstraße 23,13158.0,Berlin,3400619
1846783043,52.5918344,13.3825893,REWE,Kastanienallee 38,13158.0,Berlin,3400618
1848217298,52.501211,13.3916005,Asiamarkt,Friedrichstraße 10,10969.0,Berlin,2100102
1863559158,52.5311942,13.4331435,Lekr,,,,3701660
1869640501,52.5682048,13.5110287,Netto Marken-Discount,Egon-Erwin-Kisch-Straße 90,13059.0,Berlin,11100206
1869640502,52.5748726,13.5086192,PENNY,Rostocker Straße 1,13059.0,Berlin,11100206
1869640508,52.5749522,13.5096346,REWE,Ernst-Barlach-Straße 19,13059.0,Berlin,11100206
1871927027,52.485689,13.3617579,EDEKA,Kolonnenstraße 10,10829.0,Berlin,7200413
1873679231,52.4945279,13.4005487,nah und gut,Urbanstraße 183,10961.0,Berlin,2200210
1882245298,52.5007022,13.3213671,Lidl,Knesebeckstraße 38,10719.0,Berlin,4501041
1882671370,52.5007842,13.3364906,Netto City,Nürnberger Straße 25/26,10789.0,Berlin,4501042
1906549344,52.4981147,13.318263,Netto City,Pariser Straße 41,10707.0,Berlin,4501043
1907577490,52.4852287,13.4332232,ada,,,,8100312
1915389756,52.5169837,13.30707,EDEKA,Otto-Suhr-Allee 105,10585.0,Berlin,4300621
1918454955,52.4686658,13.4432574,Kaufland,Karl-Marx-Straße 231-235,12055.0,Berlin,8100209
1946125618,52.4311649,13.4696242,Nahkauf,Hirtsieferzeile 42-43,12351.0,Berlin,8300934
1946787755,52.5362791,13.4183615,EDEKA,,,,3701556
1948128103,52.5107494,13.2896421,LPG BioMarkt,Kaiserdamm 12,14057.0,Berlin,4300414
1969213798,52.4885102,13.3581546,denns Biomarkt,Hauptstraße 11,10827.0,Berlin,7200409
1995012778,52.5007114,13.4347352,Lidl,Zeughofstraße 23A,10997.0,Berlin,2300315
1995346085,52.4230711,13.4763895,ALDI Nord,Joachim-Gottschalk-Weg 5,12353.0,Berlin,8301037
1995346097,52.4229979,13.4762316,EDEKA,Joachim-Gottschalk-Weg 23,12353.0,Berlin,8301037
2013009700,52.4945118,13.4208245,Edeka Brehm City,,,,2200213
2026168141,52.5423742,13.3932909,PENNY,Brunnenstraße 75,13355.0,Berlin,1300834
2038240136,52.5213904,13.5872079,Penny,Hellersdorfer Straße 77-83,12619.0,Berlin,10200629
2047765230,52.4378334,13.2626638,EDEKA,Clayallee 330,14169.0,Berlin,6400841
2050365795,52.515536,13.468728,EDEKA,Rigaer Straße 44,10247.0,Berlin,2500729
2082343419,52.5097406,13.305296,EDEKA Wilmersdorfer Straße,,10627.0,Berlin,4300623
2086361728,52.4914049,13.3967142,nah und gut,Gneisenaustraße 84,10961.0,Berlin,2200210
2090041491,52.4296472,13.4655246,aima Supermarkt,,,,8300934
2097829567,52.469888,13.4420344,Eurogida,Karl-Marx-Straße 225,12055.0,Berlin,8100417
2137158125,52.5387764,13.4127688,REWE,Schönhauser Allee 36-39,10435.0,Berlin,3701555
2140006472,52.5671908,13.4105009,Edeka Schmitt,,13187.0,Berlin,3400723
2141778348,52.4921598,13.4510857,LPG BioMarkt,Bouchéstraße 12,12435.0,Berlin,9100101
2179167888,52.5101946,13.408035,Alnatura,Alte Jakobstraße 79-80,10179.0,Berlin,1100312
2183538439,52.4950862,13.3235476,nah und gut,Düsseldorfer Straße 74,10719.0,Berlin,4501044
2183996084,52.4739742,13.443147,Dr. Pogo,Karl-Marx-Platz 24,12043.0,Berlin,8100416
2209740269,52.5104649,13.2932481,Denns BioMarkt,Kaiserdamm 112,14057.0,Berlin,4300416
2238828808,52.5077215,13.4500139,Veganz Berlin-Friedrichshain,Warschauer Straße 33,10243.0,Berlin,2400624
2251292710,52.5557728,13.5584686,REWE,Mehrower Allee 20,12687.0,Berlin,10100208
2251295174,52.5093116,13.2223259,REWE City,Angerburger Allee 45,14055.0,Berlin,4200204
2261408339,52.6079352,13.4780321,Lidl,Blankenburger Chaussee 10,13125.0,Berlin,3300412
2262896307,52.4512862,13.2700949,denns Biomarkt,Clayallee 177,14195.0,Berlin,6400842
2264130308,52.5340278,13.1960288,Denns BioMarkt,,,,5200629
2270842497,52.4880054,13.407614,Mały Książę,Lilienthalstraße 6,,Berlin,2200211
2280615913,52.4841209,13.3853942,Eurogida,Tempelhofer Damm 2,12101.0,Berlin,7400720
2281044266,52.4781117,13.4478681,Düzgün,,,,8100418
2286174929,52.4989336,13.3545583,EDEKA Nollendorfplatz,Nollendorfplatz 8-9,10777.0,Berlin,7100103
2287696877,52.4904265,13.4239981,Bolu,Kottbusser Damm 75,10967.0,Berlin,8100311
2290106962,52.5022111,13.3091666,Alnatura Super Natur Markt,Giesebrechtstraße 4,10629.0,Berlin,4501040
2308524457,52.5472995,13.3579914,Halal Supermarkt,,,,1401048
2314280248,52.4989417,13.4413763,Eurogida,Wrangelstraße 85,10997.0,Berlin,2300419
2323707525,52.6164939,13.4716787,Rewe,Hubertusdamm 56,13125.0,Berlin,3300412
2324406336,52.5065737,13.3027807,Go Asia,Kantstraße 10,10627.0,Berlin,4300623
2324410164,52.5057107,13.303342,Elmas Market,Stuttgarter Platz 11,10627.0,Berlin,4300623
2335055081,52.5016238,13.4238345,Kiosk am Mariannen,,,,2300314
2339246305,52.4820455,13.3198796,EDEKA,Blissestraße 36,10713.0,Berlin,4501148
2347507117,52.5061041,13.3203142,EDEKA Jost,Kantstraße 24,10623.0,Berlin,4300624
2376977543,52.5176758,13.290531,EDEKA,Danckelmannstraße 57-60,14059.0,Berlin,4300413
2386082873,52.5216418,13.3213662,FrischeParadies,Morsestraße 2,10587.0,Berlin,4300620
2398339919,52.5321413,13.4195614,Netto,Belforter Straße 20,10405.0,Berlin,3701556
2406781814,52.5402635,13.4041362,denns Biomarkt,Bernauer Straße 50,10435.0,Berlin,1100416
2420128428,52.5202002,13.451403,Denns BioMarkt,Mühsamstraße 54,10249.0,Berlin,2400522
2424332330,52.4580641,13.5804025,Aldi,Elcknerplatz 8,12555.0,Berlin,9501939
2426050677,52.489356,13.3977479,Alnatura Super Natur Markt,,,,2200211
2426072063,52.4178538,13.1472245,Denns BioMarkt,Chausseestraße 21,14109.0,Berlin,6400735
2439759173,52.5101504,13.2727188,REWE City,Theodor-Heuss-Platz 6,14052.0,Berlin,4200310
2451544042,52.530752,13.4005851,Bio Company,Brunnenstraße 6,10119.0,Berlin,1100416
2463153046,52.52233,13.4033909,REWE City,Litfaß-Platz 4,10178.0,Berlin,1100310
2464138931,52.5229073,13.3875704,Bio Company,Friedrichstraße 136,10117.0,Berlin,1100308
2466173878,52.5049627,13.2986626,Kostbar,Leonhardtstraße 2,14057.0,Berlin,4300416
2472120999,52.4849708,13.3533641,Bio Company,"Hauptstraße 31,32",10827.0,Berlin,7200409
2482984708,52.5444869,13.3600595,Sengül Market,Triftstraße 5,13353.0,Berlin,1401047
2487590990,52.607372,13.4291329,Denns BioMarkt,Rosenthaler Weg 78,13127.0,Berlin,3200310
2495554577,52.4896784,13.3884205,Edeka Bergmannstraße,Bergmannstraße 5,10961.0,Berlin,2200211
2495554583,52.4896657,13.3889289,Netto Marken-Discount,Bergmannstraße 5,10961.0,Berlin,2200211
2499997002,52.5501198,13.4482607,ALDI Nord,,,,3500935
2511149696,52.5383876,13.4809667,Landladen Kastaven,,,,11200513
2539487723,52.4929784,13.3823424,Landkost,Yorckstraße 76,,Berlin,2200209
2548523874,52.504406,13.516489,ALDI Nord,Alfred-Kowalke-Straße 3,10315.0,Berlin,11401137
2559224466,52.4573377,13.3842847,bioso Naturkost und Café,Tempelhofer Damm 209,12099.0,Berlin,7400927
2585644717,52.5613605,13.4684985,Netto Marken-Discount,,,,3501037
2611034642,52.5284516,13.4715787,NORMA,Anton-Saefkow-Platz 8,10369.0,Berlin,11300617
2623904878,52.4257885,13.4014959,EDEKA,Tauernallee 30-58,12107.0,Berlin,7501134
2634887168,52.500453,13.3507381,Lidl,Kleiststraße 3-6,10787.0,Berlin,7100102
2659228257,52.4290295,13.4544651,Kaufland,,,,8300934
2676934170,52.5650977,13.5771241,Netto Marken-Discount,Rabensteiner Straße 36,12689.0,Berlin,10100104
2705016631,52.452429,13.3322395,LPG BioMarkt,Albrechtstraße 33,12167.0,Berlin,6100206
2748206479,52.4644899,13.325733,Vinh-Loi Asien-Supermarkt,Gutsmuthsstraße 23-24,12163.0,Berlin,6100103
2748240260,52.5488826,13.3536252,Vinh-Loi,Müllerstraße 141,13353.0,Berlin,1400942
2782835422,52.6072867,13.3264979,EDEKA Aras,Oraniendamm 6-10,13469.0,Berlin,12601032
2782835448,52.6077274,13.3260991,Netto Marken-Discount,Oraniendamm 6-10,13469.0,Berlin,12601032
2796341489,52.4989369,13.4407853,Bahia,Wrangelstraße 49,10997.0,Berlin,2300419
2796342271,52.4989027,13.4408724,Biotopia,Wrangelstraße 49,10997.0,Berlin,2300419
2807783135,52.503844,13.3837544,Lidl,Stresemannstraße 72-78,,Berlin,2100101
2827585882,52.5277045,13.3283116,Doğan Supermarkt,Beusselstraße 76,10553.0,Berlin,1200518
2834843045,52.5271574,13.3330146,REWE City,,,,1200519
2835612698,52.4811176,13.350501,PENNY,Dominicusstraße 37,10827.0,Berlin,7200410
2850019701,52.599201,13.3541666,Kaufland,Senftenberger Ring 15,13439.0,Berlin,12601134
2850406401,52.4711485,13.3203023,EDEKA,Laubacher Straße 13,14197.0,Berlin,7300516
2853634779,52.4283689,13.5844098,Edeka,Wendenschloßstraße 324,12557.0,Berlin,9401329
2864448355,52.4176314,13.436224,EDEKA Fromm,Gerlinger Straße 4,12353.0,Berlin,8200832
2866172985,52.5702733,13.4959871,Netto,Ribnitzer Straße 24,13051.0,Berlin,11100308
2882702745,52.4878673,13.3354416,Bio Company,Babelsberger Straße 52,10715.0,Berlin,4501153
2935359001,52.5397397,13.4111921,bio goods,Kastanienallee 101,10435.0,Berlin,3701554
2935486802,52.5348578,13.3983347,Kosherlife Koshere Lebensmittel,Brunnenstraße 31,10115.0,Berlin,1100416
2936781767,52.6225702,13.3032601,EDEKA Rübel,Hohefeldstraße 21;23;25;27,13467.0,Berlin,12400723
2952546837,52.5678172,13.3619052,Bolu,Residenzstraße 31,13409.0,Berlin,12100204
2966075122,52.5531171,13.3462318,Kaufland,Müllerstraße 123-125,13349.0,Berlin,1400938
2975527957,52.4803165,13.5255093,Netto Marken-Discount,Treskowallee 115,10318.0,Berlin,11501341
2979443782,52.5697666,13.4065329,Bio Company,Breite Straße 34,13187.0,Berlin,3400723
2985061530,52.4915993,13.2982267,Lidl,Seesener Straße 10-13,10709.0,Berlin,4500939
2985073366,52.4907007,13.3129177,Bio Company,Fehrbelliner Platz 5,10707.0,Berlin,4500939
3016943176,52.4493498,13.349913,Nahkauf,Liebenowzeile 29,12167.0,Berlin,6100205
3021118316,52.5367725,13.6017513,NP,Kastanienallee 8,12627.0,Berlin,10200421
3039142020,52.4855611,13.4659156,Netto Marken-Discount,Am Treptower Park 40,12435.0,Berlin,9100202
3051910417,52.4986354,13.2965708,Biomarkt LandVerte,Joachim-Friedrich-Straße 17,10711.0,Berlin,4500937
3060693588,52.4917687,13.3611473,Lidl,Potsdamer Straße 203,,,7100206
3074531911,52.4977813,13.4301896,Original Unverpackt,Wiener Straße 16,10999.0,Berlin,2300417
3079828154,52.4876912,13.3315231,Eurogida,Bundesallee 180,10717.0,Berlin,4501152
3081225430,52.5425485,13.3695233,Indomarkt,Reinickendorfer Straße 118,,,1300836
3098845419,52.4453954,13.2945295,ALDI,Unter den Eichen 97,12203.0,Berlin,6300629
3112849844,52.6345809,13.495938,Kaufland,Walter-Friedrich-Straße 4,13125.0,Berlin,3100103
3113178261,52.4794195,13.3098357,Ledo,Forckenbeckstraße 1,14199.0,Berlin,4400830
3117324769,52.5125166,13.3904663,REWE City,Friedrichstraße 67-70,10117.0,Berlin,1100206
3166307701,52.5276005,13.3388208,NORMA,Bremer Straße 9,10551.0,Berlin,1200520
3175690877,52.5444325,13.545136,REWE,Marzahner Promenade 1,12679.0,Berlin,10100210
3212168336,52.575897,13.2133845,Rewe,Rustweg 1,13587.0,Berlin,5100101
3216719429,52.5065583,13.3896566,Örs Market,Kochstraße 14,10969.0,Berlin,2100102
3218143489,52.5487318,13.3538849,Bio Company,Müllerstraße 141,13353.0,Berlin,1400942
3256799991,52.4952578,13.4319395,Sattva,Reichenberger Straße 122,10999.0,Berlin,2300418
3266123514,52.5267843,13.336889,Sila-Markt,Turmstraße 37,10551.0,Berlin,1200520
3294052227,52.4551665,13.6255086,Alnatura Super Natur Markt,Bölschestraße 63,12587.0,Berlin,9501737
3307282338,52.5299667,13.6208656,EDEKA,Riesaer Straße 102,12627.0,Berlin,10200525
3343659747,52.4992507,13.3621337,REWE,Potsdamer Straße 128,10783.0,Berlin,7100103
3354414093,52.5474522,13.4509431,Denns BioMarkt,Bizetstraße 17-19,13088.0,,3500936
3354444673,52.4991298,13.3244063,Bio Company,,,,4501044
3382994864,52.5612948,13.422712,REWE,Neumannstraße 13,13189.0,Berlin,3400829
3385301270,52.5478176,13.4507131,Bio Company,Berliner Allee 26,,,3500936
3401898908,52.4546467,13.3820803,LPG BioMarkt,Viktoriastraße 10-18,12105.0,,7400825
3427380188,52.4202432,13.4918666,Denns BioMarkt,Alt-Rudow 24,12357.0,Berlin,8401243
3446653825,52.4857109,13.3610287,BioInsel,Leberstraße 2,10829.0,Berlin,7200413
3472128868,52.5001242,13.3545269,Alnatura Super Natur Markt,Else-Lasker-Schüler-Straße 18-22,10783.0,Berlin,7100103
3486395920,52.4127316,13.5692808,Netto Marken-Discount,Bruno-Taut-Straße 8,12524.0,Berlin,9301024
3488849733,52.4963863,13.3478324,PENNY,Winterfeldtstraße 74,10781.0,Berlin,7100102
3499253021,52.4948487,13.4206248,Denns BioMarkt,,,,2200213
3506086153,52.5582594,13.3742829,Punjab Foods Afro Shop,Tromsöer Straße 6,13359.0,Berlin,1300730
3563938494,52.4898742,13.422358,Schnittstelle,Urbanstraße 100,10967.0,Berlin,2200213
3577574383,52.5489311,13.355191,Bolu,Müllerstraße 35,13353.0,Berlin,1401048
3588747520,52.4700835,13.3341154,Denns BioMarkt,Rheinstraße 60,12159.0,Berlin,7300618
3618538618,52.5669709,13.3613922,EDEKA Residenzstraße,Residenzstraße 34,13409.0,Berlin,12100204
3629578699,52.5241928,13.3331988,TS Foods Supermarkt,Alt-Moabit 74,10555.0,Berlin,1200522
3632641114,52.4879674,13.3603428,Biolino,Crellestraße 38,10827.0,Berlin,7200411
3632644957,52.4845565,13.3537504,Go Asia,Hauptstraße 132,10827.0,Berlin,7200410
3634281847,52.4858904,13.4484506,Elsenbusch Kiezbauernmarkt,Elsenstraße 52,12059.0,Berlin,8100419
3644274093,52.4681433,13.3313969,Asia Kauf,Rheinstraße 24,12161.0,Berlin,7300516
3644425794,52.5124355,13.4330222,Netto,,,,2400623
3644478493,52.4577394,13.5789184,REWE City,Bahnhofstraße 23-25,12555.0,Berlin,9501939
3666631698,52.496021,13.3458185,Netto Marken-Discount,Martin-Luther-Straße 24,10777.0,Berlin,7100101
3666951531,52.5613493,13.4227041,ALDI Nord,Neumannstraße 13,13189.0,Berlin,3400829
3672738935,52.4550765,13.1439156,Edeka,Kladower Damm 366 B,14089.0,Berlin,5400944
3685604688,52.5605173,13.4988103,E-Center,Hansastraße 236,13051.0,Berlin,11200410
3686065800,52.5135233,13.3047764,HIT,Wilmersdorfer Straße 26-28,10585.0,Berlin,4300621
3712221852,52.4994583,13.3630907,Nazar Supermarkt,Potsdamer Straße 111,10783.0,Berlin,7100205
3772659942,52.5648536,13.5067596,Rewe,Prerower Platz 1,13051.0,Berlin,11100307
3779407694,52.484833,13.3693011,Mitte Meer,Kolonnenstraße 30 b,10829.0,Berlin,7200413
3780185340,52.5496253,13.3539656,Ozgür Market,Müllerstraße 38,13353.0,Berlin,1401048
3826451055,52.5003829,13.3484057,Bolu,Kleiststraße 32-33,10787.0,Berlin,7100102
3826451957,52.4980181,13.3483763,Denns BioMarkt,Motzstraße 24,10777.0,Berlin,7100102
3833209860,52.5042204,13.3071955,nahkauf Daily Markt,,,,4501040
3837671815,52.4690441,13.3852152,Go Asia,Tempelhofer Damm 120,12099.0,Berlin,7400824
3851784124,52.4884752,13.4150932,Bio Company,Hasenheide 32-38,10967.0,,2200212
3855567148,52.4967793,13.3611893,Eurogida,Potsdamer Straße 152,10783.0,Berlin,7100103
3862782311,52.5005138,13.3222176,EDEKA,Knesebeckstraße 56,10719.0,Berlin,4501041
3873919795,52.4377511,13.5547611,NORMA,Wassermannstraße 97,12489.0,Berlin,9200717
3889187276,52.5291922,13.4135783,EDEKA,Straßburger Straße 9A-C,10405.0,Berlin,3701556
3898818522,52.5320465,13.4277612,Bio Company,Greifswalder Straße 212,10405.0,Berlin,3701659
3900293181,52.549407,13.1559808,Nahkauf,,,,5100208
3906099257,52.5486803,13.3891398,Denns BioMarkt,,13357.0,,1300834
3916619327,52.4751837,13.4275096,Bio Company,Hermannstraße 199,12049.0,Berlin,8100207
3922305547,52.4684302,13.4414052,denns Biomarkt,,,,8100209
3959492215,52.5366422,13.6024143,Rewe,,,,10200421
3964762127,52.4589559,13.3830946,ALDI Nord,,,,7400825
3964762128,52.4585848,13.3828398,Edeka Tempelhofer Damm,Tempelhofer Damm 198,12099.0,Berlin,7400825
3978727085,52.458381,13.5786692,denns Biomarkt,Bahnhofstraße 33-38,12555.0,Berlin,9501939
3987047648,52.5107767,13.3806161,EDEKA,,,,1100205
3987047649,52.5101937,13.3806725,ALDI Nord,,,Berlin,1100205
3987051062,52.5186498,13.4164837,EDEKA,,,Berlin,1100311
3989777458,52.5197889,13.4503543,Edeka,Eckertstraße 7-11,10249.0,Berlin,2400522
3989808407,52.5032254,13.3299288,AmericanFood4U,,,,4501042
4017367047,52.4856469,13.3561779,REWE,Hauptstraße 141-144,10827.0,Berlin,7200410
4034592725,52.499004,13.4163673,NORMA,Skalitzer Straße 141,10999.0,Berlin,2100105
4068008870,52.5087351,13.3045132,Alnatura Super Natur Markt,,,,4300623
4068008871,52.5110708,13.3893114,Alnatura Super Natur Markt,Friedrichstraße 191,10117.0,Berlin,1100207
4068008872,52.5284331,13.3859899,Alnatura,Chausseestraße 10,10115.0,Berlin,1100415
4080663931,52.4353773,13.5419279,Denns BioMarkt,Adlergestell 259,12489.0,Berlin,9200716
4090281105,52.5390981,13.4254546,Denns BioMarkt,Danziger Straße 73-77,10405.0,Berlin,3701657
4100233310,52.5693634,13.1988806,Edeka,,,,5100101
4119293448,52.5226071,13.4010483,Atix,Neue Promenade 8,,,1100309
4153062561,52.5170593,13.466245,Samariter Unverpackt,,,,2500728
4179406780,52.5252095,13.4154866,Netto Marken-Discount,Alex-Wedding-Straße 3,10178.0,Berlin,1100310
4232340092,52.5282875,13.194756,Bolu,,,,5200630
4244204867,52.5278089,13.4026632,nahcity,Rosenthaler Straße 11,10119.0,,1100309
4271022999,52.4555175,13.1449754,Bio Company,Kladower Damm 362-364,14089.0,Berlin,5400944
4314333203,52.5477143,13.4120467,Bio Company,Gleimstraße 30-35,10437.0,Berlin,3601142
4317329218,52.5422769,13.2057306,Smak Russische Lebensmittel,,,,5100315
4331515200,52.498189,13.3456881,Bio Company,Martin-Luther-Straße 14,10777.0,Berlin,7100101
4369765708,52.4824116,13.5252709,ALDI Nord,Treskowallee 110,10318.0,Berlin,11501339
4372109992,52.523682,13.3462057,LPG BioMarkt,,,,1200626
4415604082,52.5103419,13.3053472,Safrani,Wilmersdorfer Straße 44,10627.0,Berlin,4300623
4419487707,52.5240137,13.3520522,Calvin Discount,Calvinstraße 1,10557.0,Berlin,1200626
4434478716,52.5069556,13.5598549,Bio Company,Weißenhöher Straße 108,12683.0,Berlin,10300733
4454150182,52.5274557,13.3299654,KARAM-Markt,Turmstraße 57-58,10551.0,Berlin,1200519
4454571295,52.448646,13.315628,EDEKA,Hindenburgdamm 59-60,12203.0,Berlin,6300630
4454932107,52.5326682,13.1554903,Falkenfein,,,,5200423
4490641691,52.5082102,13.3073007,Perfetto,,,,4300623
4524893340,52.4747344,13.4398121,Nadaf,,,,8100207
4536095475,52.5619006,13.4675077,Nahkauf,,,,3501037
4546753612,52.5224189,13.4075889,Kaufland,Karl-Liebknecht-Straße 13,10178.0,Berlin,1100310
4547088787,52.5084018,13.3056032,Netto Marken-Discount,Wilmersdorfer Straße 46,10627.0,Berlin,4300623
4547089200,52.508873,13.3043817,Eurogida,,,,4300623
4553089244,52.5221765,13.1638589,EDEKA,Obstallee 28-30,13593.0,Berlin,5200527
4558075794,52.5008416,13.3041489,Balkan Šop-Ilić,Dahlmannstraße 22,10629.0,,4500936
4626472750,52.5962596,13.3552924,Eurogida,Wilhelmsruher Damm 129,13439.0,,12601235
4630466564,52.5669682,13.3485717,Edeka,,,,12100204
4666096208,52.4980205,13.4652952,Kernkraft - Rund um die Nuss,Markgrafendamm 3,10245.0,Berlin,2500835
4675037065,52.5115365,13.3095903,REWE City,Bismarckstraße 91,10625.0,Berlin,4300623
4688178795,52.4823769,13.4382823,Alscham,,,,8100314
4693291602,52.4871266,13.4267676,Al Madina,,,,8100314
4741895910,52.551672,13.4299375,Denns BioMarkt,Prenzlauer Promenade 192,13189.0,Berlin,3400828
4741998242,52.4790826,13.4259339,Eurogida,Hermannstraße 218,12049.0,,8100206
4761147061,52.5356385,13.4968091,REWE,Landsberger Allee 277,13055.0,Berlin,11200514
4761858224,52.5267664,13.3326493,Alnatura Super Natur Markt,,,,1200521
4770967056,52.5336364,13.198041,Netto Marken-Discount,,,,5200629
4778473121,52.5332863,13.43436,Rewe,Pasteurstraße 19,10407.0,Berlin,3701660
4787095825,52.5362946,13.4229304,Lidl,Prenzlauer Allee 44,10405.0,Berlin,3701658
4804539521,52.4856632,13.3228152,Bio Company,Uhlandstraße 103,10715.0,Berlin,4501150
4809139807,52.5158399,13.3048493,Reformhaus Bagheri,Wilmersdorfer Straße 157,10585.0,Berlin,4300621
4848074537,52.4627571,13.3240444,EDEKA,Schloßstraße 10,12163.0,Berlin,6100103
4868088443,52.5556604,13.5588338,Netto,Mehrower Allee 20,12687.0,Berlin,10100208
4873598277,52.536561,13.2754036,Netto Marken-Discount,Siemensdamm 43-44,13629.0,Berlin,5300841
4892038733,52.5342508,13.3787546,Edeka,Chausseestraße 43,10115.0,Berlin,1100414
4934281654,52.5127262,13.1962538,Netto Marken-Discount,,,,5200634
4944997005,52.4880045,13.3577161,Tugra Gida,Hauptstraße 13,10827.0,Berlin,7200409
4995415654,52.498704,13.3121172,Alnatura Super Natur Markt,Konstanzer Straße 2,10707.0,Berlin,4501043
5010062816,52.6329452,13.2893671,Reformhaus Demski,Ludolfingerplatz 1a,13465.0,Berlin,12400721
5014501124,52.5357141,13.1950929,Family Markt,,,,5100316
5034396389,52.4954043,13.4201374,El-Fj Supermarkt,,,,2200213
5077058193,52.5517659,13.429981,Mitte Meer,Prenzlauer Promenade 192,13189.0,Berlin,3400828
5167671610,52.4942276,13.3632963,Organik,Goebenstraße 24-26,10783.0,Berlin,7100205
5224864431,52.5217387,13.423162,ALDI Nord,Berolinastraße 7A,10178.0,Berlin,1100311
5255259068,52.5289253,13.4561482,REWE City,,,,3601450
5277878820,52.4686011,13.5131581,ALDI Nord,Rummelsburger Straße 16,12459.0,Berlin,9200510
5277879724,52.4693304,13.5124377,REWE,Rummelsburger Straße 16,12459.0,Berlin,9200510
5308698871,52.5111656,13.5026446,Maya d‘ Afrique,Frankfurter Allee 267,10317.0,Berlin,11401032
5322104714,52.5370546,13.2721745,EDEKA,Jungfernheideweg 2,13629.0,Berlin,5300841
5331770244,52.6322622,13.2870054,Alnatura Super Natur Markt,Ludolfingerplatz 8A,13465.0,Berlin,12400720
5353308653,52.4872214,13.3294174,Tianfu Asien-Supermarkt,Berliner Straße 15,10715.0,Berlin,4501149
5377794500,52.4496881,13.3847902,Bereket Market,,,,7501030
5426133815,52.4952288,13.3416349,EDEKA,Viktoria-Luise-Platz 10,10777.0,Berlin,7100101
5431718439,52.5000253,13.4609567,Netto,Corinthstraße 36,10245.0,Berlin,2500835
5505144606,52.4797483,13.3267804,EDEKA Burau,Mainzer Straße 13,10715.0,Berlin,4501151
5507711302,52.4819759,13.4325712,Denns BioMarkt,Karl-Marx-Straße 66,12043.0,Berlin,8100206
5525004973,52.4519791,13.384324,Georgische Lebensmittel,,,,7501030
5545056560,52.5067343,13.3941121,Bio Company,Rudi-Dutschke-Straße 17,10969.0,Berlin,2100102
5562843821,52.4996854,13.3346985,Europa Markt,,,,4501045
5578988343,52.503302,13.3424529,Vinh-Loi Asien-Supermarkt,Ansbacher Straße 16,10787.0,Berlin,7100101
5618092635,52.5478568,13.4302622,Netto,Erich-Weinert-Straße 95,,,3601245
5717151780,52.5126595,13.1969132,Alnatura,Heerstraße 221,13595.0,Berlin,5200634
5785097564,52.5265508,13.3416957,Go Asia,Turmstraße 29,10551.0,Berlin,1200520
5797945753,52.5649609,13.5037243,Kefan,Zingster Straße 6,13051.0,Berlin,11100307
5817249360,52.437286,13.3446695,Can Market,,,,6200313
5820186154,52.527555,13.4908178,Chau A Hoang Dic,,,,11300721
5835803818,52.5412661,13.5649008,REWE,Allee der Kosmonauten 196,12685.0,Berlin,10100315
5844370744,52.5277554,13.3436847,Demski,,,,1200625
5844370749,52.5281994,13.3439558,Kaufland,Perleberger Straße 42,10559.0,Berlin,1200625
5887756717,52.5527831,13.382373,El-Fi Supermarket,,,,1300733
5891717533,52.4925371,13.3787764,LPG BioMarkt,Yorckstraße 24,10965.0,Berlin,2200207
5907281654,52.6096448,13.3353663,Nahkauf,,,,12601032
5943512628,52.5547595,13.4113529,Netto Marken-Discount,Gotlandstraße 6,10439.0,Berlin,3601139
5969997511,52.5153174,13.2874342,Lidl,,,,4300413
5986842514,52.4915322,13.3712919,REWE,Bautzener Straße 36,10829.0,Berlin,7100206
5991258686,52.5355802,13.4746475,Netto Marken-Discount,Weißenseer Weg 37,13055.0,Berlin,11200514
6024482762,52.5204377,13.46308,REWE,Eldenaer Straße 42,10247.0,Berlin,3601453
6030378239,52.5096419,13.3771793,Go Asia,,10785.0,,1100205
6032523127,52.5064101,13.4458868,ALDI Nord,Tamara-Danz-Straße 11,10243.0,Berlin,2400625
6045901671,52.4955915,13.3111985,REWE City,Konstanzer Straße 53,10707.0,Berlin,4501043
6055317346,52.4696437,13.3329743,Golden Ilakkya Asia,Rheinstraße 15,12159.0,Berlin,7300517
6069060641,52.5002409,13.4409705,Bio Company,,,,2300419
6078916023,52.437192,13.446031,ALDI Nord,Fritz-Reuter-Allee 184,12359.0,Berlin,8200727
6079651843,52.5078008,13.4676619,PENNY,Boxhagener Straße 80,10245.0,Berlin,2500832
6088939377,52.5345065,13.4256884,AES Shop,Marienburger Straße 36,10405.0,Berlin,3701658
6113203122,52.6053919,13.3571415,Nahkauf,,,,12601134
6131114962,52.5484993,13.3558851,denns Biomarkt,Müllerstraße 34,13353.0,Berlin,1401048
6146723586,52.5488014,13.3537392,REWE,,13353.0,,1400942
6148457828,52.4790268,13.4274455,Netto Marken-Discount,,,,8100206
6167488714,52.4812026,13.5245053,Bio Company,Treskowallee 114,10318.0,Berlin,11501341
6192424377,52.4856105,13.3629759,Die Erbsenzählerei - Gutes unverpackt,Kolonnenstraße 48,10829.0,Berlin,7200414
6258659482,52.5492906,13.4157975,Denns BioMarkt,Schönhauser Allee 80,10439.0,Berlin,3601243
6273394390,52.5208173,13.4139182,Denns BioMarkt,,10178.0,Berlin,1100310
6273463430,52.5846524,13.286496,ALDI Nord,,,,12200515
6277944473,52.5077376,13.5131475,EDEKA,Massower Straße 5,10315.0,Berlin,11400931
6362759639,52.4987,13.3014126,Sheriffs Beef nah & frisch,,,,4500938
6382773513,52.5672818,13.5176126,R-Markt,Warnitzer Straße 20,13057.0,Berlin,11100204
6402635126,52.4296357,13.512672,PENNY,Eisenhutweg 93,12487.0,Berlin,9100409
6405908039,52.4918563,13.4326134,EDEKA,Maybachufer 36-38,12047.0,Berlin,8100310
6418619229,52.5065384,13.3127012,Mitte Meer,Kantstraße 42,10625.0,Berlin,4300623
6494495186,52.4485502,13.3254362,Nahkauf,,,,6100207
6508696685,52.532841,13.3505936,Habibi,,10559.0,,1200623
6535295939,52.5368955,13.2711846,Özgür Market,Nonnendammallee 89,13629.0,Berlin,5300841
6539684111,52.6323439,13.289344,REWE,,,,12400720
6595730361,52.5320129,13.4078491,Edeka,Templiner Straße 12,10119.0,Berlin,3701554
6635160123,52.5334497,13.3280361,Almas,Beusselstraße 44R,10553.0,Berlin,1200517
6653396111,52.4768037,13.4387996,Bio Company,Karl-Marx-Straße 142A,12043.0,Berlin,8100207
6712669617,52.4559767,13.3226395,ASIA24,Kuhligkshofstraße 10E,,,6100102
6739388161,52.5178293,13.3071576,Asia-Markt Wok,,,,4300619
6754031358,52.5021129,13.3584107,Edeka Genthiner Straße,Genthiner Straße 42,10785.0,Berlin,1100103
6766866985,52.5522992,13.3482885,Elmas,Müllerstraße 128A,13349.0,Berlin,1400938
6783674441,52.5161284,13.4659426,Lidl,Rigaer Straße 36-38,10247.0,Berlin,2500728
6808350137,52.5273276,13.3729712,EDEKA,Invalidenstraße 74,10557.0,Berlin,1200628
6895753974,52.5085371,13.4666727,denns Biomarkt,Boxhagener Straße 82,,,2500832
6988372297,52.4761828,13.4396069,Adalat,,,,8100416
7013229041,52.4420025,13.3154003,Lidl,Hindenburgdamm 94,12203.0,Berlin,6300633
7027141484,52.5021374,13.2955465,Bio Company,Heilbronner Straße 12,10711.0,Berlin,4500937
7088081085,52.4783237,13.4464595,Al-Rayan Market,,,,8100415
7090511500,52.5231836,13.477905,REWE,Alfred-Jung-Straße 12,10369.0,Berlin,11300619
7127961262,52.5302494,13.3282762,Al Schark,,,,1200518
7200854537,52.51747,13.304337,Kartar Food,Wilmersdorfer Straße 8,10585.0,Berlin,4300621
7243603338,52.4557998,13.3869187,Bio Company,Tempelhofer Damm 227,12099.0,Berlin,7400927
7249782644,52.5419786,13.4409498,Spreewald Müller,Greifswalder Straße 87,10409.0,Berlin,3601449
7249782646,52.5390994,13.4387602,Centro Italia,Greifswalder Straße 80c,10405.0,Berlin,3601451
7308353335,52.4258887,13.391367,HIT,,,,7501133
7401377653,52.564597,13.3939165,denns Biomarkt,Wollankstraße 101,13187.0,Berlin,3400721
7658861472,52.5023465,13.3855468,EDEKA,Stresemannstraße 52,10963.0,Berlin,2100101
7734882729,52.4770965,13.3416249,Lidl,Hauptstraße 65,12159.0,Berlin,7300517
7821177801,52.4849695,13.3294041,LPG Naturkost,Wilhelmsaue 135,10715.0,Berlin,4501150
7910629136,52.4931558,13.5075566,REWE,Dolgenseestraße 9C-F,10319.0,Berlin,11401135
7922093272,52.5036224,13.3328311,Go Asia,Kurfürstendamm 231,10719.0,Berlin,4501042
7946062409,52.5121281,13.304891,ALDI Nord,Wilmersdorfer Straße 36-37,10585.0,Berlin,4300621
8064523777,52.48668,13.5596318,REWE,Köpenicker Straße 192-198,12683.0,Berlin,10300734
8112305468,52.5040299,13.4680454,denns Biomarkt,Sonntagstraße 37,10245.0,Berlin,2500835
8120989342,52.4574657,13.3206336,Bio Company,,,,6100102
8260370867,52.4585713,13.4252698,REWE l. Schilling,Tempelhofer Weg 11,12347.0,Berlin,8200624
8278396118,52.5475761,13.4190984,REWE,Pappelallee 47,10437.0,Berlin,3601346
8319654403,52.5962424,13.3331428,BOLU,Oranienburger Straße 90,13437.0,Berlin,12500927
8367158861,52.532281,13.3660391,REWE,Heidestraße 41,10557.0,Berlin,1200624
8376407522,52.5008204,13.3247567,REWE,,,,4501041
8459440164,52.5319562,13.46888,Nova,Landsberger Allee 171,10369.0,Berlin,11300616
8499326127,52.5389014,13.3270893,ALDI Nord,Saatwinkler Damm 8,13627.0,Berlin,4100101
8504888827,52.4747337,13.4280117,Asia & Afro Supermarkt,Leykestraße 1,12053.0,Berlin,8100208
8573099104,52.5329077,13.3877558,denns Biomarkt,Gartenstraße 85-87,,,1100415
8626109342,52.5156512,13.2938433,Özen Kardeşler,,,,4300413
8629566328,52.5087067,13.3181997,Özgürdal Discount,,,,4300624
8637878902,52.4853856,13.3542151,Denns BioMarkt,Hauptstraße 29,10827.0,Berlin,7200409
8640531662,52.4523646,13.3324082,Shaam Land,,,,6100206
8693899527,52.5428586,13.3658942,EDEKA,Müllerstraße 12 a-c,13353.0,Berlin,1300836
8812587978,52.4819113,13.4527566,bamstore.de,,,,8100419
8825296305,52.496736,13.4667344,EDEKA Schnelle,Alt-Stralau 66,10245.0,Berlin,2500836
8859808623,52.5425447,13.4399717,AlKaiser,Greifswalder Straße 162,10409.0,Berlin,3601245
8913626619,52.4521833,13.6022591,Einkaufsmarkt,,,,9501736
8919248466,52.4971604,13.311877,Kosher Daily Markt,,,,4501043
8922495217,52.5239973,13.2991114,Shiva Shop - Ayurveda Produkte,,10589.0,,4300517
8946009017,52.4715491,13.3350399,Friedenauer Wochenmarkt,,,,7300517
8960303401,52.4936197,13.4219745,Zora Supermarket,Kottbusser Damm 93,,,8100310
9018077984,52.5903309,13.2865672,REWE,Gorkistraße 11-21,13507.0,Berlin,12200515
9026529976,52.5352403,13.3578535,Podrum,Lehrter Straße 48B,10557.0,Berlin,1200623
9045204695,52.5243627,13.403102,EDEKA,Rosenthaler Straße 43-45,10178.0,Berlin,1100309
9114794714,52.4260794,13.4628401,Bereket Market,,,,8300934
9123971589,52.5126288,13.4341734,Alnatura Super Natur Markt,Koppenstraße 8,10243.0,Berlin,2400623
9154787137,52.5174568,13.4206829,Edeka Schaaf,Schillingstraße 2,10179.0,Berlin,1100311
9167471817,52.5009959,13.3588252,REWE,Kurfürstenstraße 46,10785.0,,1100103
9268122917,52.4967752,13.2903164,EDEKA Schmitt,Seesener Straße 31,10711.0,Berlin,4500938
9275773996,52.5390529,13.5566647,PENNY,Scheibenbergstraße 20,12685.0,Berlin,10100314
9294315110,52.4220395,13.448772,REWE,Wildhüterweg 44,12353.0,Berlin,8200833
9320920749,52.5987496,13.3429357,nah und gut,Eichhorster Weg 25,13435.0,Berlin,12601134
9350697582,52.4933216,13.3840227,Cocos Asia,,,,2200209
9373437843,52.5465946,13.3600251,Go Asia,Müllerstraße 25,13353.0,Berlin,1401043
9380135839,52.4951482,13.4226066,robinhood.store,Maybachufer 6,12047.0,Berlin,8100310
9380210013,52.4706754,13.4324184,Robinhood.store,Altenbraker Straße 16,12053.0,Berlin,8100208
9405719996,52.6342759,13.4967371,Denns BioMarkt,,,,3100103
9451056868,52.5080329,13.467354,Zora,,,,2500832
9492707050,52.490466,13.3862074,Denns BioMarkt,,,,2200209
9550624125,52.4770954,13.3329979,EDEKA Görse & Meichsner,Handjerystraße 99,12159.0,Berlin,7300517
9623050846,52.5076158,13.3328469,denns Biomarkt,Hardenbergplatz 11,10623.0,Berlin,4501042
9645174963,52.4040946,13.4057354,Penny am Lichtenrader Tor,,,,7601442
9776537534,52.5109897,13.535686,Nahkauf,Gensinger Straße 83,10315.0,Berlin,11401033
9794360171,52.5125603,13.3052829,Asia-Markt,,,,4300621
9798282713,52.5188736,13.3879581,ALDI Nord,Friedrichstraße 149,10117.0,Berlin,1100206
9881679117,52.4761489,13.3625151,Edeka,Hedwig-Dohm-Straße 4,10829.0,,7200412
9896641262,52.433239,13.537302,Asia Markt Kim-Chi,Rudower Chaussee 7,12489.0,Berlin,9200715
9899362016,52.530073,13.4886467,World Exotic Foods,Herzbergstraße 128-139,10365.0,Berlin,11300721
9899393717,52.528314,13.4903741,World Exotic Fruits,Herzbergstraße 128-139,10365.0,Berlin,11300721
9929733280,52.5073888,13.4681862,Lidl,Boxhagener Straße 76,10245.0,Berlin,2500832
9984905976,52.5304435,13.4113699,Bio Company,Schönhauser Allee 10,10119.0,Berlin,3701556
10035991556,52.5339932,13.4261824,Edeka Marienburger Straße,Winsstraße 18-20,10405.0,Berlin,3701659
10046858846,52.4342421,13.3769034,REWE,Großbeerenstraße 62-64,12107.0,Berlin,7501133
10057200163,52.4646955,13.3265184,E-Center,Schloßstraße 1,12163.0,Berlin,6100103
10113359153,52.4979385,13.3630995,Edeka Treugut,,,,7100205
10159681696,52.5330253,13.3674405,NHI Global Food Market,,,,1200624
10215601814,52.4374569,13.5471333,Supermarkt Ali Baba,Dörpfeldstraße 31,,,9200716
10279617097,52.5375317,13.405478,EDEKA,Fürstenberger Straße 8,10435.0,Berlin,1100416
10282821109,52.4063662,13.4062262,Bio Company,Lichtenrader Damm 83,12305.0,,7601443
10308094647,52.4235258,13.4356573,Asia Lebensmittel - Obst & Gemüse,,,,8200832
10562009263,52.5253649,13.3418717,Netto,Alt-Moabit 86 A,10555.0,Berlin,1200522
10565788625,52.5546676,13.2260964,REWE,Daumstraße 90,13599.0,Berlin,5300735
10599991748,52.5334703,13.3657883,ALDI Nord,Heidestraße 17,10557.0,Berlin,1200624
10604344379,52.4928521,13.3819581,Amini Supermarkt,Yorckstraße 75,,,2200209
10607485493,52.5231528,13.5445629,REWE,Marchwitzastraße 29,12681.0,Berlin,10100312
10873128906,52.5494666,13.3776167,Rewe,Pankstraße 32-39,13357.0,Berlin,1300836
10928623111,52.5301528,13.3455428,Makka,,,,1200625
10979158423,52.4983384,13.2997798,Rewe,Kurfürstendamm 146-147,10709.0,Berlin,4500938
10979699637,52.4838082,13.4478902,Nahkauf,Kiehlufer 75-79,12059.0,Berlin,8100419
11027556740,52.5253104,13.3893433,Rewe,,,,1100309
11050421035,52.50061,13.3054449,Kosher4all,,,,4500936
11054531199,52.5112322,13.4592291,Mein Palo Santo,Grünberger Str. 72-74,10245.0,Berlin,2500833
11063060337,52.5884667,13.4019567,ALDI Nord,,,,3200207
11063735898,52.4366539,13.4631486,Netto Marken-Discount,Rudower Straße 84-88,12351.0,Berlin,8401139
11078794332,52.5106128,13.4164123,Bio Company,,,,1100313
11114496851,52.4473516,13.6172111,Sparfood Gutes Gern Günstig,,,,9501737
11134671308,52.5201626,13.3198466,EDEKA Zahl,Helmholtzstraße 3 c,10587.0,Berlin,4300620
11191196418,52.4395336,13.4093372,EDEKA Lenkeit,An der alten Gärtnerei 1,12109.0,Berlin,7501032
11194056380,52.4950988,13.522651,Lidl,Ontarioseestraße 17,10319.0,Berlin,11401137
11240723158,52.4646687,13.3950555,REWE,Germaniastraße 12-13,12099.0,Berlin,7400927
11255814627,52.4446581,13.4078396,PENNY Dardanellenweg,Dardanellenweg 50,12109.0,Berlin,7501032
11255892293,52.4478095,13.4046472,EDEKA Lenkeit,Rixdorfer Straße 69,12109.0,Berlin,7501032
11256118796,52.4154025,13.4062078,EDEKA Schrader,Marienfelder Chaussee 143,12349.0,Berlin,8200831
11256176197,52.446092,13.5641295,REWE,Oberspreestraße 145,12555.0,Berlin,9200818
11276107035,52.449956,13.3545317,Lidl,Steglitzer Damm 95,12169.0,Berlin,6100204
11283643647,52.4280537,13.2148926,ALDI Nord,Potsdamer Chaussee 33,14129.0,Berlin,6400737
11283643648,52.4273376,13.2176908,Bio Company,Wiesenschlag 4,14129.0,Berlin,6400736
11286579086,52.4395154,13.2157993,REWE,Breisgauer Straße 3A,14129.0,Berlin,6400838
11286579087,52.4396507,13.2167289,ALDI Nord,Breisgauer Straße 1B,14129.0,Berlin,6400838
11294003462,52.46412,13.4875648,Lidl,Kiefholzstraße 189,12437.0,Berlin,9100304
11294056435,52.4792393,13.481201,Netto Marken-Discount,Dammweg 56,12435.0,Berlin,9100203
11329887047,52.5297046,13.5921419,Netto Marken-Discount,Neue Grottkauer Straße 3,12619.0,Berlin,10200628
11341972269,52.5276643,13.488704,Asia24,Herzbergstraße 128 - 139,10365.0,,11300721
11388056502,52.4560479,13.3379865,ALDI Nord,Bismarckstraße 17,12169.0,,6100208
11396070387,52.525523,13.3695035,denns Biomarkt,,,,1200628
11403668127,52.4759696,13.4397182,Addalat,,,,8100416
11403675916,52.4764873,13.4394939,Almahaba,,,,8100416
