id,lat,lon,name,street,zip_code,city,planning_area_id
35300986,52.5398463,13.3521465,Deichgraf,Nordufer 10,13353.0,Berlin,1401046
78447148,52.5698075,13.3101301,ZobelKlix,Klixstraße 10,13403.0,Berlin,12200310
84904956,52.5712131,13.3134197,Eichborneck,,,Berlin,12200309
89274696,52.5235991,13.4109696,Braufactum,Memhardstraße 1-3,10178.0,Berlin,1100310
89957618,52.5840688,13.302578,Sportler-Eck,Ernststraße 68,13509.0,Berlin,12500825
137549003,52.5699596,13.3138632,Zum feuchten Grafen,Graf-Haeseler-Straße 23,13403.0,Berlin,12200309
137549008,52.5708788,13.3158208,Old Sloth,Auguste-Viktoria-Allee 67a,13403.0,Berlin,12200309
137549010,52.5688285,13.3170085,ChillOut Bar,General-Barby-Straße 25,13403.0,Berlin,12200309
137549024,52.5700374,13.3221149,Bären-Eck,Auguste-Viktoria-Allee 84,13403.0,Berlin,12200309
139671037,52.5342924,13.1421398,Grenzeck,,,,5200421
140274896,52.5682701,13.367889,Haus Bierwerk,Amendestraße 18,13409.0,Berlin,12100102
140274903,52.5754322,13.3303066,Potters Inn,Waldstraße 103,13403.0,Berlin,12200307
150667269,52.5431648,13.3566864,The Tipperary,Triftstraße 58,13353.0,Berlin,1401047
150989193,52.5642761,13.3265108,ROJ Musik Bar,Scharnweberstraße 137,13405.0,Berlin,12200309
150990860,52.5235968,13.3007288,Café Egal und Radlstation,Tauroggener Straße 46,10589.0,Berlin,4300517
175685782,52.5965582,13.3330486,Märkische Bierstuben,Oranienburger Straße 91,13437.0,Berlin,12500927
186054004,52.5726395,13.3048085,Dorfkrug,Otisstraße 40,13403.0,Berlin,12200310
208510718,52.5640793,13.3644914,Kastanienwäldchen,Residenzstraße 109,13409.0,Berlin,12100101
250588095,52.5355911,13.4200871,Yard,Rykestraße 8,10405.0,Berlin,3701556
262194409,52.5334428,13.4162759,Enddorn,Belforter Straße 27,10405.0,Berlin,3701556
268002620,52.5231963,13.4769761,Studentenclub Schlauch,Storkower Straße 225,10367.0,Berlin,11300619
270814670,52.4286425,13.2155914,KlubHaus14,Wasgenstraße 75,14129.0,Berlin,6400737
270961500,52.5550162,13.3616898,Seequell,,,,1401049
272607235,52.4594244,13.5779548,Union Tanke,,,,9502043
273756679,52.4614742,13.339716,Sportsbar Heinrichs,Bismarckstraße 67,12157.0,Berlin,6100210
278266065,52.5058484,13.4663943,Geronimo,,,,2500834
278876760,52.512183,13.4617297,Rockcafé Halford,Mainzer Straße 15,10247.0,Berlin,2500831
282420334,52.5106855,13.4568209,Paules Metal Eck,Krossener Straße 15,10245.0,Berlin,2500833
282425928,52.5143396,13.4596231,Salamas Bar,Niederbarnimstraße 24,10247.0,Berlin,2500830
282742266,52.5179397,13.4656186,Lolly-Pub,Bänschstraße 54,10247.0,Berlin,2500728
282815961,52.510094,13.4603525,Feuermelder,Krossener Straße 24,10245.0,Berlin,2500833
285066943,52.5111838,13.4613046,Zimt & Zunder,Gärtnerstraße 15,10245.0,Berlin,2500833
286428617,52.5378459,13.2031388,Spandauer Bock,,,,5100316
288468824,52.4927208,13.4217007,Bei Schlawinchen,Schönleinstraße 34,10967.0,Berlin,2200213
288697592,52.500227,13.4602777,Kiez-Kneipe II,Bossestraße 8,10245.0,Berlin,2500835
293632127,52.5065214,13.3235118,Dicke Wirtin,Carmerstraße 9,10623.0,Berlin,4300624
297924895,52.4692776,13.4380596,Syndikat,Emser Straße 131,12051.0,Berlin,8100208
303319472,52.4902359,13.426145,Lenau-Stuben,Hobrechtstraße 62,12047.0,Berlin,8100311
303319474,52.4905139,13.4261189,Mama,Hobrechtstraße 61,12047.0,Berlin,8100311
304045906,52.5136836,13.4660501,loge.,Kinzigstraße 9,10247.0,Berlin,2500831
304050485,52.5136974,13.4666469,K9,Kinzigstraße 9,10247.0,Berlin,2500831
304183823,52.5780418,13.3331997,Meiners,Ollenhauerstraße 70,13403.0,Berlin,12100206
304367339,52.5287997,13.281752,Gaststätte Tunnel-Eck,Fürstenbrunner Weg 92,14050.0,Berlin,4200308
306648908,52.5179389,13.3179556,Luna,Cauerstraße 15,10587.0,Berlin,4300622
307467687,52.5251899,13.4519782,Budike,Kochhannstraße 24,10249.0,Berlin,2500726
308525842,52.5511652,13.4043646,Blaumilchkanal,Schivelbeiner Straße 23,10439.0,Berlin,3601140
309054593,52.5202369,13.344336,The Lir,Flensburger Straße 7,10557.0,Berlin,1200629
312253713,52.5292596,13.408163,Prassnik,Torstraße 65,10119.0,Berlin,3701554
312697960,52.4945949,13.400091,Cafe Logo,Blücherstraße 61,10961.0,Berlin,2200210
313281470,52.5889737,13.2879509,Zum Kegel,Grußdorfstraße 1,13507.0,Berlin,12200515
315366750,52.4916417,13.4197294,Pony-Saloon,Dieffenbachstraße 36,10967.0,Berlin,2200213
317152543,52.5260175,13.4518343,Eberty Treff,,,,2500726
318704396,52.5219305,13.4529113,Drittes Ohr,Matternstraße 14,10249.0,Berlin,2500726
322178039,52.5263978,13.398569,Sophieneck,Große Hamburger Straße 37,10115.0,Berlin,1100309
322822423,52.5288311,13.4488396,Zum Leibarzt,Cotheniusstraße 11,10407.0,Berlin,3601452
325585700,52.5254904,13.4474575,Zum Friedrichshainer,Petersburger Straße 44,10249.0,Berlin,2400522
329605839,52.4143006,13.3637108,Bierkiste 136,Marienfelder Allee 136,12277.0,Berlin,7601236
330257797,52.5359066,13.4050034,Perlin,Griebenowstraße 5,10435.0,Berlin,1100416
330259891,52.533631,13.402655,Weinerei Forum,Fehrbelliner Straße 57,10119.0,Berlin,1100416
332625324,52.5223201,13.3838875,Böse Buben Bar,Marienstraße 18,10117.0,Berlin,1100308
333322726,52.476861,13.4212617,Daffke,Herrfurthplatz 7,12049.0,Berlin,8100102
333730237,52.5338484,13.4035776,"Ick koof mir Dave Lombardo, wenn ick reich bin",Zionskirchstraße 34,10119.0,Berlin,1100416
333733050,52.5329814,13.3999802,FC Magnet Bar,Veteranenstraße 26,10119.0,Berlin,1100416
336140140,52.5325107,13.4061676,Schwarze Pumpe,Choriner Straße 76,10119.0,Berlin,1100416
336140143,52.5330606,13.4072137,Lass uns Freunde bleiben,Choriner Straße 12,10119.0,Berlin,3701554
336384880,52.5213573,13.3856815,Die Berliner Republik,Schiffbauerdamm 8,10117.0,Berlin,1100308
339323158,52.5136056,13.4604415,Pk Bar,Kreutzigerstraße 22,10247.0,Berlin,2500830
339749954,52.49767,13.4644854,Krass böser Wolf,Markgrafendamm 36,10245.0,Berlin,2500835
340141884,52.5422626,13.2034541,Die Wampe,,,,5100315
345799578,52.4429424,13.294731,Cafe Charlies Bar,Baseler Straße 2,12205.0,Berlin,6300634
359754357,52.4821064,13.3483161,Queens Pub,Hauptstraße 50,10827.0,Berlin,7200409
361540637,52.545834,13.4201639,Berliner Bürgerstuben,Stargarder Straße 64,10437.0,Berlin,3601347
370000911,52.5038936,13.4538112,Glühlampe,Lehmbruckstraße 1,10245.0,Berlin,2500835
370761692,52.589565,13.2817,Weil,Alt-Tegel 6,13507.0,Berlin,12200515
370765521,52.5030099,13.3155678,AbsetzBar,,,,4501041
387850601,52.546549,13.5584901,Kornkammer,Raoul-Wallenberg-Straße 42,12679.0,Berlin,10100210
388591690,52.5053446,13.4670107,Sieben,Sonntagstraße 7,10245.0,Berlin,2500834
388591692,52.5054451,13.4669576,Tonart,Sonntagstraße 7,10245.0,Berlin,2500834
388989428,52.5111267,13.4570096,Dachkammer,Simon-Dach-Straße 39,10245.0,Berlin,2500833
393306157,52.5308391,13.4072585,Bandito Rosso,Lottumstraße 10a,10119.0,Berlin,3701554
410135897,52.4925767,13.4334226,GriGri,Paul-Lincke-Ufer 11,10999.0,Berlin,2300418
410135903,52.4911967,13.4348394,Dunmore Cave,Maybachufer 44,12047.0,Berlin,8100310
410135942,52.4979413,13.4296989,Weiße Taube,Wiener Straße 15,10999.0,Berlin,2300417
410135943,52.4982848,13.4287341,Wiener Blut,Wiener Straße 14,10999.0,Berlin,2300417
410135944,52.4973116,13.4315708,Madonna Bar,Wiener Straße 22,10999.0,Berlin,2300417
410870859,52.5457487,13.3576396,Zum Schinken,Luxemburger Straße 5,13353.0,Berlin,1400942
411550898,52.5122666,13.5887804,Kaulsdorfer Stube,Heinrich-Grüber-Straße 2,12621.0,Berlin,10400836
415538751,52.5421782,13.423826,Bräugier,Stubbenkammerstraße 6,10437.0,Berlin,3601348
416063203,52.4893968,13.3535101,Gottlob,Akazienstraße 17,10823.0,Berlin,7200409
419317472,52.4882259,13.361793,Robbys Calypso Bar,Crellestraße 22,10827.0,Berlin,7200411
427670071,52.5120794,13.497876,Suzi,,,,11300725
427900855,52.5004219,13.3086932,bei Mo,Kurfürstendamm 67,10707.0,Berlin,4501040
427936469,52.5114491,13.4595298,Stadtteilladen Zielona Góra,Grünberger Straße 73,10245.0,Berlin,2500833
428511043,52.5166542,13.4641926,Abstand,Rigaer Straße 78,10247.0,Berlin,2500728
428514393,52.5128122,13.4641154,ZGK,Scharnweberstraße 38,10247.0,Berlin,2500831
428514680,52.5104475,13.4713447,Supamolly,Jessnerstraße 41,10247.0,Berlin,2500832
430349180,52.5021364,13.3048844,Bar Carlitos,Sybelstraße 16,10629.0,Berlin,4500936
433914799,52.5211937,13.3023326,Zum Anker,Charlottenburger Ufer 6,10587.0,Berlin,4300619
433914847,52.5183071,13.3140196,Zum Dorfkrug,Röntgenstraße 1,10587.0,Berlin,4300619
435181689,52.5029837,13.4891438,Heinzelmännchen,Giselastraße 4,10317.0,Berlin,11400929
437615122,52.5217997,13.4076645,Café Oase,,,,1100310
440183498,52.5019415,13.4250108,Eck-Kneipe,,,,2300315
441303993,52.5385236,13.2025744,Victoria Celtic Pub,Ritterstraße 10,13597.0,Berlin,5100316
441514951,52.4801589,13.4250031,Bäreneck,Hermannstraße 37,12049.0,Berlin,8100102
441734646,52.4756695,13.4433589,Alter Roter Löwe Rein,Richardstraße 31,12043.0,Berlin,8100416
441878989,52.4766295,13.449837,Kaktus reloaded,Sonnenallee 180,12059.0,Berlin,8100415
442390879,52.4554252,13.383724,Stübchen am Hafen,Tempelhofer Damm 228,12099.0,Berlin,7400825
442394343,52.4449497,13.3856448,Bier Stübl,Mariendorfer Damm 86,12109.0,Berlin,7501030
442397744,52.4636156,13.4373029,Zum Alten Krug,Juliusstraße 22,12051.0,Berlin,8100209
443294713,52.4659125,13.4421358,The Nautilus Lounge,Karl-Marx-Straße 258,12057.0,Berlin,8100209
443716342,52.5359362,13.2042742,Spandauer Altstadttreff,Breite Straße 12,13597.0,Berlin,5100316
444596614,52.5524914,13.4297555,Zum Fäßchen,Prenzlauer Promenade 187,13189.0,Berlin,3400828
445821374,52.4552669,13.4378809,Runde Ecke,Britzer Damm 83,12347.0,Berlin,8200623
445821375,52.4558292,13.437596,7&7 Lounge,Britzer Damm 77,12347.0,Berlin,8200623
445821380,52.4527537,13.4382958,Palm Lounge,Britzer Damm 144,12347.0,Berlin,8200624
446658744,52.4656796,13.3943909,Adams Eck,Germaniastraße 150a,12099.0,Berlin,7400927
446880276,52.4619661,13.4349304,Britzer Klatsche,Britzer Damm 9,12347.0,Berlin,8200622
446904794,52.4666012,13.438116,Marktbörse,Bruno-Bauer-Straße 2,12051.0,Berlin,8100209
446943818,52.4651819,13.420014,Kalli & Co,Oberlandstraße 4,12099.0,Berlin,7400928
448081807,52.5239924,13.1927188,plan B,Wilhelmstraße 144,13595.0,Berlin,5200630
448591400,52.4923165,13.4513938,Billard Company Salon Treptow,Bouchéstraße 12,12435.0,Berlin,9100101
448814540,52.4997326,13.4079291,Prinzen-Eck,Wassertorstraße 59,10969.0,Berlin,2100105
450700888,52.5451729,13.392939,Zum Gesundbrunner,Rügener Straße 6,13355.0,Berlin,1300834
452634947,52.4423204,13.4572187,Rudower Quelle,,,,8401138
452967857,52.5185157,13.4689703,Rock- und Wikingerbar,Dolziger Straße 24,10247.0,Berlin,2500728
454251019,52.4869935,13.432545,Zum Krokodil,Weserstraße 19-20,12045.0,Berlin,8100312
454650776,52.4716193,13.4510314,Kleinod,Niemetzstraße 24,12055.0,Berlin,8100417
456389098,52.4462838,13.506701,M&M Lounge,Sterndamm 71,12487.0,Berlin,9100408
459304261,52.4749797,13.4470283,Linus,Hertzbergstraße 32,12055.0,Berlin,8100416
459645666,52.4827706,13.4374604,Bierbaum 2,Sonnenallee 86,12045.0,Berlin,8100314
459682293,52.5826357,13.3952687,Kummerkasten,Kuckhoffstraße 55,13156.0,Berlin,3200206
459732753,52.5606153,13.3335785,Mistral,Müllerstraße 90,13349.0,Berlin,1400937
459785182,52.5591257,13.3362415,Zum Busbahnhof,,,,1400937
459794839,52.5557667,13.3421564,KiKi,Müllerstraße 113,13349.0,Berlin,1400937
461943583,52.4739694,13.4508845,Zum Magendoktor,Mareschstraße 19,12055.0,Berlin,8100417
461949712,52.474417,13.4521504,Keglerheim,Mareschstraße 6,12055.0,Berlin,8100417
463444162,52.5288152,13.464128,Libero,Karl-Lade-Straße 30,10369.0,Berlin,11300618
466464350,52.4679582,13.4312235,Das Bierlokal zum Umsteiger,Hermannstraße 159,12051.0,Berlin,8100208
467149113,52.4676258,13.4422653,Lahn-Eck,Karl-Marx-Straße 241,12057.0,Berlin,8100209
469752805,52.5122617,13.4727386,Avalon,Jessnerstraße 16,10247.0,Berlin,2500832
472375118,52.5394894,13.5891986,Rosencafé,Eisenacher Straße 37,12629.0,Berlin,10200418
472501536,52.5028556,13.4799764,Zum guten Happen,Türrschmidtstraße 20,10317.0,Berlin,11400927
475256014,52.4701667,13.429517,Warthe-Eck,Hermannstraße 95,12051.0,Berlin,8100104
476258827,52.4793894,13.4452585,Zum Tönnchen,Sonnenallee 141,12059.0,Berlin,8100418
476259948,52.4824359,13.4430422,Stammtisch,Finowstraße 15,12045.0,Berlin,8100418
480747489,52.5225871,13.3711572,Capital Beach,,10557.0,Berlin,1100102
486063962,52.5491592,13.4080596,Kohlenquelle,Kopenhagener Straße 16,10437.0,Berlin,3601142
487492236,52.4594455,13.319831,Rothenburg-Eck,Rothenburgstraße 42,12163.0,Berlin,6100102
489596146,52.4974322,13.4382671,Marabu Bar,Oppelner Straße 23,10997.0,Berlin,2300419
490740360,52.5223799,13.4017947,Kilkenny Irish Pub,Am Zwirngraben 17-20,10178.0,Berlin,1100310
492276377,52.461251,13.3181406,General Post Office,Zimmermannstraße 22,12163.0,Berlin,6100102
493655326,52.5390376,13.409927,Schwarz Sauer,Kastanienallee 13-14,10435.0,Berlin,3701554
502545681,52.4923371,13.4259409,Zum böhmischen Dorf,Sanderstraße 11,12047.0,Berlin,8100310
504923925,52.5115322,13.4697658,[f.u.c.]-Bar,Travestraße 4,10247.0,Berlin,2500832
504927455,52.5120523,13.4752513,Zum Igel,Scharnweberstraße 1,10247.0,Berlin,2500832
504927456,52.5123771,13.4691884,Malina,Scharnweberstraße 51,10247.0,Berlin,2500831
505803220,52.5170566,13.4619369,Fischladen,Rigaer Straße 83,10247.0,Berlin,2500728
508861523,52.5437564,13.4235822,Alois S.,Senefelderstraße 18,10437.0,Berlin,3601348
512575817,52.4919098,13.3886481,Clash,Gneisenaustraße 2,10961.0,Berlin,2200211
515879729,52.4797319,13.423404,Mahlower Klause,Weisestraße 63,12049.0,Berlin,8100102
516574171,52.5392219,13.408481,Manifest Taproom,Oderberger Straße 15,10435.0,Berlin,3701554
517409104,52.4884309,13.4543612,Gute Laune,Kiefholzstraße 35,12435.0,Berlin,9100101
517409264,52.4886472,13.454073,Else,Kiefholzstraße 33,12435.0,Berlin,9100101
521198001,52.5436637,13.4382938,Alte Wäscherei,Naugarder Straße 11,10409.0,Berlin,3601245
525495502,52.5870395,13.2834174,Hansa Stuben,Treskowstraße 21,13507.0,Berlin,12200515
528605901,52.5295841,13.3976413,Muschi Obermaier,Torstraße 151,10119.0,Berlin,1100415
530509043,52.509529,13.4680338,Krüger Eck,Weserstraße 12,10247.0,Berlin,2500832
532506304,52.5883864,13.2787831,Bar Fabrik,Alt-Tegel 27,13507.0,Berlin,12200515
552414457,52.5212545,13.3306391,Wikinger Eck,Wikingerufer 6a,10555.0,Berlin,1200522
556702848,52.5071178,13.5120817,U-Bahn-Quelle,,,,11400931
559969015,52.5005219,13.443511,Wendel,Schlesische Straße 42,,Berlin,2300419
560526921,52.5478122,13.4153372,Die Bar,Greifenhagener Straße 54,10437.0,Berlin,3601346
566734800,52.543759,13.4164842,Speiches Rock- und Blueskneipe,Raumerstraße 39,10437.0,Berlin,3601347
567123594,52.5422381,13.3748861,Bistro Nord,Schönwalder Straße 30,13347.0,Berlin,1300836
567168302,52.5206393,13.4123199,Besenkammer,Rathausstraße 1,10178.0,Berlin,1100310
568732136,52.5502616,13.4457302,Sepp Maiers 2raumwohnung,Langhansstraße 19,13086.0,Berlin,3500935
570869849,52.5428315,13.2026191,Zum fröhlichen Zecher,,,,5100315
572690128,52.4949883,13.35252,Mutter,Hohenstaufenstraße 4,10781.0,Berlin,7100102
573820116,52.5421291,13.4893052,Take Off,Konrad-Wolf-Straße 103,13055.0,Berlin,11200513
574773731,52.54405,13.41987,Salt n Bone,Schliemannstraße 31,10437.0,Berlin,3601347
579973035,52.5446501,13.494476,SECO Kiezkneipe,Schöneicher Straße 18,13055.0,Berlin,11200513
582462387,52.5580602,13.4914295,Evis Hansa-Treff,Hansastraße 196,13088.0,Berlin,3501038
582747041,52.5313827,13.4158896,Watt,Metzer Straße 9,10405.0,Berlin,3701556
585262240,52.5535321,13.4117641,Bornholmer Hütte,Bornholmer Straße 89,10439.0,Berlin,3601141
603742982,52.5380187,13.2719257,Musik Cafe,Jungfernheideweg 11,13629.0,Berlin,5300841
603743001,52.5389321,13.2727897,Bistro Melody,Goebelstraße 113,13627.0,Berlin,4100101
610197797,52.3862139,13.4105072,Bärenklause,Kirchhainer Damm 10,12309.0,Berlin,7601547
610198284,52.4142578,13.4009402,Lichtenrader Eck,Lichtenrader Damm 2,12305.0,Berlin,7601442
611126186,52.5417309,13.4150919,August Fengler,Lychener Straße 11,10437.0,Berlin,3601347
616308956,52.5000581,13.4174433,Möbel Olfe,Reichenberger Straße 177,10999.0,Berlin,2300314
617630779,52.5284371,13.328433,Beussel 71,Beusselstraße 71,10553.0,Berlin,1200518
620704384,52.4814769,13.4400849,Rixdorfer,Erkstraße 14,12043.0,Berlin,8100415
621170685,52.4373612,13.4459477,Zum Bierseidel,Fritz-Reuter-Allee 182d,12359.0,Berlin,8200727
624167233,52.5859153,13.4071306,Souterrain,Waldowstraße 29,13156.0,Berlin,3200207
626378646,52.4821821,13.4276225,Polski Bar,Mainzer Straße 46,12053.0,Berlin,8100206
626900909,52.4821056,13.4293293,Sandmann,Reuterstraße 7,12053.0,Berlin,8100206
629116417,52.4874557,13.392604,Bierpause,Willibald-Alexis-Straße 31,10965.0,Berlin,2200211
638214318,52.5342441,13.419811,etc.,Knaackstraße 12,10405.0,Berlin,3701556
639631273,52.5083062,13.4970568,Zum Happen,Weitlingstraße 32,10317.0,Berlin,11400929
643494373,52.5524265,13.3874114,Beim Dicken,Bellermannstraße 17a,13357.0,Berlin,1300733
644711456,52.5299438,13.547241,Cafe Memoli,Allee der Kosmonauten 131,12681.0,Berlin,10100312
648207421,52.5098608,13.4983676,Bierstube bei Birgit,Weitlingstraße 13,10317.0,Berlin,11400929
652767407,52.4833036,13.4407517,Sux,Weserstraße 55,12045.0,Berlin,8100312
661033340,52.4735564,13.4393506,Bierbaum 1,Thomasstraße 9,12053.0,Berlin,8100208
661237072,52.5409285,13.3516249,Joker,Sprengelstraße 25,13353.0,Berlin,1401046
664244046,52.4775927,13.2815803,Habel,Hohenzollerndamm 93,14199.0,Berlin,4400727
664244053,52.4743076,13.2929112,Zum Dortmunder,Breite Straße 35,14199.0,Berlin,4400832
667211326,52.5146178,13.2630838,Hienerwadel,Reichsstraße 87,14052.0,Berlin,4200310
667211370,52.5165569,13.2599006,Westend-Klause,Reichsstraße 80b,14052.0,Berlin,4200309
667858145,52.4995608,13.4392757,Hopfenreich,Sorauer Straße 31,10997.0,Berlin,2300419
667877419,52.5369323,13.4232884,Übereck,Prenzlauer Allee 47,10405.0,,3701658
667890096,52.5369781,13.4212532,Uluru Resort,Rykestraße 17,10405.0,Berlin,3701555
669693240,52.4454096,13.5085055,Gaststätte Astra,Königsheideweg 280,12487.0,Berlin,9100408
670658037,52.4899871,13.359534,Zoulou Bar,Hauptstraße 4,10827.0,Berlin,7200409
674100934,52.5477417,13.2026625,Ooh-ase,,,,5100314
674100935,52.5479754,13.2031637,Zum Dortmunder,,,,5100314
675807375,52.5312212,13.408588,Trespassers,Fehrbelliner Straße 94,10119.0,Berlin,3701554
679668161,52.5045704,13.4947803,Treffer Bar,Weitlingstraße 76,10317.0,Berlin,11400929
679672233,52.448603,13.4209446,Vereinsheim Roseneck,Koppelweg 54,12347.0,Berlin,8200725
679676804,52.4460161,13.4164347,Guter Wille,Rosenallee 1,12347.0,Berlin,8200725
684041104,52.467153,13.5129334,Edisoneck,Edisonstraße 37,12459.0,Berlin,9200510
687020151,52.464606,13.323568,Celtic Cottage Irish Pub,Markelstraße 13,12163.0,Berlin,6100103
689236654,52.4686144,13.3285807,Zur Tulpe,Bundesallee 119,12161.0,Berlin,7300516
693892027,52.5040761,13.3072318,Milch & Soda,,10629.0,Berlin,4501040
695190040,52.5330218,13.4109794,Le Bar Tabac,Christinenstraße 24,10119.0,Berlin,3701554
697303672,52.5412172,13.4384465,Lohrentz-Eck,Greifswalder Straße 167,10409.0,Berlin,3601245
697570129,52.4422265,13.3863238,Duckys,Mariendorfer Damm 112,12109.0,Berlin,7501030
698797309,52.5040468,13.4866048,Cafe Palme,Archibaldweg 25,10317.0,Berlin,11400929
701071559,52.4189439,13.4984679,Schrösel’s,Köpenicker Straße 171,12355.0,Berlin,8401243
703744326,52.4027378,13.5062967,Cafe Outlaw,Elfriede-Kuhr-Straße 18,12355.0,Berlin,8401245
705926044,52.5192012,13.451997,Degendorff,Petersburger Straße 74a,10249.0,Berlin,2400522
707490360,52.5523049,13.3820325,Biertreff,Prinzenallee 2,13357.0,Berlin,1300733
725902291,52.514126,13.2962363,Zur weißen Kastanie,Schloßstraße 22,14059.0,Berlin,4300413
728689928,52.4982545,13.3351547,Berliner Bier-Akademie,Fürther Straße 8,10777.0,Berlin,4501045
728733800,52.530854,13.3508844,Alcatraz,Wilsnacker Straße 30,10559.0,Berlin,1200623
736620807,52.4755065,13.4230016,Bierbaum 3,Schillerpromenade 31,12049.0,Berlin,8100103
738249290,52.5532013,13.4161771,Mauerblümchen,Wisbyer Straße 4,10439.0,Berlin,3601243
740152621,52.5476845,13.185036,Falken-Eck,,,,5100210
745727517,52.4879593,13.4318059,Soulcat,Pannierstraße 53,12047.0,Berlin,8100311
745736106,52.4880316,13.4302103,Silverfuture,Weserstraße 206,12047.0,Berlin,8100311
747200035,52.580188,13.398653,Wackelkontakt,Hermann-Hesse-Straße 26,13156.0,Berlin,3200206
747493601,52.4875715,13.3247709,Blue Café,Holsteinische Straße 1,10717.0,Berlin,4501149
747493604,52.4868822,13.3268079,Baude 38,Nassauische Straße 38,10717.0,Berlin,4501149
766875170,52.4353895,13.5472819,Döner Café bei Ecki,,,,9200716
769368148,52.5001721,13.4237238,Zum Elefanten,Oranienstraße 12,10999.0,Berlin,2300315
769368150,52.5005464,13.4234541,Zum Goldenen Hahn,Oranienstraße 14a,10999.0,Berlin,2300315
769847924,52.4913935,13.4133007,Nova,Urbanstraße 30,10967.0,Berlin,2200212
775640684,52.5164827,13.4639097,mini.mal,Rigaer Straße 31,10247.0,Berlin,2500728
778710953,52.5391125,13.4100306,Zaza,Kastanienallee 12,10435.0,Berlin,3701554
794044374,52.5554204,13.5598712,Eiskristall,,,,10100208
794059331,52.545914,13.554491,Lucky Inn,Marzahner Promenade 45,12679.0,Berlin,10100210
795276400,52.4504132,13.3419835,Holland Mühle,Steglitzer Damm 40,12169.0,Berlin,6100205
802697112,52.4432853,13.3153846,Am Klinikum,Hindenburgdamm 93,12203.0,Berlin,6300633
806650602,52.515503,13.295121,Goldesel,Seelingstraße 7,14059.0,Berlin,4300413
811187895,52.5321889,13.3503926,Kaputter Heinrich,Rathenower Straße 49,10559.0,Berlin,1200623
811187906,52.5325355,13.350999,Perlou,Perleberger Straße 58,10559.0,Berlin,1200623
823476227,52.4742834,13.3813025,Pfeffereule,Manfred-von-Richthofen-Straße 158,12101.0,Berlin,7400721
846077233,52.499713,13.4265813,milchbar,Manteuffelstraße 40-41,10997.0,Berlin,2300315
848935949,52.4891248,13.3230866,Chicko,,,,4501149
863962693,52.5061937,13.470557,Victoria Stadler,Neue Bahnhofstraße 7B,10245.0,Berlin,2500832
866034412,52.5019816,13.4171159,39 Bar,Oranienstraße 39,10999.0,Berlin,2300314
867497554,52.5255661,13.3299243,Exclusive Coffee,,,,1200521
871610943,52.5009638,13.4167119,Trödler,Dresdener Straße 123,10999.0,Berlin,2300314
871610948,52.5010826,13.4166163,Würgeengel,Dresdener Straße 122,10999.0,Berlin,2300314
871633766,52.5025802,13.4141534,Schmitz Katze,Oranienstraße 163,10969.0,Berlin,2100104
874278868,52.5006612,13.4182873,Saz Bar,Adalbertstraße 95a,10999.0,Berlin,2300314
876233999,52.5021088,13.4200632,Trinkteufel,Adalbertstraße 18,10997.0,Berlin,2300314
891502069,52.5298409,13.3971717,Club der polnischen Versager,Ackerstraße 168,10115.0,Berlin,1100415
891502072,52.5297465,13.3972037,Schokoladen,Ackerstraße 169,10115.0,Berlin,1100415
895721099,52.5255633,13.3349228,Am Park,Ottostraße 9,10555.0,Berlin,1200521
897149414,52.5010881,13.4980555,Zackas Kneipchen,Rummelsburger Straße 78,10315.0,Berlin,11400929
901150027,52.5065489,13.317333,Wirtshaus Wuppke,Schlüterstraße 21,10625.0,Berlin,4300624
910426652,52.5400957,13.3758499,Grenzeck,Neue Hochstraße 10,13347.0,Berlin,1300836
912003183,52.4956167,13.4194169,Fuchsbau,Planufer 96,10967.0,Berlin,2200213
913248521,52.5138683,13.4979234,"Bierlokal ""zum Aga""",,,,11300725
913530136,52.5115283,13.4365934,Style,Straße der Pariser Kommune 11,10243.0,Berlin,2400623
916563613,52.4943136,13.4351723,USCHI nation,,,,2300418
916565221,52.4973914,13.43133,Bar 11,Wiener Straße 21,10999.0,Berlin,2300417
918186972,52.5155198,13.4987913,Bierstube Freiaplatz,Rüdigerstraße 43,10365.0,Berlin,11300725
921145699,52.511705,13.4696129,Panenka,Weichselstraße 27,10247.0,Berlin,2500832
921571075,52.4887904,13.2933653,Birkeneck,Charlottenbrunner Straße 12,14193.0,Berlin,4400727
923345900,52.4852855,13.4372685,Ratzeputz,Weserstraße 182,12045.0,Berlin,8100312
926945640,52.528319,13.3311027,Holzwurm,Waldstraße 6,10551.0,Berlin,1200519
930299162,52.4488759,13.4173242,Vereinsheim Ostelbien II,Koppelweg 56,12347.0,Berlin,8200725
931199597,52.5119621,13.2995569,Birgits Pub,Fritschestraße 29,10585.0,Berlin,4300414
933559801,52.4281084,13.2377991,Derby Klause,Robert-von-Ostertag-Straße 30,14163.0,Berlin,6300524
934838040,52.4821791,13.3177686,Unikum,Mecklenburgische Straße 89,10713.0,Berlin,4501148
938296238,52.5135488,13.4707809,Laguna Cafe Bar Lounge,Weichselstraße 35,10247.0,Berlin,2500832
939352757,52.4830523,13.4421403,Sisyfass,Wildenbruchstraße 7,12045.0,Berlin,8100418
945402683,52.5525955,13.4304419,BrotfabrikKneipe,,13086.0,Berlin,3500934
955932511,52.5012486,13.4316295,Tante Lisbeth,Muskauer Straße 49,10997.0,Berlin,2300315
959231249,52.4911895,13.4161111,Bierhaus Urban,Urbanstraße 126,10967.0,Berlin,2200213
967206073,52.4981677,13.2892154,Station Ringbahn,Ringbahnstraße 4,10711.0,Berlin,4500937
986083101,52.499973,13.4189947,multilayerladen,Adalbertstraße 4,10999.0,Berlin,2300314
989022945,52.5202628,13.3930814,Cocktail-Oase,Georgenstraße 184,10117.0,Berlin,1100206
998959043,52.5095037,13.4583601,Die Tagung,,10245.0,Berlin,2500833
1002586839,52.4286982,13.3150695,Rathaus-Klause,Goethestraße 14,12207.0,Berlin,6200421
1003123358,52.42371,13.4362897,Park-Eck,Alt-Buckow 2,12349.0,Berlin,8200832
1008402038,52.4180132,13.4366196,Zinnkanne,,,,8200832
1014622354,52.5280779,13.3527044,Swart,Dreysestraße 17,10559.0,Berlin,1200625
1019733302,52.5113472,13.4600447,Fargo,Grünberger Straße 77,10245.0,Berlin,2500833
1026420266,52.5495337,13.2705138,,,,,12200414
1027231976,52.4904599,13.3551758,Rote Beete,Gleditschstraße 71,10781.0,Berlin,7100204
1028138922,52.4884324,13.428077,Rosel,Weserstraße 210,12047.0,Berlin,8100311
1045519895,52.4821553,13.3514014,Otto Schruppke,Feurigstraße 34,10827.0,Berlin,7200410
1048083114,52.5717892,13.3762432,Nordkurve,,,,12100102
1064353306,52.4739654,13.4234937,Schillers,,,,8100103
1064641129,52.5364799,13.4856591,Zum Holzwurm,,,,11200513
1069911873,52.4839891,13.439361,Gelegenheiten,Weserstraße 50,12045.0,Berlin,8100312
1075296008,52.4357805,13.2581611,Shamrock Pub,Onkel-Tom-Straße 2,14169.0,Berlin,6400839
1075296013,52.4356974,13.2588763,La Fontaine,Onkel-Tom-Straße 1,14169.0,Berlin,6400841
1077593628,52.5058523,13.3021887,Zum Hecht,,,,4300416
1077664933,52.4832301,13.4341503,Valentin Stüberl,Donaustraße 112,12043.0,Berlin,8100314
1080421916,52.414567,13.2534856,Pils Stübchen,Lupsteiner Weg 59,14165.0,Berlin,6300525
1083633131,52.4994522,13.4106786,Cafe Dogu,Bergfriedstraße 19,10969.0,Berlin,2100105
1095133440,52.548388,13.1985292,Zur Hügelschanze,Ackerstraße 37,13585.0,Berlin,5100315
1097193997,52.5864148,13.2806078,Zur gemütlichen Ecke,Medebacher Weg 9,13507.0,Berlin,12200515
1105811177,52.5256406,13.3329009,Café Mauerwerk,Zwinglistraße 7,10555.0,Berlin,1200521
1108168284,52.4992754,13.4194716,Monarch,Skalitzer Straße 134,10999.0,Berlin,2300314
1112789343,52.4469421,13.3114454,Loch Ness,Roonstraße 31a,12203.0,Berlin,6300633
1115404048,52.5216865,13.5894805,Cafe - Casino 21,,12619.0,Berlin,10200630
1116757961,52.5358364,13.433102,Willy Bresch,Danziger Straße 120,10407.0,Berlin,3701660
1116962400,52.5393911,13.4210429,Mokum,Danziger Straße 56,10435.0,Berlin,3701555
1119155210,52.4772205,13.3289706,Zum Friedenauer,Varziner Straße 6,12159.0,Berlin,7300517
1119515781,52.5058186,13.3090215,Veritas,Krumme Straße 50,10627.0,Berlin,4300623
1123408885,52.5052164,13.3295513,Lotte am Zoo,,,,4300622
1124645655,52.6159145,13.3220705,Sportklause,Am Ried 3,13467.0,Berlin,12400723
1132994053,52.4983046,13.3174026,Friend’s Cocktailbar,Pariser Straße 38,10707.0,Berlin,4501043
1135490612,52.5639277,13.2011998,Stadtrand Klause,Am Forstacker 18,13587.0,Berlin,5100102
1145597642,52.5773616,13.278247,Kiek in.,Neheimer Straße 12,13507.0,Berlin,12200413
1148701085,52.498084,13.4293181,Travolta,Wiener Straße 14b,10999.0,Berlin,2300417
1149058591,52.5252864,13.3982393,Anna Koschke,Krausnickstraße 11,10115.0,Berlin,1100309
1156313622,52.5648621,13.2094583,Gasthaus Hakenfelde,,,,5100103
1161567836,52.5330215,13.3984279,Bräustübl,Brunnenstraße 172,10119.0,Berlin,1100415
1161915839,52.5359479,13.4127487,Baiz,,,,3701556
1164354181,52.4876511,13.4306232,Yuma Bar,Weserstraße 14,12047.0,Berlin,8100311
1168692792,52.5039283,13.4112277,Zum kleinen Moritz,,,,2100104
1181625825,52.5084046,13.4552056,Place Clichy,Simon-Dach-Straße 22,10245.0,Berlin,2500834
1184113765,52.57147,13.3801155,Cafe Goldrot,,,,12100102
1187333180,52.5033249,13.3255542,Bunnys Bar,Uhlandstraße 179,10623.0,Berlin,4501042
1190101806,52.4859481,13.4349145,Kachellounge 54,Weichselstraße 54,12045.0,Berlin,8100312
1190874905,52.4848708,13.4375571,Tier,,,,8100312
1194597941,52.517965,13.3040151,Zum Kiez-Treff,,,,4300621
1194597962,52.5170555,13.3061392,B3,,,,4300621
1194782069,52.5126221,13.2973878,Schloßcafé,,,,4300414
1195413143,52.4087358,13.355903,Treffpunkt,,,,7601340
1201459181,52.4465764,13.3072438,Hackys Pub,Moltkestraße 50,12203.0,Berlin,6300633
1207610408,52.5564006,13.4019931,Bauernstube,Björnsonstraße 5,10439.0,Berlin,3601139
1210405603,52.5660453,13.3205113,Daggis Einflug 1,Scharnweberstraße 37,13405.0,Berlin,12200309
1221419152,52.5018158,13.2997227,Zum gemütlichen Schotten,Sybelstraße 43,10629.0,Berlin,4500936
1224802700,52.4454949,13.4335261,Goldener Esel,,,,8200726
1226759736,52.5169772,13.2998058,Die Kleine Kneipe,Schustehrusstraße 27,10585.0,Berlin,4300414
1228228396,52.513876,13.3050937,Wilhelm Hoeck 1892,,,,4300621
1236630598,52.5085063,13.2848763,Dressel 85C,Dresselstraße 3,14057.0,Berlin,4300415
1238546172,52.4805295,13.4318174,Twinpigs,Boddinstraße 57A,12053.0,Berlin,8100206
1241041805,52.4862529,13.4346009,Holz-Kohlen,Weserstraße 28,12045.0,Berlin,8100312
1241968012,52.4996832,13.5080052,,Volkradstraße 30,10319.0,Berlin,11401136
1243413781,52.5434524,13.3597107,Eschenbräu,Triftstraße 67,13353.0,Berlin,1401047
1244350012,52.5268851,13.4146003,Bar 3,,,,1100310
1244902068,52.4974864,13.4311092,Wild at Heart,,,,2300417
1246632349,52.4850209,13.4372849,Ä,Weserstraße 40,12045.0,,8100312
1247060094,52.4892205,13.450265,Wilde 28,,,,9100101
1247114841,52.485244,13.448853,Harzer Ecke Elsen,,,,8100419
1250243460,52.4546934,13.5114302,Südpol,,,,9200613
1256888908,52.4892686,13.4279315,Dschungel,Friedelstraße 12,12047.0,Berlin,8100311
1256888917,52.4885969,13.4280235,ORi,Friedelstraße 8,12047.0,Berlin,8100311
1256888936,52.4882443,13.4287764,Schilling,Weserstraße 9,12047.0,Berlin,8100311
1257922168,52.5030013,13.4790344,Seven Bar and Food,Türrschmidtstraße 37,,,11400927
1262549082,52.5068955,13.2922491,imma uff,,,,4300415
1270564961,52.5490709,13.3444244,Dart und Sportbar Alt-Wedding,Kameruner Straße 19,13351.0,Berlin,1400938
1271993482,52.4934472,13.2992906,Die kleine Weltlaterne,Nestorstraße 22,10709.0,Berlin,4500939
1275935262,52.493236,13.3842479,Wirtschaftswunder,,,,2200209
1285820719,52.5364318,13.3795626,Hackethals,Pflugstraße 11,10115.0,Berlin,1100414
1288088575,52.4764566,13.3288368,Panorama,,,,7300517
1288945753,52.4736492,13.3243718,Taunus Eck,Taunusstraße 7,12161.0,Berlin,7300515
1290372517,52.5386623,13.3953961,Brunnenquelle,Brunnenstraße 134,13355.0,Berlin,1300835
1290403978,52.537212,13.3971103,Double In,Brunnenstraße 44,,,1100416
1291461606,52.5409452,13.4113931,Zur Insel,Eberswalder Straße 23,10437.0,Berlin,3701554
1294929408,52.5259051,13.3096607,Zum Straßenfeger,,,,4300518
1303018241,52.4892262,13.3488595,Lockes Gondel,,,,7200409
1306931828,52.500884,13.4404044,Kirk,Skalitzer Straße 75,10997.0,Berlin,2300316
1307115279,52.4692379,13.4305565,Bienenkorb,,,,8100208
1309021893,52.5179905,13.4580211,Kadterschmiede,Rigaer Straße 94,10247.0,Berlin,2500727
1313558841,52.482515,13.3770615,Boelcke’s Kleines Gasthaus,,,,7400720
1314614854,52.4909346,13.3864196,Rausch Gold,Mehringdamm 62,10961.0,Berlin,2200209
1315976801,52.4840307,13.4324192,Das Gift,Donaustraße 119,12043.0,Berlin,8100314
1329493003,52.4764766,13.4797918,Zur Putte,Köpenicker Landstraße 94,12437.0,Berlin,9100203
1333812248,52.4640428,13.3311615,Goldfisch,Schöneberger Straße 10,12163.0,Berlin,6100209
1339278476,52.4837245,13.4680142,Idyll,,,,9100202
1346939810,52.5028186,13.4201832,Jodelkeller,,,,2300314
1346939904,52.5121318,13.4169088,Gitti’s Bierbar,Brückenstraße 13,,,1100312
1348444603,52.5451769,13.4119348,trauerspiel bar kneipe,Milastraße 7,,,3601142
1348552253,52.4684976,13.4301948,Esco Bar,,12051.0,Berlin,8100104
1374234227,52.5114153,13.4610093,Artliners,,,,2500833
1385363058,52.5589057,13.3860877,45°,Prinzenallee 53,13359.0,Berlin,1300731
1386456878,52.5533796,13.3916482,Offside,Jülicher Straße 4,13357.0,Berlin,1300733
1389926122,52.5446596,13.2461312,Kleiner Treffpunkt,Gartenfelder Straße 58,13599.0,Berlin,5300737
1392129018,52.4998172,13.4376097,Kvartira Nr. 62,Lübbener Straße 18,10997.0,Berlin,2300419
1394776930,52.5089471,13.4606232,Hops & Barley,Wühlischstraße 22/23,10245.0,Berlin,2500833
1399155195,52.4790502,13.4235786,Blauer Affe,,,,8100102
1400511882,52.5358364,13.4311032,FLAX,Chodowieckistraße 41,10405.0,Berlin,3701658
1400755369,52.5606396,13.2120404,Goltz Baude,,,,5100104
1406179849,52.5567694,13.3772462,Kachel Eck,Drontheimer Straße 1,13359.0,Berlin,1300730
1406456059,52.479236,13.349687,Resonanz,Ebersstraße 66,10827.0,Berlin,7200308
1407679187,52.5479083,13.2020233,Zur Post,,,,5100314
1408523008,52.4481949,13.6246694,Josef Heinrich,Bölschestraße 11,,Berlin,9501737
1411138892,52.537454,13.2647431,Zum Rohreck,,,,5300841
1411601696,52.5482441,13.203564,Am Lutherplatz,,,,5100314
1412978994,52.5112556,13.463958,Bariton,Weserstraße 23,10247.0,Berlin,2500831
1417696027,52.517855,13.4633202,Wein-Salon,Schreinerstraße 59,10247.0,Berlin,2500728
1419151787,52.535268,13.2710816,M26,Reisstraße 26,13629.0,Berlin,5300841
1421402247,52.4609787,13.4429036,Dufte,Jahnstraße 27,12347.0,Berlin,8200622
1422009768,52.507557,13.4995249,Sturgis,Margaretenstraße 21,10317.0,Berlin,11400929
1422009784,52.5095555,13.5044103,Zum Absacker,,,,11400931
1426582968,52.5016524,13.4655402,Zukunft,,10245.0,Berlin,2500835
1429037825,52.4966164,13.4203831,Das Hotel,Mariannenstraße 26a,10999.0,,2300417
1446272905,52.4848104,13.4272904,Sonder-Bar,Karl-Marx-Straße 20,12043.0,Berlin,8100206
1450826489,52.5062632,13.5026393,Alibi,Archenholdstraße 36,10315.0,Berlin,11400929
1450826588,52.5109318,13.5057178,Jägerheim,,,,11401032
1453885018,52.5111959,13.3183583,Schillerklause,Am Schillertheater 1,10625.0,Berlin,4300622
1459951045,52.553087,13.4035633,Schwarze Hexe,,,,3601140
1461829398,52.5049879,13.294972,Schrill,Holtzendorffstraße 14,14057.0,Berlin,4300416
1471202710,52.5518883,13.3618698,Gambrinus-Eck,,,,1401048
1472157631,52.4881363,13.4266806,Wesereck,,,,8100311
1485800806,52.515319,13.4717531,Peters Bier Bar,,,,2500729
1487175653,52.5066728,13.4679738,The Happy Pig,Lenbachstraße 1,10245.0,Berlin,2500834
1488606494,52.4842307,13.4331894,Peppi Guggenheim,Weichselstraße 7,12043.0,Berlin,8100314
1488606509,52.4844493,13.4330001,Astra Stube,,,,8100314
1488606517,52.4858576,13.4347939,O.T. Projektraum,,,,8100312
1497928565,52.5470535,13.3513076,Klein Zaches,Antwerpener Straße 43,13353.0,Berlin,1400942
1504564890,52.5044899,13.4478898,Honolulu,,,,2400625
1507945388,52.4601083,13.4299952,Germania-Eck,Germaniapromenade 33,12347.0,Berlin,8200624
1519970121,52.4893523,13.3447293,bei Joschi,,,,7200307
1523188144,52.4909171,13.4292557,Damen-Salon,Reuterstraße 39,12047.0,Berlin,8100311
1523392754,52.4901129,13.4287911,Kauz & Kiebitz,Reuterstraße 47,12047.0,Berlin,8100311
1528499450,52.4905697,13.4288342,Loretta Bar,Reuterstraße 45,12047.0,Berlin,8100311
1538358988,52.5391325,13.4077406,Nemo,Oderberger Straße 46,10435.0,Berlin,3701554
1539485165,52.4845975,13.5193436,Zur Sonne,Dönhoffstraße 26,10318.0,Berlin,11501339
1544176520,52.5476515,13.4095124,Privatleben,,,,3601142
1550405834,52.4833726,13.5262386,Karlshorst Village,Treskowallee 99,10318.0,Berlin,11501340
1568670300,52.4691201,13.4312779,Liesl,Nogatstraße 30,12051.0,Berlin,8100208
1574928518,52.45484,13.3763855,Flair,Alarichstraße 21,12105.0,Berlin,7400825
1582900608,52.501598,13.416685,Dresden,Dresdener Straße 19,10999.0,Berlin,2300314
1585056896,52.5043929,13.4091095,Zur Mütze,,,,2100104
1625174236,52.4655752,13.4867513,Baumquelle,,12437.0,Berlin,9100304
1625735667,52.5498973,13.3867398,Bierbrunnen an der Plumpe,Behmstraße 3,13357.0,Berlin,1300733
1636136231,52.5533322,13.4148561,Bärenhöhle,Schönhauser Allee 90,10439.0,Berlin,3601243
1650663073,52.4784374,13.419898,Brauhaus neulich,Selchower Straße 20,12049.0,Berlin,8100102
1654368360,52.5306822,13.4149481,Meta Mate Bar,Straßburger Straße 16,10405.0,Berlin,3701556
1659884030,52.5504465,13.3590082,Gambrinus,Utrechter Straße 30,13347.0,Berlin,1401048
1667676442,52.5327249,13.4143642,Atlantik Bar,Kollwitzstraße 18,10405.0,Berlin,3701556
1673957220,52.5100524,13.4641062,Steppender Bär,,,,2500833
1675631544,52.5475458,13.4100101,Höhers Gaststuben,Rhinower Straße 1,10437.0,Berlin,3601142
1677234765,52.4599861,13.5291836,Bei Steini,,12459.0,Berlin,9200511
1679386927,52.4194592,13.3060051,Domino,,,,6200420
1681306883,52.4638078,13.3353201,Britta,Lauenburger Straße 2 I,12157.0,Berlin,6100209
1699323202,52.5341991,13.3592766,Café Kulturfabrik,Lehrter Straße 35,10557.0,Berlin,1200624
1707013602,52.5082194,13.4970003,Zum Happen,Weitlingstraße 32,10317.0,Berlin,11400929
1710156703,52.4435066,13.5790786,J.@M.one,Müggelheimer Straße 4,12555.0,Berlin,9401534
1716453113,52.5485031,13.4260496,Bei Papa Heinz,,,,3601244
1718444308,52.5453262,13.4230492,Kleine Kneipe,Dunckerstraße 68,10437.0,Berlin,3601347
1718477776,52.4771771,13.3324832,Auszeit,Handjerystraße 1,12159.0,Berlin,7300517
1718668759,52.5447917,13.4231482,Absinth,Dunckerstraße 24,10437.0,Berlin,3601348
1731840918,52.4736812,13.4234165,Bechereck,,,,8100103
1737166686,52.5350746,13.4163233,Bar 55,Kollwitzstraße 55,,,3701556
1741956124,52.5222726,13.3994454,Verkehrsberuhigte Ostzone,,10178.0,Berlin,1100310
1743741206,52.5054902,13.283696,Berliner Krug,,,,4300415
1745694993,52.4955834,13.28734,Wolfs Inn,Storkwinkel 2,10711.0,Berlin,4500937
1746938767,52.5317831,13.4162151,Metzer Eck,Metzer Straße 33,10405.0,Berlin,3701556
1758320050,52.5079991,13.4724024,Eine wie keine,,,,2500832
1758320066,52.5070704,13.4708823,Home Bar,Neue Bahnhofstraße 23,10245.0,Berlin,2500832
1763033078,52.5182639,13.4552008,Filmrisz,,,,2500727
1774557609,52.4669935,13.3439385,Berlinchen,Rubensstraße 88,12157.0,Berlin,7300619
1781450182,52.5262035,13.3919887,The Pips,,,,1100309
1812544564,52.4812647,13.4525655,Bar am Ufer,Kiehlufer 121,12059.0,Berlin,8100419
1814188786,52.5135122,13.4551962,MacLaren,Boxhagener Straße 16,10245.0,Berlin,2500833
1819404955,52.5021595,13.4307682,Lerchen & Eulen,Pücklerstraße 33,10997.0,Berlin,2300315
1819427818,52.5075865,13.4547707,Crack Bellmer,,,,2500834
1825676978,52.4989322,13.2965852,Cumulus,Joachim-Friedrich-Straße 18,10711.0,Berlin,4500937
1826447944,52.4960774,13.4291002,Filmkunstbar Fitzcarraldo,Reichenberger Straße 133,10999.0,Berlin,2300417
1826597524,52.5510184,13.4058213,Little Pub,Driesener Straße 6,10439.0,Berlin,3601141
1829246504,52.5585914,13.3709688,Molle 2,Residenzstraße 80,13409.0,Berlin,1300730
1829246535,52.556423,13.372928,Bierquelle,,,,1401045
1832049029,52.5259961,13.3936806,Zosch,,,,1100309
1834039243,52.495647,13.4293242,Bierstube,,,,2300417
1834039245,52.496574,13.4261402,Rummels Perle,Reichenberger Straße 47,10999.0,Berlin,2300417
1847281558,52.5107285,13.2830282,Zur letzten Runde,,,,4200311
1852959785,52.4964129,13.3653627,Dennewitz-Klause,Bülowstraße 38,10783.0,Berlin,7100205
1861543923,52.474802,13.4545027,Freekick,,,,8100418
1871865192,52.4839719,13.3615872,Inselnest,Leberstraße 23,10829.0,Berlin,7200413
1873504900,52.5285632,13.3369866,Subito,Waldenserstraße 4,10551.0,Berlin,1200520
1873511910,52.5284066,13.336155,Cafe Cox,Waldenserstraße 29,10551.0,Berlin,1200520
1876548210,52.4980519,13.308142,Zero,,,,4501043
1880812004,52.449037,13.4605647,,,,,8200728
1882067156,52.4998738,13.3142714,nopa,Olivaer Platz 15,10707.0,Berlin,4501041
1882869703,52.4989776,13.3429028,Prinzknecht,Fuggerstraße 33,10777.0,Berlin,7100101
1899009730,52.5025469,13.3049601,Bierbaum,Lewishamstraße 7,10629.0,Berlin,4500936
1907577326,52.4859127,13.4302526,Finale Sportsbar,,,,8100314
1921396240,52.5047722,13.4508986,Billard House,,,,2500835
1927276405,52.5005192,13.3503688,K6,Kleiststraße 6,10787.0,Berlin,7100102
1929452683,52.4761105,13.3100105,Wilhelm Nikolai,Nauheimer Straße 44,14197.0,Berlin,4400834
1934697553,52.5244296,13.3027389,Musik Café Z,Mierendorffstraße 27,,,4300517
1948103195,52.5168207,13.2875442,Zur Linde,Sophie-Charlotten-Straße 97,14059.0,Berlin,4300413
1948871695,52.5186564,13.289907,Kleine Kneipe,Klausenerplatz 22,14059.0,Berlin,4300413
1955337637,52.4983853,13.3068951,Gabiko,Paulsborner Straße 94,10709.0,Berlin,4500939
1955496394,52.4901689,13.4028527,Anno64,Gneisenaustraße 64,10961.0,Berlin,2200210
1963382608,52.5022004,13.3130349,Klo,Leibnizstraße 57,10629.0,Berlin,4501040
1979173862,52.4388659,13.5503857,p two Restaurant & Cocktailbar,Dörpfeldstraße 58,12489.0,Berlin,9200717
1979921384,52.5041989,13.3274951,Bristol Bar,,,,4501042
1985722129,52.4980166,13.2997936,Liquor Store,Nestorstraße 7,10709.0,Berlin,4500938
2008662462,52.4935789,13.387729,Vogt’s Bier-Express,Mehringdamm 32/34,10961.0,Berlin,2200208
2023692407,52.4581741,13.3278652,Check in,Bergstraße 92,12169.0,Berlin,6100208
2026821149,52.4950452,13.3837733,Alptraum,Großbeerenstraße 23,10963.0,Berlin,2200208
2030800558,52.4866566,13.3173928,Alte Berliner Schänke,Berliner Straße 49,10713.0,Berlin,4501146
2055163663,52.488047,13.3367481,Tresen-Treff,Berliner Straße 167,10715.0,Berlin,4501153
2072306201,52.5431068,13.4385652,Bilderpinte,Naugarder Straße 7,10409.0,Berlin,3601245
2098280282,52.4461419,13.3443232,Simon´s,,,,6100205
2105765792,52.5486051,13.3476337,Richies Cafe-Bar,Seestraße 106,13353.0,Berlin,1400938
2110712896,52.4668934,13.3219846,Bigalke,,,,7300516
2163774779,52.4444833,13.3854334,Remise No 1,Mariendorfer Damm 90D,12109.0,Berlin,7501030
2180491198,52.581118,13.2905946,Bingo,,,,12200413
2197789273,52.4667941,13.385955,Bierhaus Tempelhof,Tempelhofer Damm 139,12099.0,Berlin,7400927
2245836213,52.4894903,13.3922155,Turandot,,,,2200211
2266030779,52.5288404,13.385434,Quelleck,Tieckstraße 41,,,1100415
2272817595,52.4585332,13.3784434,Vereins-Eck 67,,,,7400825
2272817899,52.459772,13.3813757,Blumenthal-Eck,,,,7400824
2272819038,52.4627447,13.377428,Bose-Eck,,,,7400824
2287826230,52.5365649,13.2227914,Pool Position,Am Juliusturm 31,13599.0,Berlin,5300736
2296652684,52.4869473,13.3236421,Mittenmang,,,,4501149
2296748518,52.4872998,13.3230605,Chimera,Fechnerstraße 7,10717.0,Berlin,4501149
2325417278,52.4797107,13.4284116,Laidak,Boddinstraße 42,12053.0,Berlin,8100206
2329465042,52.471595,13.4427307,Omega Bar,Wipperstraße 18,12055.0,Berlin,8100417
2332824336,52.4652875,13.4327838,Café Sancy,,,,8100209
2336898158,52.5055586,13.3241601,Schwarzes Cafe,Kantstraße 148,10623.0,Berlin,4300624
2390734924,52.550607,13.363522,Café Cralle,Hochstädter Straße 10a,13347.0,Berlin,1401049
2426391493,52.5418185,13.3335979,Zur Fischerpinte,,,,1400937
2427442170,52.53017,13.3401888,Zum Stammtisch,Bredowstraße 15,10551.0,Berlin,1200520
2439759291,52.5094377,13.2774619,The Moonlight,Kaiserdamm 80,14057.0,Berlin,4200311
2442886682,52.4904849,13.3227685,Uh-Länder,Uhlandstraße 78,,,4501147
2451154239,52.4863418,13.3636771,Jonas,Naumannstraße 1,10829.0,Berlin,7200414
2455728690,52.480489,13.3485076,Erx Lounge,Fritz-Reuter-Straße 9,10827.0,Berlin,7200308
2464442840,52.5004839,13.4225958,Bateau Ivre,,,,2300314
2476384360,52.4747729,13.4223976,Darts e.V.,,,,8100103
2476417006,52.4866674,13.3228483,Uhland Eck,Berliner Straße 33,,,4501149
2495554363,52.4880065,13.3868088,Arcanoa,Am Tempelhofer Berg 8,10965.0,Berlin,2200211
2495554575,52.4886356,13.3918258,Heidelberger Krug,Arndtstraße 15,10965.0,Berlin,2200211
2496059352,52.4752829,13.3402711,Sponholz,Hauptstraße 89,12159.0,Berlin,7300618
2496651175,52.4898238,13.3899477,Atlantic,Bergmannstraße 100,10961.0,Berlin,2200211
2496651187,52.4903858,13.3870441,Destille,Mehringdamm 67,10961.0,Berlin,2200211
2520049268,52.5176799,13.2937627,Glaube Liebe Hoffnung,,,,4300413
2520071252,52.502485,13.3009001,Schelle,,,,4500936
2524502813,52.5332865,13.4245632,Tomsky,Winsstraße 61,10405.0,Berlin,3701659
2529284228,52.5478615,13.3493543,Vagabund Brauerei Taproom,Antwerpener Straße 3,13353.0,Berlin,1400942
2532870762,52.5077469,13.3086505,Mittendrin,Pestalozzistraße 83,10627.0,Berlin,4300623
2539491540,52.4927635,13.3816598,Café Samsun,,,,2200209
2557710398,52.5251982,13.3431042,Zur Quelle,Alt-Moabit 87,10559.0,Berlin,1200626
2574597999,52.5569239,13.4663808,Tessen,,,,3500933
2592145046,52.4762529,13.4417298,Kindl-Klause,,,,8100416
2608191171,52.5517425,13.4155869,Gegenüber,,,,3601243
2619877112,52.4977242,13.4248322,BKK - Bierkombinat Kreuzberg,Manteuffelstraße 53,10999.0,Berlin,2300417
2623908699,52.4316958,13.3917788,Traber-Treff,,,,7501134
2623911535,52.4380409,13.3881793,Dorfkrug,,,,7501134
2631428660,52.4696305,13.4353311,Ilse-Eck,Nogatstraße 43,12051.0,Berlin,8100208
2631441980,52.4698895,13.4373716,Nogat-Klause,Nogatstraße 50,12051.0,Berlin,8100208
2674838327,52.4452657,13.3027532,Wir Zwei,,,,6300633
2676736128,52.4933515,13.3814005,Schurke,Yorckstraße 17,10965.0,Berlin,2200208
2688558595,52.5150559,13.4541734,Brewdog,Frankfurter Tor 7,10243.0,Berlin,2500830
2717299472,52.5158173,13.306411,Nante,Richard-Wagner-Straße 43,10585.0,Berlin,4300621
2752211155,52.5603989,13.3879854,Weinstube II,Wollankstraße 67,13359.0,Berlin,1300732
2752211185,52.5580237,13.3893127,Soldiner Eck,Soldiner Straße 16,13359.0,Berlin,1300732
2756763487,52.564252,13.390811,Zum Kattegat Dock 7,Kattegatstraße 7,13359.0,Berlin,1300731
2759261533,52.5080852,13.3175767,Union Jack The Whisky Pub,,,,4300624
2777010889,52.5044014,13.3380498,Irish Pub,Tauentzienstraße 9-12,10789.0,Berlin,4501042
2789114069,52.4992796,13.4197747,Fahimi Bar,,,,2300314
2791721407,52.4579798,13.3294928,Finnegans Irish Pub,Bergstraße 8,12169.0,Berlin,6100208
2800773945,52.3983822,13.4049492,Goldene Gans,Grimmstraße 7,12305.0,Berlin,7601442
2800777264,52.420825,13.4335333,Trinker Bell,An den Achterhöfen 20,12349.0,Berlin,8200832
2800779943,52.425861,13.4016273,Brotmaus,Tauernallee 40,12107.0,Berlin,7501134
2816544646,52.5557737,13.1981262,Klinke-Stuben,Schönwalder Allee 74,13587.0,Berlin,5100105
2834923060,52.5300459,13.3309431,Cafe BB21,Waldstraße 44A,10551.0,Berlin,1200519
2835417401,52.4561568,13.6256296,Friedrichskeller,Bölschestraße 68,12587.0,Berlin,9501737
2837044347,52.5238928,13.3530757,Moabit ist Beste,,,,1200626
2844871469,52.5322957,13.4190074,Unsre Kneipe,Belforter Straße 22,10405.0,Berlin,3701556
2861338490,52.6088081,13.3218779,Gudruns Bierstuben,Benekendorffstraße 9,13469.0,Berlin,12500928
2862857952,52.5030199,13.4298656,Platzwart Kickerbar,Manteuffelstraße 110,10997.0,Berlin,2300315
2874673104,52.5375644,13.1880147,Flamingo Bar,Seegefelder Straße 66,13583.0,Berlin,5100316
2930781804,52.5454292,13.4168361,Schwalbe,Pappelallee 65,10437.0,Berlin,3601346
2951738433,52.562744,13.3641509,Mauritius,Markstraße 7,13409.0,Berlin,12100204
2953557792,52.5715506,13.3641331,Kaktus,Emmentaler Straße 112,13409.0,Berlin,12100103
2970154860,52.5396076,13.5891263,Rosencafe,Gothaer Straße 37,12629.0,Berlin,10200418
2976136314,52.5488018,13.1765056,Schmidts Bierstuben,Falkenseer Chaussee 236,13583.0,Berlin,5100211
3007865137,52.498468,13.2973978,Zeitlos,Kurfürstendamm 100,10709.0,Berlin,4500937
3039049575,52.547634,13.4489941,Bieroase,Berliner Allee 13,13088.0,Berlin,3500935
3072942133,52.488283,13.3692589,Blues Garage,Monumentenstraße 32,10829.0,Berlin,7100206
3090502396,52.4395128,13.3880881,Zum Sargnagel,Mariendorfer Damm 137,12107.0,Berlin,7501134
3095237129,52.537527,13.4118777,Bar Central,Schönhauser Allee 155,10435.0,Berlin,3701554
3095237929,52.5370973,13.411919,Joe’s Bar,Schönhauser Allee 157,10435.0,Berlin,3701554
3095249771,52.5336288,13.4050279,Trommel,Kastanienallee 58,10119.0,Berlin,1100416
3098125129,52.5289242,13.4076092,Emi Wynehouse,,,,1100309
3098126378,52.5293034,13.4052548,Schmittz,Torstraße 90,10119.0,Berlin,1100309
3136681801,52.5674731,13.3972266,BIP,,13187.0,,3400721
3136935125,52.4931716,13.384595,Bar Centrale,,,,2200209
3136948129,52.4932202,13.3843452,Yorks,,,,2200209
3147455155,52.5413179,13.3510537,Efes Pub,Torfstraße 14,13353.0,Berlin,1401046
3149431450,52.5427323,13.35463,Trifthouse,Triftstraße 52,13353.0,Berlin,1401046
3159002885,52.4711782,13.3446222,Café Imparator,Vorarlberger Damm 1,12157.0,Berlin,7300619
3163977143,52.4932861,13.3954671,Pörx,,,,2200210
3163977145,52.4930238,13.397891,UnterRock,Fürbringerstraße 20a,10961.0,Berlin,2200210
3167654651,52.4873922,13.4255186,Cafe Bar An,Hermannplatz 9,10967.0,Berlin,8100314
3184684224,52.479883,13.425587,Boddin-Eck,Hermannstraße 223,12049.0,,8100206
3235966198,52.4778422,13.4394686,Sameheads,Richardstraße 10,12043.0,Berlin,8100416
3281651374,52.5019958,13.431339,Heidenpeters,Eisenbahnstraße 42-43,10997.0,Berlin,2300315
3284007561,52.562069,13.359624,Zum Holländer,,,,12100204
3350510646,52.4694291,13.4370459,Flaschenzug,Emser Straße 16,12051.0,Berlin,8100208
3354444678,52.4992414,13.3249711,Pavement,,,,4501045
3379296155,52.4865023,13.3557868,Möve im Felsenkeller,Akazienstraße 2,10823.0,Berlin,7200409
3391940193,52.5003625,13.3006497,ES,,,,4500936
3393947815,52.5519051,13.3571283,Café Morena,Malplaquetstraße 25,13347.0,Berlin,1401048
3397406768,52.5636494,13.3268462,Bierstube am Kutschi,,,,12200309
3400585131,52.5187948,13.4690712,Mikes IM-T,Dolziger Straße 35,10247.0,Berlin,2500728
3409258743,52.4750423,13.424843,Zur Molle,Allerstraße 8-9,12049.0,Berlin,8100103
3409258745,52.4742607,13.4261908,Bruchberg,Okerstraße 5,12049.0,Berlin,8100103
3409258746,52.4741447,13.425115,Savo,Weisestraße 35,12049.0,Berlin,8100103
3409258747,52.4739351,13.425172,Frollein Langner,Weisestraße 34,12049.0,Berlin,8100103
3427452916,52.514415,13.4612024,Tagblatt,Kreutzigerstraße 28,10247.0,Berlin,2500830
3446931211,52.4817341,13.3615501,Zur Roten Insel,Leberstraße 57,10829.0,Berlin,7200413
3461250605,52.4657153,13.3780404,Wirtshaus Alte Dorfecke,Alt-Tempelhof 61,12103.0,Berlin,7400824
3480282003,52.4921339,13.3522453,Kuckucksei,Barbarossastraße 5a,10781.0,Berlin,7100204
3520711642,52.5329151,13.3365728,Kallasch& - Barprojekt,Unionstraße 2,10551.0,Berlin,1200519
3553984811,52.5147142,13.3057094,Der fliegende Holländer,Thrasoltstraße 7,10585.0,Berlin,4300621
3600762160,52.5239744,13.4091617,Berliner Marcus Bräu,Münzstraße 1-3,10178.0,Berlin,1100310
3610743329,52.5287235,13.40876,Old CCCP Bar,Torstraße 58,10119.0,Berlin,1100309
3622843341,52.5389857,13.6030647,Paparazzi 63,Henny-Porten-Straße 8,12627.0,Berlin,10200421
3632387192,52.4926599,13.3666463,E. & M. Leydicke,Mansteinstraße 4,10783.0,Berlin,7100206
3632641428,52.4877517,13.3597959,Leuchtturm,Crellestraße 41,10827.0,Berlin,7200411
3644289195,52.4567814,13.5780827,Tröster,,,,9501939
3644546095,52.4718182,13.3192741,Spinnrad,Wiesbadener Straße 16,14197.0,Berlin,4400835
3667194175,52.4410289,13.5004123,Sturm-Ecke,,,,9100408
3669516462,52.5002949,13.342572,Der Neue Oldtimer,Lietzenburger Straße 12,10789.0,Berlin,7100101
3712562802,52.5126869,13.3018927,Türkisches Vereinsheim,Spielhagenstraße 11,10585.0,Berlin,4300621
3716859176,52.5477418,13.1959654,Norberts,,,,5100315
3724391996,52.5333329,13.1576344,Your Pub,,,,5200420
3727439535,52.5310506,13.4266317,Dream Baby Dream,Greifswalder Straße 218,10405.0,Berlin,3701659
3727835831,52.5348162,13.4239667,Marienhof,Marienburger Straße 7,10405.0,Berlin,3701658
3731894474,52.4557266,13.5807743,Deftig,Mandrellaplatz 1,12555.0,Berlin,9501940
3737222086,52.5135013,13.4561277,Grosse Freiheit 114,,,,2500830
3737539239,52.5597421,13.3771914,Café 76,,,,1300730
3772713842,52.4021202,13.5258562,Bierstube Kajüte,Ortolfstraße 208,12524.0,Berlin,9300922
3777575756,52.4248789,13.4849979,TSV Casino,Neuköllner Straße 277,12357.0,Berlin,8401241
3782378336,52.5003774,13.4176155,Exil Bar,Dresdener Straße 9,10999.0,Berlin,2300314
3792682246,52.4571352,13.5108863,Kick-Inn,Brückenstraße 3,12439.0,Berlin,9200613
3799268617,52.4849965,13.3522954,Schöneberger Bierstube,Eisenacher Straße 60-61,10823.0,Berlin,7200409
3826014005,52.4975975,13.3497538,Heck Meck,Eisenacher Straße 111,10777.0,Berlin,7100102
3837626622,52.5005331,13.3631433,Puschels Pub,Potsdamer Straße 112,10785.0,Berlin,1100103
3844947694,52.5121657,13.4924047,Cafe Galaxy,,,,11300724
3854309286,52.5223889,13.3872773,Murphys Irish Pub,,,,1100308
3857534396,52.4898024,13.323158,Uhlandquelle,Uhlandstraße 120,,,4501149
3859687683,52.5578486,13.5560978,Lalaloli,,,,10100206
3861762660,52.5047062,13.3236218,Diener Tattersall,Grolmanstraße 47,10623.0,Berlin,4501041
3895254717,52.5238759,13.4072566,Schnelle Quelle,Rochstraße 4,10178.0,Berlin,1100309
3900689100,52.6070803,13.4223047,Männerhort,Rosenthaler Weg 45,13127.0,Berlin,3200310
3900932274,52.5419605,13.4392511,Bierquelle,Greifswalder Straße 165,10409.0,Berlin,3601245
3900932278,52.5372167,13.4176079,Cliffs of Dooneen,,,,3701555
3900935686,52.5321631,13.3283071,Zum gemütlichen Laternchen,Beusselstraße 49,10553.0,Berlin,1200518
3905700621,52.464088,13.5139043,Die kleine Kneipe,Edisonstraße 17,12459.0,Berlin,9200511
3906206811,52.4626672,13.514251,Rock or Bust,Wilhelminenhofstraße 16,12459.0,Berlin,9200511
3906852875,52.514448,13.4539021,Zum Genossen,Warschauer Straße 83,10243.0,Berlin,2500830
3908971501,52.4432824,13.5530785,Sportklause,Lohnauer Steig 9,12489.0,Berlin,9200717
3913578099,52.5158984,13.4452962,Gaststätte Weberwiese,,10243.0,Berlin,2400624
3933415356,52.51375,13.4584652,Bretterbude,,,,2500830
3937876097,52.5322403,13.3952209,Griffin,Invalidenstraße 151,,,1100415
3951696518,52.4856544,13.4230065,Alte Welt,Lucy-Lameck-Straße 44,12049.0,Berlin,8100101
3955630870,52.4735537,13.3372779,Friedenauer Pub,Stierstraße 22,12159.0,Berlin,7300517
3955669291,52.4497249,13.3150674,Händelklause,,,,6300633
3959165591,52.4901191,13.3904778,Zahers,Nostitzstraße 38,10961.0,Berlin,2200211
3960356965,52.4598724,13.3767252,Mann-Teufel-Eck,,,,7400825
3980732007,52.5055357,13.4694238,Straßenbräu,Neue Bahnhofstraße 30,10245.0,Berlin,2500834
4007612904,52.4940633,13.4258828,Kwia,Maybachufer 16,12047.0,Berlin,8100310
4024075039,52.4789992,13.4384993,Velvet,Ganghoferstraße 1,,,8100415
4054609274,52.5680471,13.3992717,Eiche - Bürgerstube,Wollankstraße 127,13187.0,Berlin,3400721
4074283400,52.4528383,13.1408015,Kladower Hof,Sakrower Landstraße 14,14089.0,Berlin,5400943
4075354651,52.5605183,13.3716915,Kumpelstübchen,Ritterlandweg 18,13409.0,Berlin,1300730
4080623031,52.4346885,13.5431427,Maybe Bar,Platz der Befreiung 1,12489.0,Berlin,9200716
4082682589,52.45971,13.5729657,Abseitsfalle,Hämmerlingstraße 80,12555.0,Berlin,9502043
4095732754,52.5412806,13.3983776,Zur Laterne,,,,1300834
4107184389,52.4739056,13.4427226,Das Kapital,Karl-Marx-Platz 18,,,8100416
4128343505,52.5482975,13.4161516,Eselsbrücke,Greifenhagener Straße 18,10437.0,Berlin,3601346
4135782723,52.5404473,13.4030041,Tante Käthe,,,,3601142
4145388525,52.5863522,13.2826514,Skatklause,,,,12200515
4152750589,52.5315312,13.4375183,Pasteur-Stübchen,Pasteurstraße 44,,,3701660
4152849690,52.5315419,13.4288757,Café Babel,Käthe-Niederkirchner-Straße 2,,,3701660
4157153872,52.5183538,13.4655043,Revolte Bar,Bänschstraße 51,10247.0,Berlin,2500728
4188093972,52.5136371,13.3812601,,Hannah-Arendt-Straße 1,10117.0,Berlin,1100205
4208666192,52.4380374,13.368003,BrewDog DogTap Berlin,Im Marienpark 23,12107.0,Berlin,7501029
4226871821,52.4661742,13.4884078,Zum Stübchen,,,,9100304
4315470215,52.5503278,13.3486866,B&B Saloon,Lüderitzstraße 9,13351.0,Berlin,1400938
4315470217,52.548498,13.3523425,Brüsseler Eck,Brüsseler Straße 5,13353.0,Berlin,1400942
4315470227,52.5483345,13.3526819,Kutscher Kneipe,Brüsseler Straße 50,13353.0,Berlin,1400942
4315470228,52.5507574,13.3479184,Alte Zeiten Kiez,Lüderitzstraße 17,13351.0,Berlin,1400938
4317313107,52.5450672,13.203726,Windlicht,Schönwalder Straße 108,13585.0,Berlin,5100315
4339053552,52.5616346,13.3643705,Tommys Dart-Treffpunkt,Markstraße 12/13,13409.0,Berlin,12100204
4349385993,52.5279336,13.3415614,Kowski,Wilhelmshavener Straße 4,10551.0,Berlin,1200520
4353925992,52.5489177,13.2568143,City Camping Biergarten,,,,5300838
4357831069,52.4354882,13.3896227,Rebart,,,,7501134
4363669076,52.427654,13.3269172,Palastklause bei Ivan,,,,6200422
4367758889,52.5000198,13.3736145,Brło Brwhouse,Schöneberger Straße 16,10963.0,Berlin,2200207
4372108392,52.5219213,13.3534285,Spener Stuben,Spenerstraße 29,10557.0,Berlin,1200626
4376092956,52.4772707,13.3205501,Straßenbahn,Laubacher Straße 29,14197.0,Berlin,7300515
4383686220,52.4905378,13.3547465,Robbys Dart Perle,Gleditschstraße 68,10781.0,Berlin,7100204
4385374021,52.524707,13.3100516,Nordhauser Stübchen,,,,4300518
4392767879,52.5031625,13.3440629,Berlinchen City,,,,7100101
4394498775,52.5481867,13.3671,Scherer8,,,,1401043
4411523493,52.5278383,13.3304278,Finests,Waldstraße 58,10551.0,Berlin,1200519
4412294196,52.5470626,13.3505615,Krissi,Antwerpener Straße 8,13353.0,Berlin,1400942
4413004666,52.5656985,13.3221244,Kneipchen,,,,12200309
4439286054,52.4812649,13.3604752,Schöneberger Pinte,Gotenstraße 63,10829.0,Berlin,7200413
4443619189,52.5386496,13.423443,Birra,Prenzlauer Allee 198,10405.0,Berlin,3701555
4453818134,52.5302234,13.3288675,Multikulti-Treffpunkt,Beusselstraße 31,10553.0,Berlin,1200519
4459480390,52.5035133,13.3624857,Lützow-Stübchen,Lützowstraße 81,10785.0,Berlin,1100103
4461541680,52.5131608,13.4600856,K19,Kreutzigerstraße 19,10247.0,Berlin,2500830
4476779422,52.5134535,13.4691414,f2a_space,Finowstraße 2A,10247.0,Berlin,2500831
4479764286,52.4261651,13.3174476,Morgenstern Eck,,,,6200421
4508100706,52.449693,13.3479897,Canape,,,,6100205
4524564995,52.5059584,13.4675009,Margarethe F.,,,,2500834
4524915737,52.5045566,13.4679594,Bräugier,Sonntagstraße 1,10245.0,Berlin,2500834
4525263054,52.5328688,13.3956502,Brewdog Mitte,Ackerstraße 29,10115.0,Berlin,1100415
4526577162,52.4117311,13.313035,Zum Thermometer,,,,6200419
4547010642,52.532648,13.2035785,Gänsemarkt,Plantage 1,13597.0,Berlin,5100317
4553693389,52.5440631,13.3693452,Zum Magendoktor,Reinickendorfer Straße 111,13347.0,Berlin,1300836
4582601011,52.4971263,13.3203536,Menta,,,,4501044
4601595906,52.5422259,13.4708664,Gambrinus,Indira-Gandhi-Straße 66-69,13053.0,Berlin,11200512
4614152060,52.5391513,13.4208495,Cafe Lyrik,Kollwitzstraße 97,,,3701555
4620678131,52.4806544,13.4262171,Muted Horn,Flughafenstraße 49,12053.0,Berlin,8100206
4640741977,52.5295523,13.4027352,Pik As,Torstraße 114,10119.0,Berlin,1100309
4654410911,52.4920033,13.3645867,DanTras,,,,7100206
4657374385,52.4915205,13.4286712,Lager Lager,Pflügerstraße 68,12047.0,Berlin,8100310
4682859490,52.521881,13.4480374,Strassmanns,,,,2400522
4702503838,52.4447915,13.2921994,Kamin,Unter den Eichen 94A,12205.0,Berlin,6300629
4715478298,52.5350949,13.4360377,Latschenpaule,Danziger Straße 137,10407.0,Berlin,3601451
4717871484,52.4789504,13.4736668,S-Bahn Stübchen,,,,9100202
4723754689,52.4852575,13.3649875,Schöneberger Herz,,,,7200414
4746367831,52.3865188,13.3993816,Bauernstübchen,,,,7601544
4770177697,52.5419196,13.3720828,Talk-Inn,Schönwalder Straße 22,13347.0,Berlin,1300836
4789969056,52.5297036,13.3358274,Oldenburger Klause,,,,1200519
4812222797,52.5654521,13.3946052,Tante Olli,,,,3400721
4816629395,52.4986216,13.3493601,Tramps for Friends,,10777.0,Berlin,7100102
4817568431,52.5279882,13.3430046,Stromeck,,,,1200520
4818152389,52.5019577,13.4172128,Tiki Tonga,,,,2300314
4832604295,52.5725278,13.4172611,Pank-Perle,Damerowstraße 60,13187.0,Berlin,3400723
4838900148,52.5238434,13.1993359,Kleine Kneipe,,,,5200631
4849585574,52.5662325,13.4085801,Prager Frühling,,,,3400723
4866118021,52.5225511,13.4079444,Brauhaus Lemke am Alex,Karl-Liebknecht-Straße 13,10178.0,Berlin,1100310
4908694235,52.5693205,13.3794766,Apos Theke,,,,12100102
4908694244,52.5712222,13.3800144,Tyson 63,,,,12100102
4917296765,52.5464748,13.5517157,Zum Fuchsbau,,,,10100210
4958557025,52.5131761,13.4570229,Protokoll Berlin,Boxhagener Straße 110,10245.0,Berlin,2500830
4961198392,52.5390794,13.2992213,Brinks Treff,Heckerdamm 225-231,13627.0,Berlin,4100102
4968721920,52.5650063,13.5802794,Rabensteiner Stüble,,,,10100104
4968743795,52.5133032,13.5541567,Schranke,,,,10300731
5005559701,52.5066545,13.2965913,Goldener Löffel,Kantstraße 86,10627.0,Berlin,4300416
5014522022,52.5375321,13.1881167,ada bar,,,,5100316
5014628421,52.538837,13.182342,Zur Hütte,,,,5100211
5036103422,52.5015824,13.3891226,Schicksaal,,,,2100102
5075144862,52.4855174,13.4291483,Café Bar Survivor,,,,8100314
5121199974,52.5629578,13.4091568,Two Fellas Brewery,Mühlenstraße 30,13187.0,Berlin,3400826
5133857264,52.5075085,13.3894811,Murphys Irish Pub,Zimmerstraße 19,10969.0,Berlin,2100102
5157556721,52.5677314,13.3507432,Atelier,,,,12100205
5178775121,52.6008058,13.4060045,Gaststätte Nordend,,,,3200207
5191728947,52.5243903,13.1977857,Sonderbar,,,,5200631
5191728953,52.531035,13.1970648,café paradise,,,,5200629
5191729406,52.5314287,13.1973706,Drinkhall,,,,5200629
5191729409,52.5329675,13.1969944,To be free,,,,5200629
5224109943,52.4854239,13.318136,MaMo PaLou,Wilhelmsaue 35,10713.0,Berlin,4501146
5265842104,52.5137433,13.305103,The Owl - Burger & Bar,,,,4300621
5265902927,52.5007805,13.3417261,Berliner Pub,,,,7100101
5324065566,52.4759428,13.4408419,Zur Mitte,,,,8100416
5337905712,52.5535168,13.4064071,Marios Pool Lounge,,,,3601141
5349358027,52.4930462,13.3871533,Zur Klappe,,,,2200208
5352672812,52.4975324,13.4241772,Bohnengold,,10999.0,,2300417
5352672816,52.4983875,13.4254181,Intertank,Manteuffelstraße 47,10999.0,Berlin,2300417
5389518871,52.4993911,13.3422644,Dreizehn,,,,7100101
5403962643,52.5537878,13.4080064,Pub 82,,,,3601141
5403962648,52.5538583,13.4069074,Bierfieber,,,,3601141
5409629501,52.4347724,13.2626258,Sabrina,,,,6300526
5424941697,52.4795194,13.3457115,Timeless,Hauptstraße 100,10827.0,Berlin,7200308
5430966040,52.4804967,13.4212482,Bloom,Flughafenstraße 84,12049.0,Berlin,8100101
5486309587,52.4990486,13.4454774,Zur fetten Ecke,Schlesische Straße 16,10997.0,Berlin,2300419
5486696110,52.4975414,13.441513,Konrad Tönz,,,,2300419
5489585702,52.4991453,13.4408478,Golden Finish,,,,2300419
5516818521,52.5279568,13.5698349,SternCafe,Wuhlestraße 36,,,10300732
5557427376,52.5490149,13.35008,See-Tank,Seestraße 37,13353.0,Berlin,1400942
5564869063,52.5117232,13.2691915,Westend-Pinte,,,,4200310
5565822323,52.4807417,13.4317532,Risky Lounge,Boddinstraße 10,12053.0,Berlin,8100206
5612016527,52.5506106,13.3804243,Kneipchen Im Kiez,Bastianstraße 9,,,1300836
5613252826,52.4362203,13.3642413,Ninety-Four,Alt-Lankwitz 94,12247.0,Berlin,6200311
5613271621,52.4366071,13.3634649,Die Kleine Kneipe,Alt-Lankwitz 87,12247.0,Berlin,6200311
5619988722,52.5290992,13.2968745,Liliput,,,,4300517
5632292823,52.5077798,13.3071832,Pils-Stübchen,,,,4300623
5635789714,52.5436408,13.4244812,La Minga,Stargarder Straße 33,10437.0,Berlin,3601348
5681332940,52.5515693,13.2097217,zum Schäferstübchen,,,,5100313
5774792913,52.5388259,13.2048832,Zur Altstadt,,,,5100316
5777142583,52.49156,13.3908695,sinberlin,Nostitzstraße 48,10961.0,Berlin,2200211
5782598628,52.528843,13.2079646,Ruhlebener Klause,Ruhlebener Straße 2,13597.0,Berlin,5100317
5782598630,52.5373769,13.187637,Zur Erholung,,,,5100316
5834297127,52.5070233,13.2993308,Zum Freispruch,,,,4300416
5878490168,52.5620951,13.2082375,Zum gemütlichen Eck,,,,5100102
5940455990,52.4852839,13.3752484,Zoé,Dudenstraße 72,,,2200209
5997581379,52.4911247,13.4248967,Posh Teckel,Pflügerstraße 4,12047.0,Berlin,8100311
6031918185,52.5098238,13.4569852,Capture,Wühlischstraße 32,10245.0,Berlin,2500833
6074181222,52.5214746,13.411591,Bierbar Alkopole,,,,1100310
6085746566,52.5289508,13.5586693,Bierkeller Biesdorf,Oberfeldstraße 111,12683.0,Berlin,10300731
6089741649,52.5070765,13.4963314,Cafe White,,,,11400929
6157289421,52.5661497,13.3781879,Zum Pinsel,,,,12100101
6157289425,52.5638013,13.3775704,Aber Hallo,,,,12100101
6192822908,52.4211252,13.3099218,Zum Ostpreußen,,,,6200420
6239510562,52.4949168,13.4189799,Café Hanedan,,,,2200213
6308903439,52.5013321,13.3077993,Ferrara,,,,4501040
6314842787,52.5026456,13.3009229,Dukes Inn,,,,4500936
6320574423,52.5233014,13.4788325,Cafe Mila,,,,11300619
6341357685,52.4804042,13.3461563,Willi Mangler,Hauptstraße 57,10827.0,Berlin,7200308
6372271701,52.4341732,13.5432656,Kick Inn,Adlergestell 263,12489.0,Berlin,9200716
6413806185,52.5156324,13.3102628,Pim,,,,4300621
6414891324,52.5192393,13.4667541,Hansbach,Samariterstraße 18,10247.0,Berlin,2500728
6444647569,52.497708,13.361377,Bülow-Kneipe,,,,7100103
6462704186,52.5576231,13.3858548,Sportbar,,,,1300732
6494495286,52.4207159,13.3116773,The M bar,,,,6200421
6503854376,52.4541551,13.3290951,Albrecht-Eck,Albrechtstraße 108,12167.0,Berlin,6100208
6503855175,52.4556418,13.3260012,Jacks,Heesestraße 2,12169.0,Berlin,6100208
6532305041,52.5505307,13.3466266,Juniors Bar,,,,1400938
6532305044,52.550531,13.3471808,Cafè Nostalgie,,,,1400938
6553770789,52.5137528,13.3120593,Rumpelkiste,Zillestraße 22,10585.0,Berlin,4300621
6565484082,52.461639,13.3770643,Tempelhofer Krug,Manteuffelstraße 56,12103.0,Berlin,7400824
6568123325,52.4648326,13.3146119,Sterntaler,Schildhornstraße 64,12163.0,Berlin,6100102
6657466886,52.5502521,13.3629156,Bei Max,,13347.0,Berlin,1401048
6684918900,52.4534623,13.3226246,Kleiner Muck,Schützenstraße 15,12165.0,Berlin,6100207
6684943281,52.4477847,13.3256309,Previla,,,,6100207
6694942663,52.4187657,13.54135,Teutonen Eck,Teutonenstraße 4,12524.0,Berlin,9300920
6710425193,52.5568833,13.460126,Parkeck,Große Seestraße 18,13086.0,Berlin,3500933
6732248092,52.5588048,13.3686032,Gelbes Schloss,Reginhardstraße 14,13409.0,Berlin,1300730
6743811524,52.5162722,13.3110689,Bier 21 Cocktailbar,Otto-Suhr-Allee 72,10585.0,,4300619
6794910852,52.5006735,13.4210895,Biererei,,,,2300314
6816114841,52.4240017,13.439371,Buckower Pinte,,,,8200833
6913796183,52.4942002,13.3464267,Chicago Sportsbar,,,,7100204
6932423685,52.4698183,13.32021,Fränky,Laubacher Straße 10,14197.0,Berlin,7300516
6948625003,52.49344,13.3238183,Wobs Billard,Uhlandstraße 137,10717.0,Berlin,4501149
7016358158,52.4967993,13.3618999,Begine,Potsdamer Straße 138,10783.0,Berlin,7100205
7048626226,52.4219593,13.370589,Lorenz,Marienfelder Allee 41,12277.0,Berlin,7601237
7058016112,52.4975499,13.3469325,Pub a la Pub,Motzstraße 34,,,7100102
7096007088,52.4646091,13.4430092,Zur Quelle,Karl-Marx-Straße 270,12057.0,Berlin,8100209
7096486655,52.5387686,13.4924271,Lausbub,Goeckestraße 29,,,11200514
7146586555,52.5048665,13.3393854,Berlin Pub,,,,4501042
7152122819,52.5001133,13.398438,Zum Flachbau,,,,2100105
7231134070,52.4755992,13.4472182,Mehana Paradis,Hertzbergstraße 28,,,8100416
7244301016,52.4946842,13.3982856,Henkel-Stuben,,,,2200210
7273852483,52.5172006,13.4539784,Trautes Hain,Petersburger Straße 95,,,2500727
7277076637,52.4737944,13.4422905,Zum Heinzelmann,Karl-Marx-Platz 14,12043.0,Berlin,8100416
7310117371,52.5423392,13.4256516,Kleiner Bruder,,,,3601348
7332938458,52.4952875,13.2980785,Westfaleneck,Westfälische Straße 66,10709.0,Berlin,4500938
7335175524,52.5765033,13.3925014,Gartenlokal Alte Baumschule,Hermann-Hesse-Straße 70,13156.0,Berlin,3200206
7460169061,52.522697,13.1965172,Wilde 13,Weißenburger Straße 13,13595.0,Berlin,5200630
7497997586,52.4742269,13.4547262,Stephan‘s Trinkstube,Sonnenallee 212,12059.0,Berlin,8100417
7563880556,52.4786061,13.320529,Bier 21,Detmolder Straße 50,10715.0,Berlin,4501151
7598149822,52.4749688,13.3288114,Liliput,Ortrudstraße 1,12159.0,Berlin,7300517
7605882337,52.5544115,13.344545,Schultheiss Müller Bistro,Müllerstraße 120,13349.0,Berlin,1400937
7609092401,52.553694,13.3445353,Blase,Transvaalstraße 44,13351.0,Berlin,1400938
7613183867,52.5556282,13.3468174,Hut ab,Barfusstraße 13,13349.0,Berlin,1400939
7667001175,52.5070345,13.3019863,Nesse Cafe Bar,,,,4300416
7667001176,52.5071193,13.3019778,Kaiser Lounge,,,,4300416
7667001177,52.5071928,13.3019593,Cafe Bar 49,,,,4300416
7667001178,52.5072785,13.3019437,Maça Kizi,,,,4300416
7747350432,52.4725309,13.3431114,Kulmbacher Reichelbräu,Rubensstraße 50,12159.0,Berlin,7300618
7776123990,52.4615285,13.3264891,Stay Inn,Florastraße 17,12163.0,Berlin,6100103
7820342821,52.5412199,13.481156,Wellis,Konrad-Wolf-Straße 53,13055.0,Berlin,11200512
7821177796,52.4853339,13.3277419,Auerhahn,Wilhelmsaue 8,10715.0,Berlin,4501150
7887845862,52.5141851,13.4677606,Bagatelle,Frankfurter Allee 72,10247.0,Berlin,2500831
7904323285,52.4897537,13.3502166,King Georg Club,,,,7100204
7947913721,52.5639528,13.4408632,Zum Freiland-Stübchen,Romain-Rolland-Straße 35 A,13089.0,Berlin,3300516
7978440745,52.5710997,13.3608361,Du bist dran ...,,,,12100103
7978440757,52.5693937,13.3617273,Jahreszeit,,,,12100103
8009959583,52.5316982,13.4478093,,,,,3601452
8063633780,52.5557536,13.344262,Kneipen Kult,,,,1400939
8118277218,52.4855124,13.3400735,Kupferscheune,Badensche Straße 55,10825.0,Berlin,7200308
8151183915,52.5776047,13.4331909,Vereinshaus KGA Feuchter Winkel Ost,,,,3300516
8245997130,52.4812528,13.320591,Blisse Treff,Blissestraße 43,10713.0,Berlin,4501151
8257529770,52.487693,13.3325304,Berliner Cafe and Bar,Berliner Straße 9,10715.0,Berlin,4501152
8305908070,52.4227836,13.4848247,Rudower Tönnchen,Sattlerstraße 4,12355.0,Berlin,8401242
8320789855,52.518025,13.1970751,Kings Pub,Jordanstraße 3,13595.0,Berlin,5200630
8357045611,52.6163487,13.3174988,Hermsdorfer Bierhaus,Berliner Straße 21,13467.0,Berlin,12400723
8464152650,52.5650246,13.5712565,Wunderbar,Wittenberger Straße 80,12689.0,Berlin,10100103
8544260206,52.576566,13.4388534,Gartenschenke,,,,3300516
8579375612,52.4982778,13.3175882,The Gin Room,,,,4501043
8618548371,52.5499238,13.5635003,fun Billard Dart,Jan-Petersen-Straße 20,12679.0,Berlin,10100209
8638290765,52.4550919,13.3260933,In-Cognito,Albrechtstraße 14a,,,6100207
8688595337,52.446768,13.3278315,Zum Borstel,Birkbuschstraße 62,12167.0,Berlin,6100206
8913626620,52.4564427,13.5839972,Fröhlicher Weinberg,,,,9501940
8917540604,52.5710168,13.218865,Wannseeaten,,,,5100101
8960917292,52.5370429,13.2684758,City Pub,Quellweg 23,13629.0,Berlin,5300841
8964018334,52.4833326,13.3831676,Keine Eile,,,,7400720
8989819187,52.4828143,13.3819824,Alt-Berliner Bierstuben,Manfred-von-Richthofen-Straße 17,12101.0,Berlin,7400720
9072172726,52.5530317,13.3594121,Vagabund Brauerei Kesselhaus,Oudenarder Straße 16-20,13347.0,Berlin,1401048
9092377906,52.5013076,13.4425088,Oberbaumeck,Bevernstraße 5,10997.0,Berlin,2300316
9118384218,52.4855319,13.3584247,Jubi-Stübchen,,,,7200410
9139569592,52.5309853,13.1465444,Treff 56,Südekumzeile 56,13591.0,Berlin,5200423
9158143379,52.4453389,13.4116703,Donnerwetter,Plautusstraße 1,12109.0,Berlin,7501032
9165978070,52.569031,13.3699366,Kathys,,,,12100102
9176473467,52.5200947,13.3123245,Zum Spreekieker,,,,4300619
9198286159,52.5558956,13.3743667,Alter Schwede,,,,1401045
9429764400,52.5281879,13.1894943,Spandauer Kater,Seeburger Straße 15,13581.0,Berlin,5200629
9480590144,52.4744145,13.4692178,,,,,8100520
9548244877,52.4585476,13.324934,Luna,Düppelstraße 32,12163.0,Berlin,6100102
9623879124,52.5615324,13.3770229,Royal Smoke,,,,12100101
9663208339,52.5641898,13.352393,Nostalgie,,,,12100204
9664152184,52.4858104,13.3459021,Café Hellas,Meininger Straße 8,10823.0,Berlin,7200409
9673939669,52.4996096,13.4374056,Madame Claude,,,,2300419
9696176616,52.5555932,13.3836862,Gedeih & Verderb,,,,1401045
9733492193,52.5158428,13.2872504,Charlottenburger Wappen,,,,4300413
9741742488,52.6071447,13.3197133,Kindl Stübl,,,,12500928
9749141030,52.4465449,13.5749629,Zum goldenen Anker,Alt-Köpenick 12,12555.0,Berlin,9401534
9758119533,52.5461605,13.3482024,Brüsseler Tor,Brüsseler Straße 21,13353.0,Berlin,1400942
9775829191,52.4034603,13.5258243,Frankis Trinkhorn,Schönefelder Chaussee 245,12524.0,Berlin,9300922
9793732711,52.4731434,13.3069277,Bar-On,Schlangenbader Straße 24A,14197.0,Berlin,4400833
9816597906,52.5101199,13.2875913,Alt-Berlin,,,,4300415
9879638289,52.4451861,13.3735582,Meet One,Gersdorfstraße 60,12105.0,Berlin,7501029
9958605642,52.487722,13.4377144,Is wat?,Weichselstraße 32,,,8100312
9979171311,52.4973151,13.5750893,Gaststätte Sportklause,Adolf-Menzel-Straße 72,12621.0,Berlin,10400837
9993344784,52.5542938,13.5651279,Zum Zapfhahn,Max-Herrmann-Straße 4,12687.0,Berlin,10100208
10015563917,52.5378257,13.1458645,Vereinscasino SC Staaken 1919 e.V.,,13591.0,,5200419
10103240875,52.5334832,13.6026566,Hühnerstall,Stollberger Straße 73,12627.0,Berlin,10200526
10141301374,52.5215939,13.1980067,Bierstübchen,,,,5200631
10141301382,52.5231184,13.1979394,Zilini,Weißenburger Straße 46,13595.0,Berlin,5200631
10141301386,52.5234569,13.2004387,Goldener Löwe,,,,5200631
10270331018,52.4314017,13.3377481,PView Billard & Events,,,,6200314
10272093871,52.5311066,13.1970753,K29 Bar & Café,,,,5200629
10290515368,52.4808533,13.4340965,Bergklause,Boddinstraße 64,12053.0,Berlin,8100206
10537010386,52.515763,13.3045292,Zum Wilmi,,,,4300621
10594717941,52.4991813,13.356731,Hardys Pub,Bülowstraße 101,,,7100103
10651499402,52.5653038,13.4048987,Rodi Bier Bar,,,,3400721
10696502327,52.4505045,13.6221534,Zum Sattel,Aßmannstraße 28,12587.0,Berlin,9501737
10756823977,52.4942235,13.3362762,Das Versteck,,,,4501152
10803097883,52.5321028,13.428815,Richtig Now,,,,3701660
10816834032,52.4477688,13.3150364,Relax 4,,,,6300633
10876196531,52.553821,13.166554,Zum Tröpfchen,,,,5100208
10924896458,52.5305651,13.4329946,Knorke,,,,3701660
10931233304,52.5388178,13.2058897,Haveltreff,,,,5100316
11011588680,52.4285388,13.4810978,Dartcafe Double Out,,,,8401241
11051433577,52.5650196,13.4005464,Görschklause,,,,3400721
11101861108,52.409964,13.5055948,Ostburger Eck,Waltersdorfer Chaussee 89,12355.0,Berlin,8401246
11185943587,52.4971264,13.4172485,Pirata Patata,Kohlfurter Straße 33,10999.0,Berlin,2100106
11230929664,52.5188398,13.4687942,Imbiss Schmackofatz,Dolziger Straße 35,,,2500728
11266701117,52.4655475,13.4725035,Elcins Treffpunkt,,,,8100521
11327544856,52.539748,13.4249337,Bierstube Zur Linde,,,,3701657
11468863883,52.4466812,13.3155864,Relax,,,,6300630
