id,lat,lon,name,street,zip_code,city
79675952,52.56382,13.328849,Alberts,Scharnweberstraße 16,13405,Berlin
86001835,52.512055,13.3918753,Bellboy Berlin,Anton-Wilhelm-Amo-Straße 30,10117,Berlin
86005430,52.5129305,13.3912298,Newton Bar,Charlottenstraße 57,10117,Berlin
111644760,52.5655612,13.3209279,No Limit Shishabar,,,
149607257,52.5442253,13.4128822,en passant,Schönhauser Allee 58,10437,Berlin
150989271,52.5646418,13.327947,Can,Ollenhauerstraße 139,13403,Berlin
248651127,52.5295259,13.3956385,Z-Bar,Bergstraße 2,10115,Berlin
267780050,52.5363657,13.425073,Immertreu,Christburger Straße 6,10405,Berlin
269414693,52.5414032,13.3684921,Tiger Karaoke,Müllerstraße 6,,
275375441,52.4882652,13.361927,Café Nostalgie,Crellestraße 22,10827,Berlin
276762554,52.4689788,13.4354663,Schloss Neuschweinsteiger,Emser Straße 122,12051,Berlin
278876847,52.5120463,13.4613169,Keyif,,,
282420247,52.5102582,13.4566212,Himmelreich,Simon-Dach-Straße 36,10245,Berlin
282428260,52.5158118,13.4591706,Ysy,,,
282737297,52.5182491,13.4553049,Lauschangriff,,,
285066943,52.5111838,13.4613046,Zeitgeist,Gärtnerstraße 15,10245,Berlin
286428394,52.5372124,13.2022687,Charlotte,Charlottenstraße 14a,13597,Berlin
291796493,52.5127422,13.458706,booze bar berlin,Boxhagener Straße 105,10245,Berlin
293644418,52.5059347,13.3283712,Quasimodo,Kantstraße 12A,10623,Berlin
306675633,52.3918392,13.0953075,Konsum,,,
306915565,52.547659,13.4887104,Bar im Wasserturm,Waldowstraße 20,13053,Berlin
309902514,52.5252025,13.4018544,Billardsalon Köh,Sophienstraße 6,10178,Berlin
318810769,52.5493859,13.4164647,Deck 5,Greifenhagener Straße 47,,
320217866,52.534462,13.404733,macke prinz,Zionskirchstraße 39,10119,Berlin
326807333,52.5195057,13.4234314,Salon Babette,Karl-Marx-Allee 36,10178,Berlin
331397676,52.5086027,13.4610994,Süß war gestern,Wühlischstraße 43,10245,Berlin
332554291,52.5215879,13.38609,Vincent Piano Bar,Schiffbauerdamm 6,10117,Berlin
339323154,52.5142681,13.4595488,Sohnemann,Niederbarnimstraße 23,10247,Berlin
345552307,52.4816878,13.5257159,Havanna Bar,Treskowallee 111,10318,Berlin
383851727,52.4979752,13.3562993,Bar Voyage,Nollendorfstraße 1,10783,Berlin
386579955,52.5051922,13.448422,Monster Ronsons Ichiban Karaoke,Warschauer Straße 34,10243,Berlin
410135898,52.4935555,13.43778,Dietrich,Reichenberger Straße 103,10999,Berlin
410135936,52.4963129,13.4211347,Frau Luna,Paul-Lincke-Ufer 44,10999,Berlin
415307012,52.5415754,13.4219013,X-Bar,Raumerstraße 17,10437,Berlin
415551267,52.5437162,13.417339,Dirty Velvet Drinkery,Lychener Straße 39,10437,Berlin
417009820,52.48657,13.3592734,Der Weinlobbyist,Kolonnenstraße 62,10827,Berlin
429741495,52.528762,13.4086025,Kaffee Burger,Torstraße 60,10119,Berlin
437611140,52.5205872,13.404595,Palm Beach,,,
439752059,52.5287452,13.318287,Huttenklause,Huttenstraße 23,10553,Berlin
440867442,52.4729715,13.4545924,Ringbar,,,
440868652,52.473834,13.4555497,La Vida Bar,Sonnenallee 218,12059,Berlin
441878996,52.4704823,13.4434357,Rauschecafe,Braunschweiger Straße 77,12055,Berlin
448809597,52.4712939,13.4411312,By Cengiz,Karl-Marx-Straße 210,12055,Berlin
448811300,52.4965957,13.4192738,Roter Rabe,Kottbusser Straße 13,10999,Berlin
448913474,52.5679576,13.4125434,Jokers Bar,Berliner Straße 117,13187,Berlin
469188998,52.5706008,13.409664,Roderich,,,
472372461,52.5380648,13.6040719,Society,Stendaler Straße 25,12627,Berlin
477444923,52.5099802,13.4564546,Blechbilderbar,Simon-Dach-Straße 35,10245,Berlin
485354280,52.4974062,13.4538746,Escobar,,,
496275217,52.5184638,13.4322518,Country Cheers,Karl-Marx-Allee 63,10243,Berlin
502541867,52.4943163,13.4250735,Zart,Schinkestraße 14,12047,Berlin
506901254,52.5419559,13.4228267,Yolanda,Senefelderstraße 27,10437,Berlin
518469427,52.4812916,13.4279168,"Trude, Ruth und Goldammer",Flughafenstraße 38,12053,Berlin
520012626,52.5423488,13.4208673,Bar Misirlou,Dunckerstraße 10,10437,Berlin
522447355,52.4915467,13.4287957,Liberda,Pflügerstraße 19,12047,Berlin
530715881,52.5419903,13.3567093,Freya Fuchs,Tegeler Straße 34,13353,Berlin
541075876,52.5410639,13.4130081,Mad Monkey Room,Danziger Straße 1,10435,Berlin
541101559,52.5216924,13.3883069,meliá tapas,Friedrichstraße 103,,
549227523,52.5486379,13.5016984,EL FUEGO BAR,,,
549933671,52.4617978,13.5120508,The Double Inn,Wilhelminenhofstraße 89,12459,Berlin
558494289,52.4946075,13.4295997,Celo Privat Bar,Ohlauer Straße 37,10999,Berlin
560524659,52.5469427,13.4165427,Tante Grete,Stargarder Straße 10,,
560524662,52.5466467,13.4173898,Trixie Bar,Stargarder Straße 13,10437,Berlin
566734795,52.5442189,13.4155164,Crossroads,Gneiststraße 10,10437,Berlin
567570634,52.490927,13.4262755,Le Balto,Hobrechtstraße 28,12047,Berlin
576157235,52.4968247,13.3537835,Slumberland,Goltzstraße 24,10781,Berlin
588557533,52.5486515,13.4500855,Internezzo III Cafe Bar,Langhansstraße 151,13086,Berlin
592636063,52.5410653,13.414368,Valla Vino,Lychener Straße 3,10437,Berlin
593969830,52.4768748,13.423932,"Froschkönig, Literatur- & Pianobar",Weisestraße 17,12049,Berlin
611030882,52.5293031,13.4014198,Lost my voice,Rosenthaler Straße 1,10119,Berlin
611202787,52.5422868,13.4208161,Höschen,Dunckerstraße 9,10437,Berlin
648238268,52.5046693,13.3250472,gainsbourg bar américain,Jeanne-Mammen-Bogen 5,10623,Berlin
649778890,52.5086655,13.3730354,Posh Bar,Voxstraße 4,10785,Berlin
652049351,52.4245266,13.4360698,Café Melanie,,,
652877991,52.529979,13.4008182,Mein Haus am See,Torstraße 125,10119,Berlin
685354648,52.5067062,13.4961187,AVCI Cocktail-Bar,,,
685796975,52.5427965,13.4167236,Krüger,Lychener Straße 26,10437,Berlin
697303672,52.5412172,13.4384465,Caspar,Greifswalder Straße 167,10409,Berlin
707390945,52.5461039,13.3719166,Hook Bar,Pankstraße 15,,
707409462,52.5445712,13.3685578,Mega,Gerichtstraße 57,13347,Berlin
707468711,52.5471156,13.3750331,Mega 3,Wiesenstraße 18,13357,Berlin
707477678,52.5503873,13.3787387,Cafe Ortak,,,
715203800,52.47342,13.2991379,Manico,Breite Straße 1,14199,Berlin
728285721,52.5439723,13.3693646,Paka Club,Reinickendorfer Straße 111,13347,Berlin
737219923,52.5521383,13.3843912,Cafe Bar El Toredo,Stettiner Straße 60,,
740165950,52.5398231,13.412569,Absinth-Druide,Schönhauser Allee 42,10435,Berlin
745736672,52.4881477,13.4298759,Wax On,Weserstraße 208,12047,Berlin
746853061,52.5802548,13.3988194,Babylon Café Bar,,,
760476894,52.5410133,13.4106052,Tipsy Bear,Eberswalder Straße 21,10437,Berlin
764610010,52.5004147,13.4437298,L.U.X,Schlesische Straße 41,10997,Berlin
768275183,52.5161739,13.4633487,Freibeuter,Silvio-Meier-Straße 10,10247,Berlin
769318468,52.5743861,13.3598147,K1 Bar,,,
775657143,52.518836,13.46654,Bar Dell,Samariterstraße 17,10247,Berlin
790502624,52.5348771,13.418985,Hausbar,Rykestraße 54,10405,Berlin
811902000,52.46493,13.3287952,Walther Bar,Rheinstraße 40,12161,Berlin
849601059,52.5060947,13.3444743,9:00 pm,,,
876492495,52.5116806,13.4564219,eleven n lounge,Grünberger Straße 60,10245,Berlin
897444076,52.4880862,13.430053,Kaduka,Weserstraße 207,12047,Berlin
905883257,52.5419558,13.4153603,Zu mir oder zu dir,Lychener Straße 15,10437,Berlin
923359690,52.4856903,13.4422135,erika & hilde,Weigandufer 9,,
935945049,52.525821,13.3909131,Bar Amelie,Auguststraße 2,10117,Berlin
937964710,52.3993621,13.4415145,Blue Island,Karl-Marx-Straße 131a,12529,Schönefeld
939422156,52.5410532,13.3481101,Mon Ami,Föhrer Straße 7,13353,Berlin
945106909,52.5244696,13.4017208,Eschschloraque Rümschrümp,Rosenthaler Straße 39,10178,Berlin
955664305,52.5015464,13.4414603,Schlesisch Blau,Köpenicker Straße 1a,,
966975630,52.5382108,13.4126884,Frannz Club,Schönhauser Allee 36,10435,Berlin
989022907,52.5199327,13.3892837,Bredouille Bar,Georgenstraße 199,,
992806004,52.4435741,13.3401829,Henrys Bar,Leonorenstraße 22,12247,Berlin
993811860,52.5381294,13.4114113,Kapitalist,Oderberger Straße 2,10435,Berlin
995669472,52.4994811,13.44534,Mysliwska,Schlesische Straße 35,10997,Berlin
998544689,52.5513309,13.4187281,Sonntags-Club,Greifenhagener Straße 28,10437,Berlin
998970507,52.4874088,13.4367417,Nathanja & Heinrich,Weichselstraße 44,12045,Berlin
1001470733,52.4877957,13.3546493,Nonno,Akazienstraße 7A,10823,Berlin
1023766697,52.5474549,13.409139,La Buvette,Gleimstraße 41,10437,Berlin
1051175900,52.4108264,13.2624513,Mario´s Pub,,,
1057705696,52.5278237,13.4007418,Hackbarths,Auguststraße 49a,10119,Berlin
1095435084,52.5403024,13.4154684,Qum Bar,Danziger Straße 16,10435,Berlin
1108235754,52.4881786,13.3525685,Maigold,Merseburger Straße 7,10823,Berlin
1115413260,52.5216538,13.5916156,Paparazzi 63 - Cafe Shisha Lounge Bar,,,
1118848377,52.5055359,13.3134145,K-King Karaoke,Leibnizstraße 68,10625,Berlin
1130983556,52.4840568,13.4329483,Broschek,Weichselstraße 6,12043,Berlin
1134198863,52.5255838,13.3910972,X-Terrain,,,
1134199000,52.5253598,13.3919367,Silberfisch,,,
1140928133,52.5085895,13.4557684,Primitiv Bar,Simon-Dach-Straße 28,10245,Berlin
1147969832,52.4690248,13.4359035,WerkStadt Kulturverein Berlin e.V.,Emser Straße 124,12051,Berlin
1161567853,52.5343009,13.3979384,The Wash Bar,Brunnenstraße 163,10119,Berlin
1163845234,52.4875802,13.3751277,Pavlovs Bar,Eylauer Straße 26,10965,Berlin
1167205365,52.4995796,13.4347585,Mirror,,,
1170425735,52.5512616,13.3678933,Bar Lenciaga,,,
1175886700,52.5075518,13.3095914,Karl Gusto Weinbar,Krumme Straße 58,10627,Berlin
1212504460,52.529697,13.4056757,Neue Odessa Bar,Torstraße 89,10119,Berlin
1219537848,52.4933655,13.425295,Mondhuegel,Bürknerstraße 6,,
1221366529,52.5097357,13.4983171,C&B Cafe & Bar,Weitlingstraße 13A,,Berlin
1226785497,52.5119063,13.2940549,Alles GuT,Horstweg 7,14059,Berlin
1244487091,52.5345014,13.4248197,Enoteca Sorsi e Morsi,Marienburger Straße 10,10405,Berlin
1244655179,52.5476458,13.4151827,Hintersee,Greifenhagener Straße 55,10437,Berlin
1248675711,52.5520795,13.4127679,Moto,Paul-Robeson-Straße 46,10439,Berlin
1252481772,52.5427982,13.3623388,2 Dünyar,Willdenowstraße 19A,,
1271867424,52.4944808,13.3013483,Amigo,,,
1278254656,52.5275404,13.4052143,Betty F***,Mulackstraße 13,10119,Berlin
1285681192,52.5094527,13.2694085,Greentree,Heerstraße 8,14052,Berlin
1286549514,52.5496846,13.4173106,The Pig in Paradise,Wichertstraße 10,10439,Berlin
1293209211,52.5150468,13.4907369,Caffe Sammbuca Sportbar,Schottstraße 4,10365,Berlin
1295218968,52.5008108,13.4206261,Feger,,,
1295438384,52.528723,13.3882109,Reingold,Novalisstraße 11,10115,Berlin
1298564743,52.5230477,13.452709,Divabar,,,
1307640400,52.5452385,13.4109583,Empor Sportsbar,Milastraße 5,10437,Berlin
1311121799,52.5011056,13.2982428,Freunde,,10711,Berlin
1319378156,52.5266813,13.4107359,Volksbar,Rosa-Luxemburg-Straße 39,10178,Berlin
1319751809,52.5273017,13.3311755,CoCo,Turmstraße 54,10551,Berlin
1332424261,52.5166757,13.44235,ČSA,Karl-Marx-Allee 96,10243,Berlin
1333812252,52.4637913,13.3310762,Punta Sportsbar,,,
1337121317,52.5233005,13.4047128,Rivabar,Dircksenstraße 142,10178,Berlin
1357806582,52.4348935,13.2597133,Casablanca,,,
1366693664,52.4979205,13.2926578,Atelier,Kurfürstendamm 110,10711,Berlin
1368599671,52.5158643,13.4187906,Rodi Cocktailbar,Holzmarktstraße 75,10179,Berlin
1370691436,52.5540937,13.3451068,Lale,Müllerstraße 121,13349,Berlin
1383599519,52.5357255,13.43204,Caipi Bar,Greifswalder Straße 191,10405,Berlin
1391604297,52.5208236,13.3847097,Bar Tausend,Schiffbauerdamm 11,10117,Berlin
1393863292,52.5335484,13.3499961,Zaffke,Rathenower Straße 44,10559,Berlin
1400418885,52.481649,13.425143,O Tannenbaum,Hermannstraße 232,12049,Berlin
1415328504,52.5519644,13.358201,Mastul,Liebenwalder Straße 33,13347,Berlin
1450379594,52.5504013,13.4611168,Albert,Berliner Allee 122,13088,Berlin
1482547512,52.4668466,13.4888557,Sportsbar,Baumschulenstraße 11,12437,Berlin
1485800803,52.5136642,13.4727613,Moonlight,Frankfurter Allee 98,10247,Berlin
1525332844,52.4910645,13.3534365,Salut!,Goltzstraße 7,,
1544188674,52.5473764,13.4114317,Treff 25,Gleimstraße 25,,
1552045336,52.528135,13.3890236,Patesô,Novalisstraße 2,10115,Berlin
1552565067,52.5229828,13.3999603,Bijou Bar,Monbijouplatz 1,10178,Berlin
1556403862,52.5562786,13.4360157,"Bistro und Bar ""New Wave""",Pistoriusstraße 90,13086,Berlin
1576962397,52.4884157,13.4276444,WeserKulisse,,,
1584702682,52.4776533,13.4478077,Profi Sportsbar,Sonnenallee 166,12059,Berlin
1585056886,52.5014913,13.4189492,Kek Bar,Oranienstraße 31,10999,Berlin
1585540540,52.4733246,13.3221536,Bar Südwest,,12161,Berlin
1589659413,52.5030829,13.3663544,Kumpelnest 3000,,,
1607815772,52.4868332,13.3430245,Ajpnia,Wartburgstraße 18,10825,Berlin
1625198548,52.4824545,13.4380927,Kindl Stuben,Sonnenallee 92,12045,Berlin
1636136230,52.554228,13.4120945,XXL Cruising-Club,Bornholmer Straße 7,10439,Berlin
1636136232,52.5511894,13.4136394,Q62,Schönhauser Allee 111,10439,Berlin
1643495255,52.4944211,13.4289064,Schmetterling,,,
1653338932,52.5251526,13.3913033,Bar bOx,,,
1663350388,52.5108811,13.4522737,Nice2SeeU,Warschauer Straße 65,10243,Berlin
1673390303,52.5454977,13.4169082,Becketts Kopf,Pappelallee 64,10437,Berlin
1690439220,52.529183,13.4700307,Coconut Cafe / Bar / Lounge,Anton-Saefkow-Platz 11,10369,Berlin
1698512991,52.5093544,13.464978,Cento Passi,Krossener Straße 34,10245,Berlin
1707013603,52.5068439,13.4962055,Emils Bar,,,
1712805517,52.47843,13.4269382,Hotelbar Rix,,12053,Berlin
1731268880,52.5302814,13.385162,Kunstfabrik Schlot,Invalidenstraße 117,10115,Berlin
1737232122,52.5713082,13.5684409,Capone\s Bar,,,
1741956106,52.5222496,13.398825,Palladium Berlin,,10178,Berlin
1765962611,52.522644,13.38874,meisterschueler,,,
1773535615,52.4906445,13.323321,Continental Club,Uhlandstraße 124,,
1776156514,52.4901043,13.4248129,Geist im Glas,Lenaustraße 27,12047,Berlin
1778040545,52.5301475,13.4018631,Rosies,,,
1778046299,52.6689725,13.2817904,,,,
1782481445,52.5341997,13.3586574,Gravity Bar,Lehrter Straße 55,10557,Berlin
1809944626,52.4891131,13.3552405,Varadero,Vorbergstraße 11,10823,Berlin
1813041644,52.5067921,13.3450842,Marlene Bar,,,
1814747571,52.5225271,13.4000208,Le Jardin,Kleine Präsidentenstraße 4,10178,Berlin
1818748428,52.5008697,13.4167581,Ottorink Weinbar,,10999,Berlin
1824052681,52.5557323,13.479348,Freetime,,,
1867212497,52.5115736,13.4430142,Lab.Oratory,,10243,Berlin
1870419341,52.497044,13.3529334,Green Door Bar,Winterfeldtstraße 50,10781,Berlin
1876548210,52.4980519,13.308142,Puro,,,
1884132781,52.4715083,13.4336754,Café Augusta,Jonasstraße 22,12053,Berlin
1887067008,52.5335272,13.4023074,Suzie Mambo,Veteranenstraße 16,10119,Berlin
1891606801,52.509129,13.458883,Timber Doodle Bar,Wühlischstraße 37,10245,Berlin
1896694799,52.3635575,13.4718371,Landebahn 3.0,Wiesenweg 1,12529,Schönefeld
1898919376,52.5056837,13.3197974,BARBARO Cafe Bar,Bleibtreustraße 5a,10623,Berlin
1902766750,52.535623,13.401254,Roberta,Zionskirchstraße 7,10119,Berlin
1915578953,52.4975858,13.3514801,Stagger Lee,Nollendorfstraße 27,10777,Berlin
1915589289,52.4975047,13.3541391,Nachbar,Maaßenstraße 12,10777,Berlin
1919824266,52.4904912,13.4347267,City Bar Sopot,,,
1927763622,52.4865618,13.430953,Tristeza,Pannierstraße 5,12047,Berlin
1942415142,52.5578993,13.3853061,Kamine & Wein,Prinzenallee 58,13359,Berlin
1943589420,52.5103553,13.4543954,Kürbiskern Zauberbar,Kopernikusstraße 23,10245,Berlin
1952553015,52.4984514,13.3069828,CuBar,,10709,Berlin
1954982646,52.4738852,13.4425685,Arkaoda,Karl-Marx-Platz 16,12043,Berlin
1954982647,52.4735534,13.4416997,Balera Weinhandlung,Karl-Marx-Platz 6,12043,Berlin
1960016516,52.517158,13.3202011,Bären-Stübl,Guerickestraße 28,10587,Berlin
1963335045,52.504227,13.313787,Bar96,Leibnizstraße 43,10629,Berlin
1969213797,52.489166,13.365328,Billardaire,Monumentenstraße 35,10829,Berlin
1976742386,52.5327033,13.4240153,Weinberg,,,
1987663374,52.5502352,13.3691639,Jatz,Gottschedstraße 2,13357,Berlin
1991365954,52.4854486,13.4491303,Mega Spass Mega Bar,,,
2031641135,52.4984384,13.3266289,Rum Trader,,,
2034905742,52.5422071,13.2378644,Mozartkugel,,,
2068646525,52.4897279,13.4262801,Fuks,Hobrechtstraße 64,12047,Berlin
2085088144,52.466406,13.3776078,Gaststätte Berlinicke Stuben,,,
2127409174,52.5445952,13.3684959,Blitz Café,Gerichtstraße 57,13347,Berlin
2127423442,52.5517605,13.3618932,Destille,,,
2128900304,52.5868932,13.2809427,Kubis Point,Medebacher Weg 14,13507,Berlin
2156721770,52.5023128,13.4305072,Gallina,,,
2169053649,52.4804034,13.4466449,Poropati,Weserstraße 79,,
2209126224,52.5401924,13.3525383,Lambo Bar,Torfstraße 9,,
2213818303,52.5479459,13.3668959,Curly,Adolfstraße 17,13347,Berlin
2296975568,52.5323828,13.4121244,Herman Belgian Bar,Schönhauser Allee 173,10119,Berlin
2298418695,52.5482802,13.3625576,Tetova,,,
2298929621,52.5465569,13.368977,Osmanli,,,
2299953820,52.5518114,13.355377,Piano Bar,Seestraße 57,13347,Berlin
2301610459,52.55007,13.3646081,Kiss Lounge,,,
2301610478,52.5501199,13.3646879,Moda Bar,,,
2303782064,52.55135,13.3580448,Henrietta,Malplaquetstraße 28,13347,Berlin
2305236117,52.5472575,13.3652811,Yeşilirmak,Prinz-Eugen-Straße 23,13347,Berlin
2308103498,52.5607202,13.0996528,Horkes Café & Bar,,,
2308129193,52.4736946,13.451159,B-Lage,Mareschstraße 1,12055,Berlin
2325901159,52.4993133,13.3048007,Vesper Bar,,10709,Berlin
2335055867,52.5010043,13.4233725,Café Helium,,,
2335254953,52.5116374,13.4583283,Goldfisch,Grünberger Straße 67,10245,Berlin
2340436243,52.5055626,13.3233342,Hefner,Kantstraße 146,10623,Berlin
2357585725,52.4791435,13.449724,Blauer Affe,,,
2384139342,52.564801,13.3242019,EX YU Lounge,,,Berlin
2390688858,52.5420906,13.3556319,12,Sprengelstraße 12,13353,Berlin
2420872155,52.5272358,13.3411656,Essence Bar,Wilhelmshavener Straße 70,10551,Berlin
2420872160,52.5320467,13.3415576,Tirrée,Birkenstraße 46,10551,Berlin
2423932912,52.5015069,13.419281,Rote Rose,Adalbertstraße 90,10997,Berlin
2424288635,52.4446007,13.5777014,Kumami,Kietzer Straße 3,12555,Berlin
2432755484,52.5022042,13.4328535,Schwarze Traube,Wrangelstraße 24,10997,Berlin
2447630905,52.5235334,13.197796,Absolut,Pichelsdorfer Straße 98,13595,Berlin
2472046777,52.5510264,13.509957,Q1 Cafe Lounge,,,
2482984713,52.5443687,13.3597319,Cafe Trifft,Triftstraße 7,,
2483768468,52.5448883,13.3613469,Bar Solut,Müllerstraße 157,13353,Berlin
2495554364,52.4894745,13.3867705,Barbie Bar,Mehringdamm 77,10965,Berlin
2495554382,52.4871284,13.3864809,Mandingo-Diskothek,Mehringdamm 107,10965,Berlin
2496651176,52.4900059,13.3889535,Suspiria,Bergmannstraße 104,10961,Berlin
2496860542,52.5397141,13.4141454,Pool & Cigars,,,
2497904104,52.5002714,13.4397253,Riwaq Bar Und Restaurant,Skalitzer Straße 68,10997,Berlin
2503426687,52.5517988,13.3865542,Studio 8,Grüntaler Straße 8,13357,Berlin
2512986102,52.5298844,13.4245765,Vineria Carvalho,Heinrich-Roller-Straße 9,10405,Berlin
2520313547,52.4943295,13.4338186,Bistro Spumante,Reichenberger Straße 73,10999,Berlin
2541047698,52.4708278,13.4411973,Café & Bar,Karl-Marx-Straße 212,12055,Berlin
2587344133,52.5020743,13.3492123,Cafe Barman,An der Urania 5,10787,Berlin
2589657756,52.4982138,13.4308227,Its A Bar,Spreewaldplatz 14,10999,Berlin
2598153634,52.5034016,13.3656474,Surprise Club,Potsdamer Straße 84,10785,Berlin
2599938447,52.5503613,13.3509782,Granada,Seestraße 95,13353,Berlin
2612336438,52.5883516,13.274449,Hafenbar Tegel,Wilkestraße 1,13507,Berlin
2616118717,52.4446386,13.5861546,Mango Cocktailbar,,,
2621393087,52.475401,13.4243723,Sowieso Neukölln e.V.,Weisestraße 24,12049,Berlin
2670673624,52.4921891,13.4244162,The Black Lodge,,,
2677254710,52.5490612,13.3484073,Musikcafé Sterlitz,Seestraße 104,13353,Berlin
2699780030,52.5104061,13.4512424,Fitchers Vogel,Warschauer Straße 26,10243,Berlin
2703339457,52.5512437,13.4136505,Ciao!,Schönhauser Allee 110,10439,Berlin
2711790241,52.5291922,13.31727,Hurricane,Ufnaustraße 2,10553,Berlin
2712285022,52.5301741,13.3411616,George R,Wilhelmshavener Straße 57,10551,Berlin
2720667492,52.5050525,13.3290327,Bar Zentral,Lotte-Lenya-Bogen 551,10623,Berlin
2722864624,52.5103636,13.2441359,Die kleine Kneipe,Flatowallee 16,14055,Berlin
2727229961,52.5056642,13.3376934,Monkey Bar,,,
2739097086,52.4915715,13.392825,Zyankalibar,Gneisenaustraße 17,10961,Berlin
2739098725,52.491493,13.3932513,Junction Bar,,,
2752211161,52.563571,13.3920583,X Cafe Lounge,Wollankstraße 96,13359,Berlin
2752211163,52.5583326,13.386891,Café Löwe,Soldiner Straße 88,13359,Berlin
2752211188,52.5605451,13.3881567,Flamingo 33,Wollankstraße 68,13359,Berlin
2756763410,52.564066,13.3919548,Graffiti Lounge,Kattegatstraße 2,13359,Berlin
2769572070,52.5071731,13.377563,Academie Lounge,Köthener Straße 44,10963,Berlin
2774900830,52.5170609,13.4473253,Maza Lounge,Karl-Marx-Allee 121,10243,Berlin
2774920018,52.4810266,13.4293652,Tennis,,,
2785657617,52.4128183,13.5152165,Steckenpferd,,,
2810565661,52.470061,13.4369235,Amalia,Selkestraße 27,12051,Berlin
2823022545,52.4790539,13.4387942,Prachtwerk,Ganghoferstraße 2,12043,Berlin
2823033640,52.4852587,13.449385,Vin Neukölln,Elsenstraße 74,12059,Berlin
2824979763,52.5127512,13.4650775,Horst & Jutta,Scharnweberstraße 42,10247,Berlin
2830322394,52.4967894,13.3852031,Zum goldenen Handwerk,Obentrautstraße 36,,
2840289301,52.5385323,13.4140365,Queso y Jamon Cocktails & Tapas,Schönhauser Allee 36-39,10435,Berlin
2860066610,52.4841767,13.4330258,Jaja,Weichselstraße 7,12043,Berlin
2866626835,52.5217699,13.4494539,Barrel Weinbar,Petersburger Platz 1,10249,Berlin
2866993674,52.5286774,13.3856375,Kleopatra Shishabar,,,
2874570616,52.5043141,13.3836872,solar,Stresemannstraße 76,10963,Berlin
2880320913,52.5475959,13.3689037,KiKi Sol,Reinickendorfer Straße 96,13347,Berlin
2918828516,52.4709121,13.4468415,Das Rössle,Braunschweiger Straße 51,12055,Berlin
2935231201,52.4864102,13.4233747,Brinks,Hasenheide 117,10967,Berlin
2935274508,52.567578,13.314109,Oldieclub,Scharnweberstraße 55a,13405,Berlin
2935287802,52.50726,13.4683846,Adara,Boxhagener Straße 75,10245,Berlin
2935515203,52.5051677,13.467245,Perro Loco,Sonntagstraße 5,10245,Berlin
2940887425,52.5444044,13.3579215,Elegance Cafe,Genter Straße 7,13353,Berlin
2941462114,52.4820706,13.4313317,Klunkerkranich,Karl-Marx-Straße 66,12043,Berlin
2963972260,52.5585787,13.4129685,Café Diseño,,,
2969999433,52.4954314,13.4178333,Unterm Baum,Planufer 92d,10967,Berlin
2971387933,52.4824813,13.4430897,Ramones Museum,Weserstraße 159,12045,Berlin
2979939980,52.5371409,13.607323,Helle Beach,Lyonel-Feininger-Straße 1,12627,Berlin
3008816619,52.5156063,13.2931008,Zap,Seelingstraße 21,14059,Berlin
3021118498,52.5375709,13.6036251,Miami Cocktail Bar,Kurt-Weill-Gasse 7,12627,Berlin
3036860727,52.4922712,13.4209764,Fabelhaft Bar,Schönleinstraße 6,10967,Berlin
3039741145,52.5114506,13.4634671,Sheriff Teddy Bar,Weserstraße 25,10247,Berlin
3045372048,52.5099489,13.4582773,HASE,Gabriel-Max-Straße 3,10245,Berlin
3061336433,52.5419449,13.3565269,Bar Elisabeth,Sprengelstraße 41,13353,Berlin
3062860284,52.502687,13.263174,Barkamp,Harbigstraße 14,14055,Berlin
3081238388,52.6352711,13.4998731,Kieztreff,Alt-Buch 38A,13125,Berlin
3081710993,52.4881171,13.3373979,Lounge Bar Café,Grunewaldstraße 53,10825,Berlin
3087407610,52.5317299,13.3944502,Bar Buñuel,Bergstraße 25,10115,Berlin
3095210830,52.5375887,13.4117811,Baden im Wein,Schönhauser Allee 155,10435,
3098125032,52.5298949,13.4043349,Kitty Cheng,,,
3110350780,52.4820635,13.425089,Villa Neukölln,Hermannstraße 233,12049,Berlin
3157916989,52.4692985,13.3332592,Bar 55°,Rheinstraße 55,12159,Berlin
3163411214,52.4919033,13.3831496,Galander Kreuzberg,Großbeerenstraße 54,10965,Berlin
3178165275,52.4722481,13.3364059,Offen Bar,Hauptstraße 80B,12159,Berlin
3184975056,52.5120173,13.3165894,Café Keese,Bismarckstraße 108,10625,Berlin
3196075327,52.537545,13.4223765,Bryk Bar,Sredzkistraße 65,10405,Berlin
3215985261,52.5017456,13.4239139,Apothekenbar,,,
3218209930,52.4544266,13.3857047,iLand,Tempelhofer Damm 227,12099,Berlin
3239758863,52.5276155,13.4048044,Al Contadino,,,
3239758885,52.5273496,13.4039576,Bar Steinkeller,Steinstraße 20,10119,Berlin
3273837961,52.5386174,13.2060653,Fadice Bar,,,Berlin
3302170508,52.5294451,13.5922585,Arizona,Neue Grottkauer Straße 3,,
3307304710,52.5304852,13.6210788,HELLERSDORFER PERLE,Riesaer Straße 102,12627,Berlin
3308644130,52.5232822,13.3055903,Sporthalle Charlottenburg,,,
3343659162,52.4995975,13.3624937,Pozzi Bar,Potsdamer Straße 124,10783,Berlin
3354419270,52.5031413,13.3347999,Ciro Bar,Rankestraße 31,10789,Berlin
3354419276,52.5034418,13.3344126,Gecco,Rankestraße 3,10789,Berlin
3359334977,52.4742101,13.4491949,Rotbart,Böhmische Straße 43,12055,Berlin
3380514461,52.546571,13.4176684,Badfish,Stargarder Straße 14,10437,Berlin
3388516448,52.4813172,13.3489297,Whats up,Dominicusstraße 36,10827,Berlin
3390615493,52.5284199,13.4099389,Kaschk by Brlo,Linienstraße 40,10119,Berlin
3391940193,52.5003625,13.3006497,The Golden,,,
3395000386,52.4878896,13.4306193,Vin Aqua Vin,Weserstraße 204,12047,Berlin
3407556126,52.4750941,13.3399867,Zig Zag,Hauptstraße 89,12159,Berlin
3419393693,52.5184424,13.3861893,Windhorst,Dorotheenstraße 65,10117,Berlin
3446657745,52.4830062,13.3604399,Jansen Bar,Gotenstraße 71,10829,Berlin
3455613401,52.5054368,13.3176983,Cocktailbar Zeitlos IV,Schlüterstraße 60,10625,Berlin
3458901232,52.514901,13.4173876,Gestrandet an der Jannowitzbrücke,,10179,Berlin
3480334314,52.4966531,13.3579232,Voima,,,
3571993093,52.4895024,13.3854467,Blarney Pub,Methfesselstraße 4,,Berlin
3573519566,52.4661691,13.3229938,"KK2 Kneipenkönig ""zwei""",,,
3573519567,52.4660215,13.3242491,Zum Lindenblatt,Bornstraße 9,12163,Berlin
3614692915,52.4828937,13.4287764,Alaska,Reuterstraße 85,12053,Berlin
3632408170,52.4895234,13.3597788,Neues Ufer,Hauptstraße 157,10827,Berlin
3632409697,52.4892699,13.3595731,Seventies,Hauptstraße 155,10827,Berlin
3644102893,52.443905,13.5689485,Café und Game,Grünauer Straße 4,,
3644133593,52.466559,13.321931,Foersters Feine Biere,Bornstraße 20,12163,Berlin
3644228395,52.4660933,13.3292622,Aliyah,Rheinstraße 36,12161,Berlin
3644364395,52.4545762,13.5769592,Diele,,,
3644405821,52.4526495,13.5753562,Tusches Kick & Rush,Am Generalshof 3,12555,Berlin
3644435051,52.5111639,13.4470038,Molly Malones,Torellstraße 1,10243,Berlin
3666635599,52.4991198,13.3415224,Cafe Modo,Fuggerstraße 37,10777,Berlin
3683471518,52.5287322,13.4281707,Fairytale,Am Friedrichshain 24,10407,Berlin
3687506125,52.488058,13.3640294,Barkett,Czeminskistraße 10,10829,Berlin
3688980394,52.5059528,13.3337971,Zoo Loge,,,
3689263626,52.543007,13.4201977,Caravaggi Naturwein,Lettestraße 3,10437,Berlin
3694046846,52.490247,13.3493507,Fjord,Eisenacher Straße 86,10781,Berlin
3702768869,52.4895474,13.3922277,Ernst,Solmsstraße 29,,
3709932075,52.5133812,13.5222231,Miami Club & Cocktailbar,Seddiner Straße 8,10315,Berlin
3716997681,52.5150859,13.3978884,Town Bar,Werderscher Markt 11,10117,Berlin
3717372825,52.502635,13.3223169,The Bar Fox,,,
3718951169,52.5067882,13.5124269,Arena Bar 1136,,,
3722032234,52.6691561,13.2879121,Collins,Schönfließer Straße 17,16540,Hohen Neuendorf
3727953647,52.5434287,13.4192287,Wohnzimmer,Lettestraße 6,10437,Berlin
3747274058,52.4782382,13.4213181,Keith,Schillerpromenade 2,12049,Berlin
3749393119,52.4871386,13.4310129,La BarBer Queer Tattoo Bar,Pannierstraße 56,12047,Berlin
3749729346,52.5112243,13.4570222,Simons Bar,Simon-Dach-Straße 40,10245,Berlin
3752880216,52.5235063,13.3378932,Meißners Probierstube,Bochumer Straße 6,10555,Berlin
3755414776,52.4549907,13.324515,WeinBasis,Schützenstraße 3,12165,Berlin
3755709523,52.6069824,13.3190534,Cherry Lounge,Waidmannsluster Damm 175,13469,Berlin
3757292288,52.5552586,13.3774088,Shisha Sova Lounge,Koloniestraße 9,13357,Berlin
3758747572,52.5482976,13.3520419,Moje Bar,Brüsseler Straße 6,13353,Berlin
3769088532,52.5608023,13.3729264,Wilma,,13409,
3769343186,52.4921107,13.4234179,alphonse,Sanderstraße 2,12047,Berlin
3775184616,52.4865786,13.4294538,Cafe Warschau,Sonnenallee 27,12047,Berlin
3778102238,52.4939486,13.4290907,lütt,,,
3783275205,52.5301909,13.4006727,Sharlie Cheen Bar,Brunnenstraße 196,10119,Berlin
3798370392,52.4992096,13.3674515,Karakas Bar,Kurfürstenstraße 9,10785,Berlin
3799268857,52.4846046,13.3525429,Timeless,Hauptstraße 34,10827,Berlin
3801422906,52.5090261,13.3739893,Qiu,,,
3811492219,52.5456872,13.413263,Dr. Maury in vino sanitas,Schönhauser Allee 62,10437,Berlin
3825899759,52.4918649,13.3905261,Limonadier,Nostitzstraße 12,10961,Berlin
3826014006,52.4987557,13.3516497,Heile Welt,Motzstraße 5,10777,Berlin
3826014922,52.4979024,13.3518255,Die Wein,Nollendorfstraße 15,10777,Berlin
3826451051,52.4977185,13.3484263,Scheune,Motzstraße 25,10777,Berlin
3826452056,52.4988758,13.3510921,Hans Weinstube,Motzstraße 10,10777,Berlin
3826452472,52.4978968,13.3489686,Privatclub The Jaxx,Motzstraße 19,10777,Berlin
3826455885,52.4998512,13.3493148,Segunda Casa,Eisenacher Straße 2,10777,Berlin
3826455890,52.4992618,13.3489343,Tabasco,Fuggerstraße 3,10777,Berlin
3830235403,52.5045842,13.3535636,Bar am Lützowplatz,,,
3830235451,52.5020478,13.3546078,Lebensstern,Kurfürstenstraße 58,10785,Berlin
3837620168,52.5002999,13.3542777,El Greco,Karl-Heinrich-Ulrichs-Straße 2,10787,Berlin
3842659819,52.5450317,13.5504182,Isy Chill Out,,,
3844947697,52.5124029,13.4899339,Ciwan,,,
3855567144,52.4977701,13.361099,Big Ben Bar,,,
3874489657,52.4505207,13.322746,WandelBar,Birkbuschstraße 87,12167,Berlin
3874680812,52.4812946,13.3612554,Weinverein Rote Insel,Leuthener Straße 5,10829,Berlin
3883262657,52.4612569,13.5198598,Café Zero,Wilhelminenhofstraße 38,12459,Berlin
3895249257,52.5268736,13.4106518,Belushis Berlin,Rosa-Luxemburg-Straße 41,10178,Berlin
3901335180,52.5389246,13.4103641,Kani Mani,Kastanienallee 95,10435,Berlin
3905700621,52.464088,13.5139043,Lucky Bar,Edisonstraße 17,12459,Berlin
3906102057,52.539349,13.402115,Mauerwinzer,Wolliner Straße 20,10435,Berlin
3906921130,52.5115561,13.4525781,Tagesbar 69,Warschauer Straße 69,10243,Berlin
3907010222,52.5079337,13.4501407,GinChilla Bar,Warschauer Straße 33,10243,Berlin
3922914841,52.5073394,13.3200854,A-Trane,Bleibtreustraße 1,10625,Berlin
3936518632,52.5054381,13.3332189,Lang Bar,,,
3937667737,52.5321317,13.3990383,Buck & Breck,Brunnenstraße 177,10119,Berlin
3937670618,52.5296781,13.3996584,Sportsbar,,,
3986643071,52.5147333,13.4665581,Sportsbar 63,Frankfurter Allee 61,10247,Berlin
3987612969,52.5025098,13.3293621,Zum Patzenhofer,Meinekestraße 26,10719,
3992172154,52.5117529,13.4977017,45° Cocktailbar,Frankfurter Allee 250,,
3992172155,52.512667,13.4980396,Yu,,,
4003323948,52.5327062,13.4101937,Schurkenkeller,Christinenstraße 28,10119,Berlin
4006934384,52.4898866,13.4042422,Die Legende von Paula und Ben,Gneisenaustraße 58,10961,Berlin
4014983659,52.5667166,13.3972566,Havana Bar & Chat,Wollankstraße 115,,Berlin
4029054547,52.5485806,13.4514166,Anton-Cafe-Bar,Berliner Allee 39,,
4029729690,52.5341405,13.417199,Wild Tales,Diedenhofer Straße 6,10405,Berlin
4034138654,52.5005362,13.4216423,Roses Bar,Oranienstraße 187,10999,Berlin
4034138656,52.5004415,13.4219521,Molotov Cocktail,Oranienstraße 189,10999,Berlin
4035162211,52.4999219,13.4176547,Xara Beach,Adalbertstraße 98,10999,Berlin
4052810556,52.5260058,13.451437,End.,Heidenfeldstraße 11,10249,Berlin
4061391765,52.5126891,13.3052701,Korkis Bar,Wilmersdorfer Straße 143,10585,Berlin
4072577191,52.4452383,13.5735623,Frolic Lounge,,,
4076409716,52.5506938,13.3607102,Basalt,Utrechter Straße 38,13347,Berlin
4083481126,52.5887962,13.2889889,,,,
4089521566,52.5083035,13.4592671,Saligari,Simplonstraße 23,10245,Berlin
4100572575,52.545694,13.3906394,Green Village,Brunnenstraße 94,13355,Berlin
4107746583,52.4897849,13.383376,Bar Franzotti,Kreuzbergstraße 71,10965,Berlin
4111128215,52.5685413,13.1954576,,,,
4111750190,52.4846681,13.4379323,Mendy und Edeltraut,Weserstraße 43,12045,Berlin
4119516722,52.554105,13.3764108,King café,,,
4126809989,52.548104,13.4100854,Eetcafé,Rhinower Straße 3,,
4135389206,52.5230679,13.4008415,ZOE Bar,Große Präsidentenstraße 6-7,10178,Berlin
4139442790,52.5548049,13.3845642,,Bellermannstraße 97,13357,Berlin
4149295990,52.5318367,13.4340845,Saphire Bar,Bötzowstraße 31,10407,Berlin
4149355489,52.5372999,13.4221763,Marsha*s,Sredzkistraße 64,10405,Berlin
4160090541,52.5312787,13.4001841,Bar Milano,,,
4173488703,52.4451329,13.5053311,Lindeneck,,,
4188134452,52.480241,13.446892,Comedy Café Berlin,Roseggerstraße 17,12059,Berlin
4208570623,52.5081169,13.3208679,Coco Lounge,,10623,Berlin
4213412590,52.499129,13.4287641,vorWien,Skalitzer Straße 41,10997,Berlin
4234437066,52.4863519,13.4460766,Funkloch,Wildenbruchstraße 68,12045,Berlin
4267091485,52.5334733,13.3858904,Mauna Island,,,
4267091486,52.5331987,13.384923,BeachBar Mitte,,,
4267091487,52.5339051,13.3849023,Coron & Bar,,,
4267091826,52.5337617,13.3844643,,,,
4267092102,52.534051,13.3850259,Big Kahuna Lounge,,,
4269744590,52.5215281,13.3859832,Bar a Vin,,,
4275918534,52.3768329,13.0934458,Shisha-Bar International,,,
4279608389,52.562118,13.4597399,US Bowl,,,
4303177506,52.5086513,13.4608863,Stock & Stein,Wühlischstraße 43,10245,Berlin
4304142392,52.5393312,13.4217457,Rhabarbar,Danziger Straße 58,10435,Berlin
4306025962,52.5438324,13.374252,Cafe Köşe Başi,Gerichtstraße 16,13347,Berlin
4307700921,52.5303619,13.3670529,Bata,Heidestraße 50,10557,Berlin
4318471414,52.5231481,13.1978716,Bar 24/7,Pichelsdorfer Straße 114,13595,Berlin
4339053549,52.5657286,13.3636512,Medlodi,,,
4339053551,52.5457054,13.3690581,Ex Yu,,,
4349464591,52.5086502,13.4659312,La Picá,Boxhagener Straße 48,,
4351511589,52.5423111,13.3506804,Viola Lounge,,,
4351511592,52.5503129,13.364962,Chill Zone,,,
4359104142,52.5638651,13.4216358,Jahns Biergarten,Binzstraße 47a,13189,Berlin
4360052978,52.4706748,13.4416926,Las Vegas,Karl-Marx-Straße 215,12055,Berlin
4363623303,52.5069221,13.3043342,Bilionari,,,
4376038431,52.4785828,13.3253779,Blooms,Detmolder Straße 61,10715,Berlin
4379249092,52.4433958,13.3856223,Papillon Musikcafé,Prühßstraße 49,12105,Berlin
4381991352,52.479025,13.3190222,San-Franz-Isco,Detmolder Straße 21,10713,Berlin
4383654012,52.5444471,13.3716585,The Forsberg,Gerichtstraße 26,,
4407986956,52.5002687,13.3754599,Gleis 11,,,
4411589593,52.5282486,13.3284535,Akita Sushi Bar,Beusselstraße 72,10553,Berlin
4411605189,52.5281328,13.3289224,Layal Lounge,Beusselstraße 18,10553,Berlin
4412294195,52.5471538,13.3501809,Chez Charly,,,
4414048693,52.4918196,13.425715,Bar Brutal,Hobrechtstraße 54,12047,Berlin
4424407690,52.487764,13.4309811,Thelonious Bar,Weserstraße 202,12047,Berlin
4437566769,52.5532505,13.3818478,Pharaos,Prinzenallee 86,13357,Berlin
4443463238,52.4702842,13.4325411,Café Gold,Altenbraker Straße 19,12053,Berlin
4443537590,52.5436763,13.4127672,Zum Starken August,Schönhauser Allee 56,10437,Berlin
4446880414,52.5645291,13.3269619,Château,,,
4453748197,52.5438832,13.3606142,Beste,Willdenowstraße 12A,13353,Berlin
4455654489,52.4861394,13.429165,La Vie,,,
4457967039,52.5426035,13.3581099,Cafe Sohbet,Sprengelstraße 6,13353,Berlin
4476665092,52.561368,13.4091586,Sportsbar Maxim,,13187,
4483858624,52.5176701,13.3068261,Cest la vie,,,
4505979306,52.5013718,13.363858,Victoria Bar,Potsdamer Straße 102,10785,Berlin
4524888114,52.4992818,13.418915,Paloma Bar,,,
4527116689,52.4141283,13.4001454,Adara House,Buckower Chaussee 160,12305,Berlin
4530197493,52.5104837,13.4609251,Bloona,Gärtnerstraße 12,10245,Berlin
4533854888,52.5145199,13.4598449,Local66,Niederbarnimstraße 25,10247,Berlin
4533857102,52.512616,13.4578979,Luft und Liebe,Boxhagener Straße 26,10245,Berlin
4542091130,52.4558613,13.5776363,,,,
4545683589,52.4859634,13.4353837,Beuster Bar,Weserstraße 32,12045,
4565145424,52.4757036,13.4221159,Promenaden Eck,Schillerpromenade 11,12049,Berlin
4595444463,52.535845,13.4163564,Nachtigall Bar,,,
4619327772,52.4979722,13.3492092,Hafen,Motzstraße 19,10777,Berlin
4632214719,52.4938763,13.3878471,Kims Karaoke,Mehringdamm 32,10961,Berlin
4654410911,52.4920033,13.3645867,Mein Freund Harvey,Kulmer Straße 20A,10783,Berlin
4702346689,52.5119926,13.4665483,BAR BAUTROCKNER,Jungstraße 29,10247,Berlin
4703094281,52.4581514,13.4478628,Le Jardin,Buschkrugallee 60,12359,Berlin
4706749195,52.5295322,13.4102878,Marrakesch,Schönhauser Allee 5,10119,Berlin
4715187589,52.4561082,13.6256211,Sports Bar,Bölschestraße 68,12587,Berlin
4720102290,52.5192545,13.426984,PlaceOne Panoramabar,Strausberger Platz 1,10243,Berlin
4720903019,52.4957929,13.4335797,Facciola,Forster Straße 5,10999,
4732222721,52.5018457,13.3340212,Bar Centrale Novantesimominuto,Augsburger Straße 33,10789,Berlin
4741547274,52.501387,13.3890261,Café Linie 1,Wilhelmstraße 9,10963,Berlin
4746854421,52.5321759,13.4707502,Jokers Bar,,,
4750795022,52.5387093,13.42348,Bar Luxus,Prenzlauer Allee 197,10405,
4773307931,52.5103508,13.4566525,Rockz,Simon-Dach-Straße 37,10245,Berlin
4776626158,52.5121173,13.4707775,Bar BoBu,Müggelstraße 9,10247,Berlin
4782878421,52.4948737,13.429902,Wows!ville,Ohlauer Straße 33,,
4799003823,52.5001984,13.3494308,Bull,Kleiststraße 35,10787,
4813859501,52.5650031,13.3946691,Overtime,,,
4815202826,52.5114976,13.426733,Holzmarkt25,Holzmarktstraße 25,10243,Berlin
4817567278,52.5312529,13.3435021,Black Pearl,,,
4826193923,52.5745974,13.5094165,Sportsbar,Rostocker Straße 15,,
4840148521,52.5252941,13.4523136,Bar Solut,,,
4846723150,52.5305765,13.4766342,Beach Zone Lichtenberg,,,
4881470568,52.4901195,13.4335474,KollektivBar ES,Pflügerstraße 52,12047,Berlin
4881993966,52.5089273,13.4607705,Sportbar,Wühlischstraße 21,10245,Berlin
4899765886,52.5548347,13.3762977,Society,,,
4904205521,52.5885571,13.2888965,Club Lokum,Buddestraße 12,13507,
4904217721,52.5855595,13.280794,Aladin Shisha Lounge,Medebacher Weg 3,13507,Berlin
4908049914,52.5114842,13.4576903,Honigdachs,Grünberger Straße 64,10245,Berlin
4908694240,52.5674556,13.3785934,K2 Bar,,,
4919618121,52.5272149,13.3974755,Meine Bar Ici,Auguststraße 61,10117,Berlin
4931223880,52.5108674,13.4614853,The Wall Comedy Club Berlin,Grünberger Straße 84,10245,
4936116185,52.5462512,13.5925937,Spielpass Bierbar,,,
4938965404,52.5324846,13.3429665,Heine,Putlitzstraße 19,,
4945925189,52.5314884,13.3883867,The Castle,Invalidenstraße 129,10115,Berlin
4948140228,52.5102176,13.3752486,,,,
4948140430,52.5010099,13.419712,Prinzipal Bar,,,
4948143723,52.5208599,13.4093633,203 Bar im Fernsehturm,Panoramastraße 1a,10178,Berlin
4959707324,52.529821,13.4047968,Botanical Affairs - Gin&Tonic Bar & Shop,Torstraße 95,,
4959884323,52.5051712,13.3201949,Journey into the Night,,,
4967649020,52.4957793,13.363058,Kupferkanne,Steinmetzstraße 18,10783,Berlin
4970978698,52.5150497,13.459003,12 Grad Aetherloge,,,
4998526587,52.4888108,13.4117261,Balcone Lounge,Hasenheide 47,10967,Berlin
5022231323,52.5295519,13.403818,Mikkeller Craft Beer Bar,Torstraße 102,10119,Berlin
5031751089,52.5526811,13.3796923,Miami,,,
5079340611,52.6315162,13.289006,Die Bar Frohnau,,,
5082327736,52.5106829,13.5023589,Fantasy & Cocktail Bar,,,
5109682741,52.5250417,13.3933348,Grand Bar,,10117,
5111541616,52.5076346,13.4990703,Zum Schwalbenschwanz,Margaretenstraße 22,10317,Berlin
5111587017,52.5136741,13.4998066,Morgen wird besser,Hagenstraße 7,10365,Berlin
5128352222,52.4835313,13.4335435,Donau 115,Donaustraße 115,12043,Berlin
5128359711,52.5046048,13.4685202,Mini Lounge,Neue Bahnhofstraße 36,10245,Berlin
5141152703,52.5050754,13.4659465,Carlotta Bar,Lenbachstraße 10,10245,
5143147765,52.6165344,13.3086284,The Brit-Pub,,13467,Berlin
5234709983,52.4900273,13.4262039,Oblomov,Lenaustraße 7,12047,Berlin
5313840260,52.4824527,13.4451507,Du Beast drinks & coffee,,,
5324651378,52.5294941,13.3880961,Bar Schwips,Eichendorffstraße 1,10115,Berlin
5332786082,52.5309987,13.4228741,Mima,Winsstraße 1,10405,Berlin
5336750821,52.5247036,13.4099587,Lux 11,Rosa-Luxemburg-Straße 11-13,10178,Berlin
5384055524,52.4928356,13.3533229,Mister Hu,,,
5440526349,52.4558486,13.3806935,Erdal’s Bierstube,,,
5467043156,52.5093799,13.4603446,Noble Rot,Gärtnerstraße 6,10245,Berlin
5480181391,52.5091332,13.3016351,Mandaloun,Kaiser-Friedrich-Straße 40,10627,Berlin
5481084048,52.4927707,13.3867744,Seventh Day,,,
5486308639,52.499001,13.4455796,Barbie Deinhoffs,Schlesische Straße 16,10997,Berlin
5503778828,52.4737454,13.4449997,Herr Lindemann,,,
5630437216,52.5258865,13.3072553,Why Not Café,,,
5640234265,52.4977119,13.3474298,ILOsBar,Motzstraße 30,10777,Berlin
5640350672,52.5440345,13.3937483,LAFLAVA,,,
5648017162,52.500205,13.3495286,New Action,Kleiststraße 35,10787,
5667813593,52.4689797,13.3408049,Meins,Rembrandtstraße 12,12157,Berlin
5675569442,52.5050846,13.3291618,The Hat Bar,Lotte-Lenya-Bogen 550,10623,Berlin
5682506044,52.5021104,13.4168455,Orania,,,
5715364552,52.528615,13.3934672,Torbar,Torstraße 183,10115,Berlin
5715364553,52.5276115,13.3886111,Anna Hirsch Bar,,,
5718697046,52.4893438,13.3589378,Café Sportsbar,Hauptstraße 8,10827,Berlin
5718697047,52.4893283,13.358919,Cafe Isy,Hauptstraße 8,10827,Berlin
5726198087,52.5212657,13.4036317,Berlin Icebar - Polar Expedition,Spandauer Straße 2,10178,Berlin
5730290888,52.5069868,13.2942893,Blacklist,Neue Kantstraße 1,14057,Berlin
5742057515,52.5047832,13.3910291,Bar hotel Numa,Friedrichstraße 31,10969,Berlin
5776716413,52.5047247,13.4834592,BLO Kantine,Kaskelstraße 55,10317,Berlin
5792730410,52.5022839,13.4663084,Zuckerzauber,Markgrafendamm 24c,10245,Berlin
5800889978,52.5240121,13.4072985,Antikriegscafé COOP,Rochstraße 3,,
5801381294,52.5001599,13.3218194,Bebua,,,
5834257629,52.5064733,13.2989681,mokai,,,
5837637799,52.5244238,13.3956778,Mr. Susan,Krausnickstraße 1,10115,Berlin
5839839285,52.4679437,13.4417844,Cafe Happy,,,
5856805935,52.5184467,13.3883733,Comebuy,Friedrichstraße 150,,
5868881267,52.513162,13.3945066,Glasweise Weinbar,Taubenstraße 20,10117,Berlin
5875655611,52.5090294,13.502728,Kosova Bar,,,
5887756694,52.5528953,13.3824815,Cafe Prince / Kings Bar,,,
5887756696,52.5546426,13.3836801,Baraka,,,
5899203320,52.5273167,13.3864832,Bar 131,,,
5905339085,52.5813027,13.3447214,Bubbles - Lounge,Roedernallee 167,13407,
5915926102,52.4898283,13.4045527,The Suite,Gneisenaustraße 57,,
5922258666,52.5240075,13.3819109,Wieviel Zeit,,,
5933931111,52.5030662,13.3368675,Hildegard Bar,Marburger Straße 3,10789,Berlin
5939312537,52.5365649,13.4758049,Rodi Bar,Konrad-Wolf-Straße 63,13055,Berlin
5966966473,52.5351527,13.468831,Rodi Bier Bar,Hohenschönhauser Straße 72,10369,Berlin
5995084892,52.4687045,13.43175,Ruine Bar,,,
5997207785,52.4939822,13.4182949,Atlas,,,
6032354004,52.5435155,13.369402,Relax Mimmo Can,Reinickendorfer Straße 112,,
6041857820,52.4896926,13.3855384,Bierladen,Kreuzbergstraße 78,,
6092640793,52.5613525,13.4992297,"Sportsbar, Bet 3000",Hansastraße 249,13051,Berlin
6119368041,52.4747593,13.4448611,Lobby 030,Richardstraße 76,12043,Berlin
6135203778,52.5598913,13.3812912,Black & White,Soldiner Straße 69,13359,Berlin
6137406832,52.5563441,13.3728863,Miami,,,
6157289432,52.5712437,13.3796086,Femo-Cafe,,,
6170007186,52.4969291,13.4206723,Barred,Mariannenstraße 29,10999,Berlin
6201408000,52.4886008,13.389902,Galander Haifischbar,Arndtstraße 25,10965,Berlin
6204178136,52.5075103,13.4713018,Compass Bar Berlin,,,
6215636685,52.505977,13.327695,Times Bar,Fasanenstraße 10,10623,
6226975090,52.4912543,13.4159154,MINI,Urbanstraße 126,10967,Berlin
6268073102,52.5644871,13.3777744,Baraka,,,
6280799258,52.4935533,13.3520538,Fabelei,Kyffhäuserstraße 21,10781,Berlin
6286663260,52.4478812,13.57847,Break Bar & Lounge,Freiheit 12,12555,Berlin
6295530685,52.447804,13.5769322,duke bar,Freiheit 15,12555,Berlin
6298093554,52.531471,13.3857245,Das Caro,Caroline-Michaelis-Straße 1,10115,Berlin
6301879864,52.5045098,13.4721286,[B],Marktstraße 7,,
6312320314,52.5915845,13.2914723,Restaurant Kleens Bar,Tile-Brügge-Weg 25,13509,Berlin
6316591590,52.4731385,13.4411487,Malia Cocktail Bar,Karl-Marx-Straße 191,12055,Berlin
6316591592,52.4728261,13.4412722,Alhayba,Karl-Marx-Straße 195,12055,Berlin
6316591601,52.4725676,13.4409114,Café Kulis,Karl-Marx-Straße 198,12055,Berlin
6331736867,52.4748329,13.4397725,Bebeq Xalcatraz,Karl-Marx-Straße 170,12043,Berlin
6346569898,52.5285246,13.4574432,Loft14,Landsberger Allee 106,10369,Berlin
6369181943,52.417566,13.2263226,Schröders,Karl-Marx-Straße 18,14532,Kleinmachnow
6400761574,52.6309488,13.308953,Transformator Frohnau,Fürstendamm 40,13465,Berlin
6409919467,52.5066138,13.3011443,Zagga Bar,,,
6430926123,52.5272698,13.3318248,Keyta Lounge,Turmstraße 52,10551,Berlin
6444647570,52.497753,13.3611748,Louvre,,,
6447587236,52.5043994,13.4425535,260 Grad,Mühlenstraße 13,10243,Berlin
6451857149,52.5504348,13.3492218,Fredericks,Lüderitzstraße 10,13351,Berlin
6462718085,52.557591,13.3857976,Al Mayas Shisha Bar,,,
6467825187,52.5666162,13.3292199,As,Ollenhauerstraße 14,13403,Berlin
6501792285,52.5187432,13.3015715,Bar,,,
6520925485,52.4525855,13.3215514,New-Pacha,Schützenstraße 21,12165,Berlin
6534789986,52.4598169,13.3258305,Xerima,,,
6574485861,52.5244987,13.3487718,Café lila lounge,,,
6612061218,52.5007117,13.4392206,Space Meduza,Skalitzer Straße 80,10997,Berlin
6638535035,52.513744,13.4544826,Migi Würsch,Boxhagener Straße 14,10245,
6652546285,52.5513735,13.3619442,Lolo Bar,,,
6654940879,52.5393605,13.4024212,Serre Bar,Kremmener Straße 8,10435,Berlin
6665207685,52.5511473,13.3642509,Bizim Mekan,,,
6683553622,52.5533325,13.4150542,Lamm Bar,Wisbyer Straße 10439,,
6698553589,52.5546279,13.3839726,Kapadokya,,,
6732245435,52.561872,13.3730826,Masala,Reginhardstraße 54,13409,Berlin
6739223738,52.5105428,13.4577721,Badfish,,,
6739388159,52.5178335,13.3067592,Kingston,,,
6746281386,52.5488792,13.3684952,Barbados,Reinickendorfer Straße 91B,13347,Berlin
6761490089,52.5461773,13.3681891,Yigidolar 58,Plantagenstraße 41,,
6764573670,52.4286492,13.3302715,M2,,,
6764573672,52.4262893,13.3350024,Frobenstübl,,,
6801987029,52.5133716,13.3899735,,,,
6825107609,52.4934783,13.3649752,Imperial,,,
6845042072,52.5014222,13.3620801,Isotop,Pohlstraße 64,10785,Berlin
6856217637,52.4879945,13.3740815,Herbst,Monumentenstraße 29,10965,Berlin
6876047360,52.4854205,13.4326586,Bar 51,,,
6894842590,52.4937676,13.363224,My Dream,,,
6916246685,52.5126251,13.4664436,Sicula Bar,Scharnweberstraße 46,10247,Berlin
6917116188,52.4861422,13.4349457,Golden Turtle,Weserstraße 31,12045,Berlin
6928789314,52.4686388,13.4904255,Trauma,Eschenbachstraße 1,12437,Berlin
7025879077,52.535224,13.4343806,Sportsbar,,,
7036400896,52.4810026,13.4275975,Poison Rock Karaoke Bar,Flughafenstraße 39,12053,Berlin
7067306935,52.5046357,13.3275063,be-mee,,,
7067306942,52.5046856,13.3272907,Kalyan,,,
7067306943,52.4996857,13.3301349,Die Kleine Philharmonie,,,
7086960210,52.4732459,13.448483,Drei Flaschen,Böhmische Straße 48a,12055,Berlin
7089755261,52.5251841,13.3302945,Laros,,,
7101244895,52.5236046,13.3910427,Belushis,Ziegelstraße 28,10117,Berlin
7137634556,52.4961228,13.3266873,Fasanen 47,Fasanenstraße 47,10719,Berlin
7141438133,52.4673067,13.4402339,Baba,,,
7143309623,52.4901582,13.4184324,Badabing Social Club,,,
7146586543,52.5049526,13.3386751,House of Gin,,,
7157660285,52.6385434,13.4904715,Mein Quartier,,,
7187974685,52.4807437,13.4277148,Deriva Bar,Mainzer Straße 23,12053,Berlin
7195094856,52.4937079,13.5078918,Sports Bar,,,
7217143490,52.5513557,13.3795539,Eva,,,
7233554318,52.5428964,13.4403864,Double X Bar 2,Greifswalder Straße 160,10409,Berlin
7233554323,52.5434113,13.4409525,Zum Anker,Greifswalder Straße 157,10409,Berlin
7252449962,52.4758068,13.4232769,Janas Coffee Lounge,,,
7256261949,52.5500151,13.3653417,Noka Korea Karaoke,,,
7273899893,52.5172778,13.4539575,Adrijan Smoking Lounge,,,
7277014959,52.4740339,13.4422422,Hollypipe,,,
7330043786,52.4959253,13.295164,Casablanca,,,
7340643730,52.5081879,13.4823198,Coppi Cabana,Coppistraße 14,10365,Berlin
7340692918,52.4938405,13.4150474,RedRum,,,
7382754571,52.4342671,13.4552477,Schnabels Klause,,,
7450068804,52.5514194,13.364636,Café Bar 09,,,
7590532349,52.4934978,13.4179104,Zur glücklichen Auster,,,
7609092407,52.5540198,13.3452196,Liquid,Müllerstraße 121,13349,Berlin
7610396212,52.5548222,13.3438528,Black & Gold Bar,Müllerstraße 116,13349,Berlin
7610691602,52.4877308,13.4310767,Vater Bar,Weserstraße 202,12047,Berlin
7612272350,52.5555379,13.3439452,Lucky Seven,Ofener Straße 15,13349,Berlin
7612272351,52.5555989,13.3433676,Happy Sportsbar,Müllerstraße 61A,13349,Berlin
7612272356,52.5551046,13.3442379,Palme,Müllerstraße 60,13349,Berlin
7612272362,52.5565569,13.3416822,Barcelona,Müllerstraße 67,13349,Berlin
7612272367,52.5550787,13.3442788,Milano,Müllerstraße 60,13349,Berlin
7612272368,52.5550522,13.3443219,Helina,Müllerstraße 60,13349,Berlin
7612272371,52.5553676,13.3442728,Schneeeule,Ofener Straße 1,13349,Berlin
7613183872,52.5549197,13.3457237,Hook Bar,,13349,Berlin
7617356459,52.3954476,13.1273888,Hotelbar,Rudolf-Breitscheid-Straße 190-192,14482,Potsdam
7647312767,52.5528672,13.3472911,Almi Su,,,
7659253637,52.4787098,13.344949,Sweet Monkey Bar,,,
7680872547,52.5555417,13.3445488,Drehmoment,Glasgower Straße 29,13349,Berlin
7687416185,52.595447,13.3320243,Bar26,,,
7689206529,52.5670655,13.5172004,Barracuda,Warnitzer Straße 24,13057,Berlin
7702380333,52.5562012,13.3721193,Cafe Lion,,,
7716439207,52.5389849,13.4228433,Luckys Bier Bar,Rykestraße 29,10405,Berlin
7728242330,52.4829109,13.4414747,Weser 58,,,
7757108364,52.5140772,13.4983885,interkosmos,Fanningerstraße 47,10365,Berlin
7765118907,52.4821791,13.4250677,V&M (Zweiners),Hermannstraße 233,12049,Berlin
7788079385,52.465815,13.4274656,Fantasy,Silbersteinstraße 101,12051,Berlin
7804926614,52.5590396,13.3862005,Café Şamata,,,
7821888885,52.4662638,13.4297197,Cafe Bar Gold,Silbersteinstraße 82,,
7849523691,52.4720839,13.4509287,Cafe Lounge,Niemetzstraße 22,12055,Berlin
7873975715,52.509259,13.3021631,Art Stalker,Kaiser-Friedrich-Straße 67,10627,Berlin
7905585320,52.4696889,13.4394258,Bajszel,Emser Straße 8-9,12051,Berlin
7928643415,52.4929029,13.3797278,the Neighbourhood,,,
7953200955,52.4693237,13.4483482,Xelor Kesselhaus JazzBar,Mittelbuschweg 10,12055,Berlin
7955521983,52.5549788,13.3719398,Lina Cafe Lounge,Heinz-Galinski-Straße 15,13347,Berlin
7959695693,52.551109,13.3679311,Bar Hadouken,,,
7978440744,52.5710296,13.3608723,Panda Bar,,,
7978440764,52.5686911,13.3614148,Cafè Time E.K.,,,
7978440766,52.5684131,13.3622818,Diamond Café Lounge,,,
7992505502,52.5503093,13.3635157,Bar Solut,,,
7995684603,52.481422,13.348212,Remem Bar,Hauptstraße 111,10827,Berlin
7995802536,52.4819584,13.3490544,Black Rose,Hauptstraße 113-115,10827,Berlin
8009527458,52.5047476,13.4964519,Pool-Inn,Wönnichstraße 68-70,10317,
8021577476,52.5139178,13.6690258,Zum Rennbahn-Eck,Rennbahnallee 1,15366,Hoppegarten
8095094749,52.4814991,13.4387227,Bar 18,Erkstraße 18,12043,Berlin
8114446143,52.4713605,13.4499946,EGO Cafe bar,Braunschweiger Straße 33,12055,Berlin
8118641420,52.5604743,13.3347652,Bar solut,,,
8331350712,52.5983372,13.3554381,Treff 26,,,
8413213040,52.4576731,13.5113925,Shisha Code Red,Brückenstraße 7,12439,Berlin
8423617316,52.4806403,13.3504964,The famous bar,Dominicusstraße 44,10827,Berlin
8464152655,52.5690009,13.5684715,Mauritius,Havemannstraße 12A,12689,Berlin
8464152661,52.5698427,13.5667615,Chill Lounge,Havemannstraße 4A,12689,Berlin
8464152666,52.571066,13.5694808,BMC Lounge,Eichhorster Straße 1C,12689,Berlin
8516433538,52.5584214,13.3711948,Manzana,Residenzstraße 80,13409,Berlin
8688706870,52.5470259,13.4095171,Savlatore Pulvermacher,,,
8809221742,52.4822073,13.4340085,Café Fulda,Fuldastraße 2,,
8912407326,52.5102675,13.4280802,,,,
8933355539,52.4711417,13.2907314,Lehmanns Weinstube,,,
9029037207,52.4950468,13.4300486,Club49,Ohlauer Straße 31,10999,Berlin
9045180679,52.5235889,13.3907508,Bar Saint Jean,Ziegelstraße 29,10117,Berlin
9070952939,52.5446486,13.368355,The B-Side,Nettelbeckplatz 56,13347,Berlin
9187138171,52.5400999,13.6208275,Fero Cafe Bar,Böhlener Straße 7,12627,Berlin
9214875565,52.5013356,13.3654119,Tiger Bar,,,
9221832353,52.5281533,13.5385618,BeachBar,,12681,Berlin
9264160672,52.5777944,13.3157357,Treffpunkt Panne,,,
9279640084,52.548643,13.4558126,MMB,Herbert-Baum-Straße 5,13088,Berlin
9331836494,52.5534832,13.3470482,Cake,Müllerstraße 54,13349,Berlin
9352941028,52.5532271,13.3820524,Maxat,,,
9356429619,52.4697038,13.4297355,Zart Daneben,Hermannstraße 99,12051,Berlin
9371207523,52.4941692,13.344973,Incognito,Hohenstaufenstraße 53,10779,Berlin
9397557434,52.5506028,13.4660866,Bademeister,Bizetstraße 143,13088,Berlin
9423354155,52.5608174,13.3876828,Public City,,,
9423354158,52.561058,13.3878826,Champions Café M Lounge,,,
9431809851,52.5500165,13.4593433,Die Darterei,Berliner Allee 106,13088,Berlin
9450251709,52.4523636,13.5352059,KICK INN,,,
9461892156,52.5727681,13.3593068,Cafe 54,,,
9495344745,52.4977269,13.3121237,Ruby,,,
9496868151,52.5415487,13.3702233,Sportsbar Twentyone,Reinickendorfer Straße 9,13347,Berlin
9501863918,52.471146,13.4518144,ZweiMalVier,Saalestraße 29,12055,
9523889809,52.5322134,13.424032,KROM,Winsstraße 9,,
9530480257,52.5666578,13.3637355,time out,,,
9531153633,52.4545197,13.5160746,Galaxy Bar,Schnellerstraße 35,12439,Berlin
9531153639,52.4548467,13.5155459,Arkadasch,Schnellerstraße 115,12439,Berlin
9562206135,52.5114055,13.3080362,Operlounge,Bismarckstraße 88,,
9656316622,52.4484598,13.3568874,La Gano,,,
9663220920,52.5625182,13.3532564,Fly,,,
9693577409,52.5515263,13.38182,Bar Santana,,,
9693592495,52.5513968,13.3816328,Cafe Divan,,,
9698094769,52.5069978,13.4543762,Cassiopeia,Revaler Straße 99,10245,Berlin
9737167645,52.5140945,13.300796,Katre,,,
9741678957,52.5469973,13.3725387,Café Asya,Pankstraße 80,,
9784061163,52.5598931,13.3812922,Black & White,,,
9816599992,52.5104272,13.2924213,Wodessa Lounge,,,
9823829856,52.553832,13.3873281,800A,Stettiner Straße 19,13357,Berlin
9823829857,52.5541587,13.3872723,Sixty9,Stettiner Straße 41,13357,Berlin
9867335578,52.5206129,13.2748776,uni keller,,,
9892583809,52.6290727,13.3112232,Zur Schmalzstulle,Niederstraße 45,,
9971724817,52.4991429,13.4298149,Eigengrau,Skalitzer Straße 45,10997,Berlin
9992881817,52.5398784,13.4147476,Doors,Knaackstraße 94,10435,Berlin
9998217225,52.559189,13.3850671,Magic Bar,,,
9998932517,52.5967822,13.3394471,Möhrchen,,,
10003704988,52.5317092,13.328746,Café Arda,Beusselstraße 37,10553,Berlin
10004140875,52.5373381,13.4221071,FIFTY Cocktail Heroes,Sredzkistraße 62,,
10034302774,52.5626495,13.3657198,,,,
10045257319,52.5449137,13.4278802,Mono,Prenzlauer Allee 88,,
10058271209,52.4941624,13.435728,GLASWEISE Weinbar,Reichenberger Straße 109,10999,Berlin
10064345324,52.5401917,13.4146272,Adara Cocktail & Hookah Bar,,,
10066682017,52.4993412,13.3419792,GEM Bar,Fuggerstraße 34,10777,
10069398117,52.4938282,13.3451582,Kuckuckszwei,,,
10088326755,52.4904917,13.4314456,Kleine Freiheit,Nansenstraße 31,12047,Berlin
10103240873,52.5308612,13.6046655,Paparazzi 63,Stollberger Straße 31,12627,Berlin
10141301399,52.5231922,13.1985206,Wunder Bar,,,
10141301405,52.5221679,13.1976031,Royal Shisha Bar,,,
10178375718,52.6654549,13.3785629,Cafe Casino,,,
10188758726,52.5048912,13.3139135,Smoke,,,
10308158102,52.5212261,13.4096113,Knutschfleck,Panoramastraße 1a,10178,Berlin
10314935583,52.5306277,13.4017601,Bar 100 Gramm,Weinbergsweg 25,,
10540009033,52.4827034,13.4319202,Majestic,Karl-Marx-Straße 60,12043,Berlin
10559629844,52.4915117,13.3931594,Junction Cafe,,,
10564972903,52.4989759,13.4301983,Repeat,Lausitzer Straße 1,10999,Berlin
10607775155,52.4763115,13.3281085,Lounge 64,Bundesallee 64,12161,Berlin
10648178213,52.5533978,13.3787503,Black Wedding Bar,,,
10652249461,52.3661854,13.0943511,Männerfalle,,,
10681117658,52.6096809,13.3356307,KnockOut by Franky,,,
10693200406,52.486138,13.4349794,Quinti Brunch & Bar,Weserstraße 31,12045,
10708090106,52.4906096,13.4348865,SWAY,Pannierstraße 29,12047,
10710960705,52.5507082,13.362812,Mex Café,,,
10759820100,52.4943755,13.3839947,B10,Großbeerenstraße 64,,
10815869135,52.4240304,13.4849421,Relax,,,
10902497105,52.4737167,13.3885448,Bar im Luftschloss,,,
10939598259,52.5157199,13.4520425,Abgedreht,,,
10944714245,52.4928128,13.3866652,Le moon,,,
10958639666,52.3669167,13.5084899,Beans & Barley,,,
10958644025,52.3678455,13.5102783,Berlin Pub,,,
10968238705,52.5074533,13.3749479,THE ALCHEMIST,Linkstraße 4,10785,Berlin
10969402149,52.4448919,13.3152399,Berlinos,Hindenburgdamm 84,12203,Berlin
10997319075,52.493801,13.3332387,Kästner Bar & Bistro,,10779,Berlin
11005743639,52.5013247,13.4169079,Zum Franziskaner,Dresdener Straße 17,10999,Berlin
11006949321,52.4416584,13.5841144,Blauer Mond,Müggelheimer Straße 21,12555,Berlin
11035783613,52.4980199,13.3493684,Boyberry Berlin,Motzstraße 19,10777,
11035951199,52.4978319,13.3477984,Blond,Motzstraße 28,10777,Berlin
11094595134,52.4224898,13.4373711,Stolpertreppe,,,
11112849994,52.4404871,13.3877093,Sports Laola Bar,,,
11119496067,52.5319148,13.349758,Cafe Bar II,,,
11146509967,52.465261,13.4423678,Meriam,,,
11148256765,52.5360974,13.6019074,P-two,,,
11153531572,52.5534161,13.4357207,Rodi,,,
11156195605,52.4908245,13.3873042,Bebo,Mehringdamm 61,10961,Berlin
11204542037,52.5035239,13.4903004,Das Weinlokal,Rupprechtstraße 31,,
11211802128,52.50989,13.4551961,Kaia,,,
11243282099,52.4925957,13.3694206,Katzler Stuebchen,,,
11247047113,52.5005841,13.4222262,Franken Bar,,,
11267067416,52.5288378,13.3962737,Pawn Dot Com,Torstraße 164,10115,Berlin
11276723429,52.5437369,13.367712,"migas, a listening bar",Lindower Straße 19,13347,Berlin
11288307630,52.5250199,13.3920276,Humboldtbar,,,
11379822356,52.4568711,13.5084234,M-Bar,,,
11422924271,52.5077324,13.4609663,SPINA,Seumestraße 2,10245,
11472992146,52.5116908,13.4178864,Bar Neiro,Ohmstraße 11,10179,Berlin
11502926870,52.5074908,13.373594,Himitsu Speakeasy Bar,Alte Potsdamer Straße 7 7,,
11515083655,52.4834276,13.4410739,Oona,,,
11577388449,52.5609811,13.3878135,Deplasman / Reyyan,,,
11583914069,52.4886087,13.4227057,Ficken3000,Urbanstraße 70,10967,Berlin
11599708040,52.5305167,13.4016781,100 Gramm Lounge,Weinbergsweg 26,,
11638641758,52.5379537,13.4107415,Kaminbar,Oderberger Straße 57-59,10435,Berlin
11646308669,52.6070267,13.3648085,,,,
11652139145,52.5104666,13.4526678,Bier-Bar,,,
11661010069,52.5352401,13.434176,,,,
11667024169,52.4811113,13.4292917,Café Huzur,,,
11669256242,52.5211981,13.4087233,Knutschfleck,Panoramastraße 1a,,
11688459683,52.4699749,13.4301579,Sportsbar 777,,,
11735126207,52.4723958,13.4405933,Little Stage,Jonasstraße 1,12053,Berlin
11762544217,52.5182338,13.3902935,Freundschaft,Mittelstraße 1,10117,Berlin
11766261231,52.5066091,13.3030775,Turn Up,,,
11768023465,52.4649391,13.3287764,Walther-Bar,,,
11777972685,52.4911813,13.4497029,BAR DaF,Bouchéstraße 15,,
11809829682,52.509819,13.2978111,Cafe All In Berlin,,,
11829124900,52.5251715,13.4107281,Hier wo du strahlst,Rosa-Luxemburg-Straße 20,10178,Berlin
11873736973,52.4989221,13.3266393,F37 Berlin Weinbar & Kunstgalerie,Fasanenstraße 37,10719,Berlin
11892812606,52.532053,13.413919,Tati,,,
11932449771,52.4985028,13.3840173,Küche Bar,Tempelhofer Ufer 16,10963,Berlin
11942554597,52.5265653,13.3515207,Orta Mezze & Bar,,,
11945354544,52.4353561,13.5471802,Lounge Fifty-Two,,,
11990127149,52.4766336,13.4263196,cafe bar,Hermannstraße 57,,
12001078369,52.5226556,13.4079224,Bata Bar & Billiards am Alex,,10178,
12029122936,52.4864214,13.4302877,Star,,,
12030585894,52.5135371,13.4743176,Café Allee,,,
12030595509,52.5141108,13.4686109,Sky Bar,,,
12049677722,52.5008915,13.4233212,Oya BarKneipe,Mariannenstraße 6,,
12057810705,52.4730512,13.4546603,Torte,Brusendorfer Straße 12,12055,Berlin
12073516362,52.5331583,13.4019413,Beavis Bar,Veteranenstraße 11,,
12079538677,52.4838453,13.501479,Gartn,Blockdammweg 1,10317,Berlin
12090841219,52.5207396,13.4085082,Lieschen Mueller,Panoramastraße 1A,10178,Berlin
12094161963,52.5324797,13.1976693,Sunset Beach,,,
12154752095,52.4923252,13.3235916,Stairs,,,
12158279188,52.4323933,13.5270733,HausElf,,,
12160360192,52.457651,13.5113304,HAVANNA BAR,,,
12195186601,52.5270872,13.3879283,Phantom Bar,,,
12247110072,52.4674059,13.5091244,Watt ‘n ditt?!,"Wattstraße, 12459 Berlin 17",,
12258271301,52.5406159,13.4032278,Mauersegler,,,
12260809701,52.5569777,13.4147264,Café Havanna Bar,,,
12307261378,52.3605541,13.410025,Weinbistro VesBar,,,
12320449440,52.4734885,13.4457229,Schloss Frizzante,Richardstraße 72,,Berlin
12323796962,52.5495276,13.4473018,Chill mal! Bar,,,
12323814033,52.5490162,13.4496533,Dennis Cafe&Bar,,,
12363208411,52.5443428,13.4420678,Schnieke,,,
12385108884,52.5575689,13.3443098,Treffpunk Schillerpark,Schöningstraße 15,13349,Berlin
12400201480,52.5302349,13.4610469,Attenzione,Oderbruchstraße 9,,
12402045594,52.4696577,13.4423262,The Beach Club,,,
12423558490,52.4613313,13.5183617,Sky Sportsbar,,,
12438529215,52.4730361,13.4546488,Torte,,,
12453332532,52.5040021,13.3157093,Zu Hell Café & Bar,Wielandstraße 38,10629,Berlin
12485213693,52.5321283,13.4239587,KROM,Winsstraße 9,10405,Berlin
12536030264,52.5347222,13.4951615,CocktailBar,,,
12537096292,52.5378543,13.4110461,Oder?Vino,Oderberger Straße 60,10435,Berlin
12551258116,52.422225,13.5764863,Da Da Da,Regattastraße 62,12527,Berlin
12558376959,52.5125199,13.4600777,Sky Sportsbar,,,
12558418634,52.5149553,13.3943706,Schinkel Bar,,,
12604740501,52.4801394,13.4380633,Honey Lou Bar,Anzengruberstraße 3,12043,
12618415888,52.5042326,13.3811591,Moe Greene,,,
12622731130,52.5132839,13.4566694,Mauritius,,,
12627866431,52.4357486,13.2577872,Fuchs & Hase,Potsdamer Str. 3,,
12672349433,52.5073796,13.4569031,Slapd,,,
12734566501,52.5056877,13.3803054,The Gibson Bar,,,
12770007392,52.4377574,13.3086613,The Knast Bar,Söhtstraße 7,,
12784500387,52.5373707,13.4081676,Pluto,Kastanienallee 27,10435,Berlin
12794214129,52.4928043,13.4282817,The Rad,,,
12798082940,52.4647329,13.432595,Majestic II,,,
12828014201,52.4795713,13.437379,PANÙ,Karl-Marx-Straße 101,12043,
12884146098,52.5697865,13.5670559,Cafe Roj Bar,,,
12884146290,52.5694778,13.5680037,Bar 7302,,,
12888468756,52.4986939,13.4343375,Club Culture Houze,Görlitzer Straße 71,,
12911621201,52.4934891,13.4178988,Donna Bar,,,
12947768401,52.4900779,13.4287006,Truffle Pig Bar,Reuterstraße 47,12047,Berlin
12978737709,52.3576893,13.4096181,Cheers XS,,,
13008968256,52.5298044,13.3879091,patesô,,,
13026729269,52.5331246,13.4148575,File Asto,Kollwitzstraße 26,10405,Berlin
13038382201,52.489353,13.4208183,U BAR,,,
13052395997,52.5137135,13.4724493,Queens 2,,,
13095292601,52.485779,13.4346968,Agatabar,,,
13159375322,52.5436187,13.3287834,Beach Bar,,,
13165534605,52.4996066,13.3491984,rastlos,Eisenacher Straße 3a,,
